category,city,fax,name,country,coord,phone,state,postal_code,last_checked,address,id
3,Tampa,(813) 879-7196,Sheraton Suites Tampa Airport Westshore,United States,"27.951556,-82.518521",(813) 873-8675,Florida,33607,2010-06-08T18:31:38,4400 West Cypress Street,1021
3,Kamloops,(250) 374-0449,Four Points by Sheraton Kamloops,Canada,"50.6515792,-120.3679604",(250) 374-4144,British Columbia,V1S 1R5,2010-06-08T18:14:55,1175 Rogers Way,1203
3,St. Louis,(314) 231-5008,Sheraton St. Louis City Center Hotel & Suites,United States,"38.624142,-90.202106",(314) 231-5007,Missouri,63103,2010-06-08T18:32:16,400 South 14th Street,1364
3,Savannah,(912) 721-1270,Four Points by Sheraton Historic Savannah,United States,"32.0818608,-81.0975686",(912) 790-1000,Georgia,31401,2010-06-08T18:41:23,520 West Bryan Street,1758
4,Nuremberg,(49)(911) 232 2444,Le Méridien Grand Hotel Nuremberg,Germany,"49.44767,11.0833",(49)(911) 23220,,90402,2010-06-08T18:14:25,Bahnhofstrasse 1-3,1854
4,Toronto,(416) 863-4102,Le Méridien King Edward,Canada,"43.6493817,-79.3766984",(416) 863-9700,Ontario,M5C 1E9,2010-06-08T17:56:18,37 King Street East,1912
3,Macaé,(55)(22) 21062686,Four Points by Sheraton Macaé,Brazil,"-22.4015016,-41.7944967",(55)(22) 21062700,Rio De Janeiro,27937-600,2010-06-08T18:37:01,110 Rua Dolores Carvalho Vasconcelos,1535
4,Atlanta,(404) 733-6990,W Atlanta - Midtown,United States,"33.7868122,-84.3816179",(404) 892-6000,Georgia,30361,2010-06-08T17:57:07,"188 14th Street, NE",3131
1,Guadalupe,(52)(81) 8318 0007,Four Points by Sheraton Monterrey Linda Vista,Mexico,"25.709714,-100.1958006",(52)(81) 8318 0000,Nuevo Leon,67138,2010-06-08T19:17:45,Av Miguel Aleman,3228
5,Panama City,(507) 297 3201,Le Méridien Panama,"Panama, Republic of","8.9666,-79.53329",(507) 297 3200,,,2010-06-08T18:48:00,Calle Uruguay & Balboa Avenue,3259
2,Indianapolis,(317) 574-4616,Four Points by Sheraton Indianapolis Carmel,United States,"39.931327,-86.148863",(317) 574-4600,Indiana,46280,2010-06-08T18:18:59,251 Pennsylvania Parkway,3517
3,Needham,(781) 455-8617,Sheraton Needham Hotel,United States,"42.3033164,-71.2192963",(781) 444-1110,Massachusetts,02494,2010-06-08T18:41:09,100 Cabot Street,15
4,Sydney,(61)(2) 9286 6686,Sheraton on the Park,Australia,"-33.871587,151.209721",(61)(2) 9286 6000,New South Wales,2000,2010-06-08T18:44:43,161 Elizabeth Street,140
3,Anchorage,(907) 276-7561,Sheraton Anchorage Hotel & Spa,United States,"61.218681,-149.902053",(907) 276-8700,Alaska,99501,2010-06-08T17:54:05,401 East 6th Avenue,350
4,Essen,(49)(201) 1007777,Sheraton Essen Hotel,Germany,"51.44485,7.00998",(49)(201) 10070,,45128,2010-06-08T18:37:06,Huyssenallee 55,481
3,Fort Lauderdale,(954) 523-5376,Sheraton Fort Lauderdale Beach Hotel,United States,"26.108147,-80.106205",(954) 524-5551,Florida,33316,2010-06-08T18:07:48,1140 Seabreeze Boulevard,664
3,Irving,(972) 929-4885,Sheraton Grand Hotel DFW Airport,United States,"32.913378,-97.00785",(972) 929-8400,Texas,75063,2010-06-08T17:58:08,4440 West John Carpenter Freeway,743
3,Taipei,(886)(2) 2394 4240,Sheraton Taipei Hotel,Taiwan,"25.043618,121.541657",(886)(2) 2321 5511,,,2010-06-08T18:22:03,12 Zhong Xiao East Road,956
4,Taipei,(886)(2) 8770 6555,The Westin Taipei,Taiwan,"25.052689,121.555151",(886)(2) 8770 6565,,104,2010-06-08T18:14:49,133 Nanjing East Road,1191
4,Warsaw,(48)(22) 625 2577,"Le Méridien Bristol, Warsaw",Poland,"52.2422083,21.0156462",(48)(22) 551 1000,,00-325,2010-06-08T19:03:16,Krakowskie Przedmiescie 42/44,1863
2,Lhasa,(86)(891) 634 1111,Four Points by Sheraton Lhasa,China,"29.6508,91.1003",(86)(891) 634 8888,Tibet (Xizang),850000,2010-06-08T18:48:00,"No. 10, Bo Linka Road",3182
3,Durham,(919) 941-5156,Sheraton Imperial Hotel & Convention Center,United States,"35.878015,-78.838388",(919) 941-5050,North Carolina,27703,2010-06-08T17:57:50,4700 Emperor Blvd,13
4,Dusseldorf,(49)(211) 4173707,Sheraton Dusseldorf Airport Hotel,Germany,"51.2793556,6.7648066",(49)(211) 41730,,40474,2010-06-08T17:54:56,Im Flughafen Dusseldorf,144
2,Richmond,(604) 214-0887,Four Points by Sheraton Vancouver Airport,Canada,"49.1783482,-123.1311994",(604) 214-0888,British Columbia,V6X 4A6,2010-06-08T18:29:13,8368 Alexandra Road,213
5,Urayasu,(81)(47) 355 5566,Sheraton Grande Tokyo Bay Hotel,Japan,"35.6326272,139.8854506",(81)(47) 355 5555,Chiba,279-0031,2010-06-08T19:06:41,1-9 Maihama,361
2,Richmond,(804) 320-5255,Sheraton Richmond Park South Hotel,United States,"37.5045,-77.579677",(804) 323-1144,Virginia,23235,2010-06-08T17:54:49,9901 Midlothian Turnpike,832
4,Coloane,(853) 2887 1122,"The Westin Resort, Macau",China,"22.1268624,113.5760968",(853) 2887 1111,Macau,,2010-06-08T17:58:25,"1918 Estrada de Hac Sa, P.O. Box 1429",1065
6,New York,(212) 253-9229,W New York - Union Square,United States,"40.736581,-73.9885259",(212) 253-9119,New York,10003,2010-06-08T17:54:36,201 Park Avenue South,1299
4,Hong Kong,(852) 2980 7888,Le Méridien Cyberport,China,"22.261486,114.1297274",(852) 2980 7788,Hong Kong,,2010-06-08T18:31:14,100 Cyberport Road,1826
5,Mahé,(248) 673 380,Le Méridien Barbarons,Seychelles,"-4.6167,55.45",(248) 673 000,,,2010-06-08T17:56:14,Victoria,1801
4,National Harbor,(301) 567-0888,The Westin Washington National Harbor,United States,"38.7831568,-77.0173044",(301) 567-3999,Maryland,20745,2010-06-08T18:34:23,171 Waterfront Street,3027
4,Austin,(512) 973-3703,The Westin Austin at The Domain,United States,"30.4001504,-97.7251019",(512) 832-4197,Texas,78758,2010-06-08T18:45:47,11301 Domain Drive,3232
4,Ica,(51)(56) 581778,"Hotel Paracas, Paracas",Peru,"-13.8346549,-76.2493603",(51)(56) 581333,,,2010-06-08T18:15:42,Av. Paracas S/N,3513
3,Windsor Locks,(860) 627-9348,Sheraton Bradley Airport Hotel,United States,"41.928687,-72.683873",(860) 627-5311,Connecticut,06096,2010-06-08T18:03:26,1 Bradley International Airport,19
5,Madrid,(34)(91) 3608100,"The Westin Palace, Madrid",Spain,"40.4155559,-3.6955169",(34)(91) 3608000,,28014,2010-06-08T17:54:27,"Plaza de las Cortes, 7",79
3,Virginia Beach,(757) 428-5352,Sheraton Virginia Beach Oceanfront Hotel,United States,"36.863808,-75.979042",(757) 425-9000,Virginia,23451,2010-06-08T18:58:30,3501 Atlantic Avenue,814
5,Whistler,(604) 905-5640,"The Westin Resort & Spa, Whistler",Canada,"50.1116121,-122.9571703",(604) 905-5000,British Columbia,V0N 1B4,2010-06-08T17:54:25,4090 Whistler Way,1199
2,Jaipur,(91)(141) 5102102,"Sheraton Rajputana Palace Hotel, Jaipur",India,"24.5922444,72.7050207",(91)(141) 5100100,Rajasthan,302006,2010-06-08T19:05:51,Palace Road,1828
4,Budapest,(36)(1) 429 5555,Le Méridien Budapest,Hungary,"47.4975929,19.0530318",(36)(1) 429 5500,,1051,2010-06-08T18:36:47,Erzsebet Ter 9-10,1861
7,Bora Bora,(689) 605152,Le Méridien Bora Bora,French Polynesia,"-16.5004126,-151.7414904",(689) 605151,,,2010-06-08T18:56:36,Motu Tape,1905
2,Chiang Mai,(66)(53) 253 667,Le Méridien Chiang Mai,Thailand,"18.7745029,98.9990277",(66)(53) 253 666,,50100,2010-06-08T18:50:13,108 Chang Klan Road,1950
4,Casablanca,(212)(52) 2540784,Le Royal Mansour Méridien,Morocco,"33.596373,-7.60865",(212)(52) 2313011,,21000,2010-06-08T18:48:01,"27, Avenue de l'Armée Royale",1816
3,Mount Laurel,(856) 234-2442,Aloft Mount Laurel,United States,"39.931994,-74.960167",(856) 234-1880,New Jersey,08054,2010-06-08T18:59:11,558 Fellowship Road,3082
4,Tokyo,(81)(3) 3447 3133,"Sheraton Miyako Hotel, Tokyo",Japan,"35.639288,139.730574",(81)(3) 3447 3111,Tokyo,108-8640,2010-06-08T18:48:01,1-1-50 Shirokanedai Minato-ku,3091
3,Phoenix,(602) 275-6307,Aloft Phoenix-Airport,United States,"33.4482745,-111.9860252",(602) 275-6300,Arizona,85034,2010-06-08T18:14:15,4450 East Washington,3174
3,Cary,(919) 900-8845,Four Points by Sheraton Raleigh-Cary,United States,"35.7574921,-78.7363404",(919) 900-8840,North Carolina,27518,2010-06-08T18:45:50,500 Caitboo Avenue,3190
5,Dallas,(214) 261-4575,"The Joule, Dallas",United States,"32.780571,-96.798394",(214) 748-1300,Texas,75201,2010-06-08T17:54:04,1530 Main Street,3321
3,Hof bei Salzburg,(43) 6229 2372 2531,"Sheraton Fuschlsee-Salzburg, Hotel Jagdhof",Austria,"47.8105695,13.2468822",(43) 6229 2372 0,,5322,2010-06-08T18:03:01,Schloss Strasse 1,3567
1,Yogyakarta,(62)(274) 484589,Sheraton Mustika Yogyakarta Resort and Spa,Indonesia,"-7.80018,110.36681",(62)(274) 488588,Yogyakarta,55282,2010-06-08T18:48:01,JL Laksda Adisucipto KM 8.7,20
4,Alexandria,(703) 548-4514,Sheraton Suites Old Town Alexandria,United States,"38.813165,-77.043502",(703) 836-4700,Virginia,22314,2010-06-08T17:54:34,801 North Saint Asaph Street,90
4,San Diego,(619) 692-2337,Sheraton San Diego Hotel & Marina,United States,"32.727063,-117.19847",(619) 291-2900,California,92101,2010-06-08T19:21:01,1380 Harbor Island Drive,127
2,West Drayton,(44)(208) 7592091,Sheraton Heathrow Hotel,United Kingdom,"51.4703429,-0.4534243",(44)(208) 7592424,England,UB7 0HJ,2010-06-08T18:38:25,Heathrow Airport,293
2,Monterrey,(52)(81) 8345 1984,Sheraton Ambassador Hotel,Mexico,"25.684956,-100.3097463",(52)(81) 8380 7000,Nuevo Leon,64000,2010-06-08T18:36:54,Ave. Hidalgo 310 Oriente,303
4,Chennai,(91)(44) 28110202,"Sheraton Chola Hotel, Chennai",India,"13.0486089,80.2536838",(91)(44) 28110101,Tamil Nadu,600 086,2010-06-08T18:43:06,10 Cathedral Road,424
1,Chambersburg,(717) 263-4752,Four Points by Sheraton Chambersburg,United States,"39.9286102,-77.6337802",(717) 263-9191,Pennsylvania,17201,2010-06-08T18:02:44,1123 Lincoln Way East,1165
4,Charlotte,(704) 375-2623,The Westin Charlotte,United States,"35.221807,-80.847304",(704) 375-2600,North Carolina,28202,2010-06-08T18:06:05,601 South College Street,1383
4,Tarrytown,(914) 332-7950,Sheraton Tarrytown Hotel,United States,"41.062673,-73.839133",(914) 332-7900,New York,10591-5104,2010-06-08T18:23:04,600 White Plains Rd,1428
3,Krabi,(66)(75) 628028,Sheraton Krabi Beach Resort,Thailand,"8.040506,98.820596",(66)(75) 628000,,81000,2010-06-08T18:36:56,"155  Moo 2, Nong Thale",1438
5,Scottsdale,(480) 970-2105,W Scottsdale,United States,"33.5022193,-111.9238828",(480) 970-2100,Arizona,85251,2010-06-08T18:14:24,7277 East Camelback Road,1736
6,Vieques Island,(954) 624-1712,W Retreat & Spa - Vieques Island,United States,"18.15482,-65.44281",(787) 741-4100,Puerto Rico,00765,2010-06-08T18:48:01,State Road 200,3170
5,St. Petersburg,(7)(812) 3260956,"W St. Petersburg - Opening September 1, 2010",Russia,"59.9000058,30.2546864",(7)(812) 3260959,,190000,2010-06-08T18:41:27,4-6 Voznesensky Prospect,3270
3,Nusa Dua,(62)(361) 771908,"The Westin Resort Nusa Dua, Bali",Indonesia,"-8.802227,115.237397",(62)(361) 771906,Bali,80363,2010-06-08T18:44:52,P.O. Box 36,35
5,Houston,(713) 840-8036,The St. Regis Houston,United States,"29.74736,-95.450496",(713) 840-7600,Texas,77027-3408,2010-06-08T17:54:28,1919 Briar Oaks Lane,247
3,Genova,(39)(010) 6549055,Sheraton Genova Hotel & Conference Center,Italy,"44.4378864,8.8417888",(39)(010) 65491,,16154,2010-06-08T18:03:33,"Via Pionieri ed Aviatori d'Italia, 44",313
2,Manchester,(603) 668-6116,Four Points by Sheraton Manchester Airport,United States,"42.95972,-71.4381083",(603) 668-6110,New Hampshire,03103,2010-06-08T17:54:37,55 John East Devine Drive,778
3,Philadelphia,(215) 387-7920,Sheraton Philadelphia University City Hotel,United States,"39.954622,-75.194077",(215) 387-8000,Pennsylvania,19104,2010-06-08T18:12:53,3549 Chestnut Street,992
4,Vancouver,(604) 687-3102,"The Westin Bayshore, Vancouver",Canada,"49.2914154,-123.1293487",(604) 682-3377,British Columbia,V6G 2V4,2010-06-08T18:46:29,1601 Bayshore Drive,1080
3,Montevideo,(598)(2) 712 1262,Sheraton Montevideo Hotel,Uruguay,"-34.9244588,-56.1576719",(598)(2) 710 2121,,11300,2010-06-08T18:14:09,Calle Victor Solino 349,1238
3,Hermanus,(27)(28) 284 0003,Arabella Western Cape Hotel & Spa,South Africa,"-34.4204321,19.2401141",(27)(28) 284 0000,,,2010-06-08T18:31:10,R44 to Kleinmond,1371
3,Bari,(39)(080) 5042058,Sheraton Nicolaus Hotel & Conference Center,Italy,"40.9949213,17.222103",(39)(080) 5682111,,70124,2010-06-08T17:54:42,"Via Cardinale A. Ciasca, 27",28
2,Bakersfield,(661) 323-3508,Four Points by Sheraton Bakersfield,United States,"35.359882,-119.058666",(661) 325-9700,California,93309,2010-06-08T18:43:04,5101 California Avenue,822
4,Niagara Falls,(905) 371-0157,Sheraton on the Falls Hotel,Canada,"43.0928754,-79.0700332",(905) 374-4445,Ontario,L2G 3K7,2010-06-08T19:04:28,5875 Falls Avenue,1330
5,Shanghai,(86)(21) 6335 2888,"The Westin Bund Center, Shanghai",China,"31.232424,121.486843",(86)(21) 6335 1888,Shanghai,200002,2010-06-08T18:48:01,"Bund Center, 88 Henan Central Road",1379
3,Nuremberg,(49)(911) 2003111,Sheraton Carlton Hotel Nuernberg,Germany,"49.44539,11.07769",(49)(911) 20030,,90443,2010-06-08T18:45:50,Eilgutstrasse 15,1407
6,Koh Samui,(66)(77) 915998,"W Retreat Koh Samui - Opening August 1, 2010",Thailand,"9.5625636,99.9744535",(66)(77) 915999,,84330,2010-06-08T19:04:55,4/1 Moo 1 Tambol Maenam,3058
3,San Antonio,(210) 690-0310,Four Points by Sheraton San Antonio Northwest,United States,"29.4924176,-98.7064042",(210) 690-0300,Texas,78249,2010-06-08T18:14:22,6809 North Loop 1604 West,3337
6,Firenze,(39)(055) 210278,"The Westin Excelsior, Florence",Italy,"43.7723959,11.2454588",(39)(055) 27151,,50123,2010-06-08T17:57:49,Piazza Ognissanti 3,43
6,Seville,(34)(95) 4917099,"Hotel Alfonso XIII, Seville",Spain,"37.382184,-5.992589",(34)(95) 4917000,,41004,2010-06-08T18:43:00,San Fernando 2,88
4,Savannah,(912) 201-2001,The Westin Savannah Harbor Golf Resort & Spa,United States,"32.083611,-81.085217",(912) 201-2000,Georgia,31421,2010-06-08T18:37:05,1 Resort Drive,1169
4,Philadelphia,(215) 567-2822,The Westin Philadelphia,United States,"39.9529899,-75.1684441",(215) 563-1600,Pennsylvania,19103,2010-06-08T18:03:24,99 South 17th Street at Liberty Place,1231
4,Davos-Platz,(41)(81) 417 93 34,Sheraton Davos Hotel Waldhuus,Switzerland,"46.7973577,9.8346801",(41)(81) 417 93 33,,7270,2010-06-08T19:02:55,Mattastrasse 58,1252
5,Mexico City,(52)(55) 91381899,W Mexico City,Mexico,"19.428776,-99.190621",(52)(55) 91381800,Federal District ,11560,2010-06-08T19:01:20,Campos Eliseos 252,1444
4,New York,(212) 229-1018,Four Points by Sheraton Manhattan SoHo Village,United States,"40.7271626,-74.0060747",(212) 229-9988,New York,10014,2010-06-08T17:56:16,66 Charlton Street,1537
4,Beijing,(86)(10) 6606 8899,The Westin Beijing Financial Street,China,"39.92012,116.35985",(86)(10) 6606 8866,Beijing,100140,2010-06-08T18:48:04,9B Financial Street,1704
4,Podstrana - Split,(385)(21) 500705,"Le Méridien Lav, Split",Croatia,"43.48461,16.55153",(385)(21) 500500,,21312,2010-06-08T18:48:04,"Grljevacka, 2A",1956
3,North Charleston,(843) 566-7001,Aloft Charleston Airport & Convention Center,United States,"32.873221,-80.018178",(843) 566-7300,South Carolina,29418,2010-06-08T17:54:41,4875 Tanger Outlet Boulevard,1990
2,Xiamen,(86)(592) 770 9998,Le Méridien Xiamen,China,"24.502926,118.0936",(86)(592) 770 9999,Fujian,361006,2010-06-08T18:48:04,No. 7 Guanjun Road,3310
6,Firenze,(39)(055) 217400,"Grand Hotel, Florence",Italy,"43.7722646,11.2452671",(39)(055) 27161,,50123,2010-06-08T18:16:56,Piazza Ognissanti 1,45
3,Wilmington,(302) 654-6036,Sheraton Suites Wilmington,United States,"39.747355,-75.551357",(302) 654-8300,Delaware,19801,2010-06-08T18:00:41,422 Delaware Avenue,92
3,Atlanta,(770) 916-3165,Sheraton Suites Galleria-Atlanta,United States,"33.8844481,-84.4702659",(770) 955-3900,Georgia,30339,2010-06-08T17:56:10,2844 Cobb Parkway  S.E.,111
4,Palo Alto,(650) 327-7362,Sheraton Palo Alto Hotel,United States,"37.441139,-122.163559",(650) 328-2800,California,94301,2010-06-08T18:41:22,625 El Camino Real,214
3,Rome,(39)(06) 6528 7060,"Sheraton Golf Parco de' Medici Hotel & Resort, Roma",Italy,"41.8170331,12.4061103",(39)(06) 65288,,00148,2010-06-08T18:07:09,"Viale Salvatore Rebecchini, 39",931
4,Rancho Mirage,(760) 324-6343,"The Westin Mission Hills Resort Villas, Palm Springs",United States,"33.800904,-116.413771",(760) 770-8250,California,92270,2010-06-08T18:11:53,71777 Dinah Shore Drive,1369
3,N'Djamena,(235) 2522261,Le Méridien Chari,Chad,"12.104797,15.044506",(235) 2525350,,,2010-06-08T19:11:40,396 Rue du Colonel Moll,1805
2,Augusta,(706) 396-1001,Sheraton Augusta Hotel,United States,"33.5147183,-82.041848",(706) 396-1000,Georgia,30907,2010-06-08T19:15:24,1069 Stevens Creek Road,1978
3,Baltimore,(410) 296-9534,Sheraton Baltimore North Hotel,United States,"39.4065054,-76.5999842",(410) 321-7400,Maryland,21204,2010-06-08T18:16:38,903 Dulaney Valley Road,33
4,Tucson,(520) 577-5878,The Westin La Paloma Resort & Spa,United States,"32.3116597,-110.9115338",(520) 742-6000,Arizona,85718,2010-06-08T18:04:46,3800 East Sunrise Drive,1001
3,Munich,(49)(89) 5196801,Sheraton Munich Westpark Hotel,Germany,"48.13378,11.53238",(49)(89) 51960,,80339,2010-06-08T17:57:16,Garmischer Strasse 2,146
5,Marshalls Creek,(570) 226-6982,Pocono Palace Resort,United States,"41.034092,-75.1391639",(570) 588-6692,Pennsylvania,18335,2010-06-08T18:43:28,Rt 209,153
4,Tel Aviv,(972)(3) 5233322,Sheraton Tel Aviv Hotel and Towers,Israel,"32.08145,34.76838",(972)(3) 5211111,,63573,2010-06-08T18:48:04,115 Hayarkon Street,326
3,Kampala,(256)(414) 256696,Sheraton Kampala Hotel,Uganda,"0.3169183,32.5821577",(256)(414) 420000,,,2010-06-08T17:55:19,Ternan Avenue,410
3,San Diego,(858) 279-3555,Four Points by Sheraton San Diego,United States,"32.810461,-117.148665",(858) 277-8888,California,92123,2010-06-08T19:07:58,8110 Aero Drive,671
3,Atlantic Beach,(252) 240-1452,Sheraton Atlantic Beach Oceanfront Hotel,United States,"34.6981658,-76.7745278",(252) 240-1155,North Carolina,28512,2010-06-08T17:54:38,2717 W. Fort Macon Road,677
4,Vienna,(703) 610-8293,Sheraton Premiere at Tysons Corner,United States,"38.931071,-77.24453",(703) 448-1234,Virginia,22182,2010-06-08T18:14:11,8661 Leesburg Pike,691
2,Oklahoma City,(405) 232-8752,Sheraton Oklahoma City Hotel,United States,"35.467082,-97.515096",(405) 235-2780,Oklahoma,73102,2010-06-08T19:11:19,1 North Broadway Avenue,1046
2,Edison,(732) 225-0037,Sheraton Edison Hotel Raritan Center,United States,"40.5163807,-74.3395711",(732) 225-8300,New Jersey,08837,2010-06-08T18:19:59,125 Raritan Center Parkway,1380
4,Kyoto,(81)(75) 751-2490,"The Westin Miyako, Kyoto",Japan,"35.0080367,135.7893359",(81)(75) 771-7111,Kyoto,605-0052,2010-06-08T18:13:50,"Sanjo, Keage, Higashiyama-ku",1427
2,Meriden,(203) 238-3172,Four Points by Sheraton Meriden,United States,"41.519164,-72.7615313",(203) 238-2380,Connecticut,06450,2010-06-08T17:55:17,275 Research Parkway,1504
3,Caguas,(787) 653-1700,Four Points by Sheraton Caguas Real Hotel & Casino,United States,"18.22047,-66.04066",(787) 653-1111,Puerto Rico,00726,2010-06-08T18:48:06,500 Alhambra en Granada Boulevard,1548
5,Valencia,(34)(963) 625909,The Westin Valencia,Spain,"39.4730946,-0.359983",(34)(963) 625900,,46010,2010-06-08T19:18:04,"Amadeo de Saboya, 16",1722
2,Rancho Cucamonga,(909) 204-6111,Four Points by Sheraton Ontario-Rancho Cucamonga,United States,"34.1064931,-117.5437614",(909) 204-6100,California,91739,2010-06-08T18:45:29,11960 Foothill Boulevard,1739
4,Douala,(237) (3) 342 3507,Le Méridien Douala,Cameroon,"4.036961,9.6828762",(237) (3) 343 5000,,,2010-06-08T18:42:53,35 Avenue des Cocotiers,1804
3,Irving,(972) 717-6161,Aloft Las Colinas,United States,"32.866555,-96.9428166",(972) 717-6100,Texas,75062,2010-06-08T19:23:16,122 East John Carpenter Freeway,3098
3,Saskatoon,(306) 933-9880,Four Points by Sheraton Saskatoon,Canada,"52.0839318,-106.6415985",(306) 933-9889,Saskatchewan,S7T 0G3,2010-06-08T19:08:49,103 Stonebridge Boulevard,3185
4,Langkawi,(60)(4) 959 1168,"The Andaman, Langkawi",Malaysia,"6.42843,99.676236",(60)(4) 959 1088,,07000,2010-06-08T18:37:00,Jalan Teluk Datai,3528
2,Atlanta,(770) 991-5906,Sheraton Gateway Hotel Atlanta Airport,United States,"33.626439,-84.451625",(770) 997-1100,Georgia,30337,2010-06-08T18:37:18,1900 Sullivan Road,48
2,Birmingham,(205) 307-3045,Sheraton Birmingham Hotel,United States,"33.514416,-86.803527",(205) 324-5000,Alabama,35203,2010-06-08T18:36:24,2101 Richard Arrington Jr. Boulevard North,115
3,Norwood,(781) 551-3552,Four Points by Sheraton Norwood,United States,"42.1749613,-71.1935195",(781) 769-7900,Massachusetts,02062,2010-06-08T17:57:13,1125 Boston Providence Turnpike,208
4,Noosa Heads,(61)(7) 5449 2230,Sheraton Noosa Resort & Spa,Australia,"-26.396175,153.089397",(61)(7) 5449 4888,Queensland,4567,2010-06-08T18:24:05,"14-16 Hastings Street, Box 886",449
4,Seattle,(206) 728-2259,The Westin Seattle,United States,"47.6132904,-122.3378583",(206) 728-1000,Washington,98101,2010-06-08T18:16:34,1900 5th Avenue,460
4,Waltham,(781) 290-5626,The Westin Waltham Boston,United States,"42.395046,-71.259518",(781) 290-5600,Massachusetts,02451,2010-06-08T18:36:46,70 Third Avenue,1035
4,Chandler,(602) 225-0300,Sheraton Wild Horse Pass Resort & Spa,United States,"33.2660245,-111.9900226",(602) 225-0100,Arizona,85226,2010-06-08T17:55:30,5594 W Wild Horse Pass Blvd,1391
3,Dallas,(214) 953-1931,"The Westin City Center, Dallas",United States,"32.7861392,-96.7953956",(214) 979-9000,Texas,75201,2010-06-08T17:57:39,650 North Pearl Street,1420
2,Haikou,(86)(898) 6870 6999,Sheraton Haikou Resort,China,"20.0227223,110.2706417",(86)(898) 687 08888,Hainan,570311,2010-06-08T17:58:22,199 Bin Hai Road,1578
3,Siem Reap,(855)(63) 963 901,Le Méridien Angkor,Cambodia,"13.3841035,103.863169",(855)(63) 963 900,,,2010-06-08T19:05:33,Vithei Charles de Gaulle,1825
4,Taif,(966)(2) 754 4831,Le Méridien Al Hada,Saudi Arabia,"21.2666667,40.4166667",(966)(2) 754 1400,,,2010-06-08T18:36:55,Al Hada Ring Road,1886
4,Tahiti,(689) 470728,Le Méridien Tahiti,French Polynesia,"-17.67988,-149.58645",(689) 470707,,97718,2010-06-08T18:48:07,Tamanu,1906
5,Avon,(970) 790-5555,"The Westin Riverfront Resort & Spa, Avon",United States,"39.632907,-106.524591",(970) 790-6000,Colorado,81620,2010-06-08T18:43:01,126 Riverfront Lane,1958
2,Beijing,(86)(10) 8889 8666,"Aloft Beijing, Haidian",China,"39.95725,116.27955",(86)(10) 8889 8000,Beijing,100097,2010-06-08T18:48:07,Tower 2 No. 25 Yuanda Road,3096
3,Nha Trang City,(84)(58) 388 2222,Sheraton Nha Trang Hotel & Spa,Vietnam,"12.2337138,109.1976213",(84)(58) 388 0000,,,2010-06-08T19:25:28,26-28 Tran Phu Street,3217
3,San Antonio,(210) 541-8886,Aloft San Antonio Airport,United States,"29.521675,-98.496992",(210) 541-8881,Texas,78216,2010-06-08T18:15:44,838 NW Loop 410,3348
3,Rosemont,(847) 699-0391,Sheraton Gateway Suites Chicago O'Hare,United States,"41.9966099,-87.8844369",(847) 699-6300,Illinois,60018,2010-06-08T18:45:54,6501 North Mannheim Road,40
3,Toronto,(416) 947-4854,Sheraton Centre Toronto Hotel,Canada,"43.6512559,-79.3843677",(416) 361-1000,Ontario,M5H 2M9,2010-06-08T19:07:51,123 Queen Street West,271
1,Jakarta,(62)(21) 626 3027,Sheraton Media Hotel & Towers,Indonesia,"-6.16797,106.8404795",(62)(21) 626 3001,Jakarta,10720,2010-06-08T18:14:18,Jl. Gunung Sahari 3,297
4,Sunnyvale,(408) 734-8276,Sheraton Sunnyvale Hotel,United States,"37.404483,-122.024762",(408) 745-6000,California,94089,2010-06-08T18:14:28,1100 North Mathilda Avenue,754
4,Miami Beach,(305) 532-2490,Four Points by Sheraton Miami Beach,United States,"25.815568,-80.122105",(305) 531-7494,Florida,33140,2010-06-08T18:03:03,4343 Collins Avenue,862
4,Mahwah,(201) 529-4709,Sheraton Mahwah Hotel,United States,"41.103884,-74.161448",(201) 529-1660,New Jersey,07495,2010-06-08T17:56:17,1 International Boulevard,868
3,Toronto,(416) 444-9597,"The Westin Prince, Toronto",Canada,"43.7559442,-79.348224",(416) 444-2511,Ontario,M3B 3H2,2010-06-08T17:54:08,900 York Mills Road,1085
4,Berlin,(49)(30) 20273362,"The Westin Grand, Berlin",Germany,"52.5157,13.389",(49)(30) 20270,,10117,2010-06-08T18:06:10,Friedrichstrasse 158-164,1105
3,San Antonio,(210) 227-3299,Sheraton Gunter Hotel San Antonio,United States,"29.426862,-98.490995",(210) 227-3241,Texas,78205,2010-06-08T19:19:05,205 East Houston Street,1291
4,Porto,(351)(22) 0404199,Sheraton Porto Hotel & Spa,Portugal,"41.1610965,-8.6408121",(351)(22) 0404000,,4100-476,2010-06-08T18:05:46,Rua Tenente Valadim 146,1454
7,Bora Bora,(689) 607856,The St. Regis Bora Bora Resort,French Polynesia,"-16.45475,-151.72864",(689) 607898,,98730,2010-06-08T18:48:07,Motu Ome'e BP 506,1743
3,Cochin,(91)(484) 2705750,Le Méridien Cochin Resort & Convention Centre,India,"9.9396592,76.3260992",(91)(484) 2705777,Kerala,682304,2010-06-08T18:36:52,Maradu,1827
4,Turin,(39)(011) 664 2001,Le Méridien Turin Art+Tech,Italy,"45.034212,7.6679513",(39)(011) 664 2000,,10126,2010-06-08T18:14:50,Via Nizza 230,1873
4,Brussels,(32)(2) 548 4080,Le Méridien Brussels,Belgium,"50.846003,4.3560866",(32)(2) 548 4211,,1000,2010-06-08T18:45:48,Carrefour de l'Europe 3,1914
4,Wanning City,(86)(898) 6252 8999,Le Méridien Shimei Bay Beach Resort & Spa,China,"18.6531,110.2536",(86)(898) 6252 8888,Hainan,571529,2010-06-08T18:48:07,Shimei Bay ,1954
3,Lexington,(781) 761-1705,Aloft Lexington,United States,"42.44566,-71.262324",(781) 761-1700,Massachusetts,02421,2010-06-08T19:27:24,727 Marrett Road - A,3209
3,Richmond,(604) 278-0188,Sheraton Vancouver Airport Hotel,Canada,"49.1702533,-123.1408658",(604) 273-7878,British Columbia,V6X 1A3,2010-06-08T18:37:23,7551 Westminster Highway,3456
4,Orlando,(407) 238-5005,"Sheraton Vistana Villages Resort Villas, I-Drive/Orlando",United States,"28.3873977,-81.4772555",(407) 238-5000,Florida,32821,2010-06-11T16:44:29,12401 International Drive,5607
5,Milan,(39)(02) 63366337,"The Westin Palace, Milan",Italy,"45.4791209,9.1986271",(39)(02) 63361,,20124,2010-06-08T18:48:31,Piazza della Repubblica 20,49
3,Hayes,(44)(208) 7509150,Sheraton Skyline Hotel London Heathrow,United Kingdom,"51.481543,-0.437221",(44)(208) 7592535,England,UB3 5BP,2010-06-08T18:05:08,"Heathrow Airport, Bath Road",268
4,Montreal,(514) 878-3958,Le Centre Sheraton Montreal Hotel,Canada,"45.4980308,-73.5711646",(514) 878-2000,Quebec,H3B 2L7,2010-06-08T18:16:42,1201 Boulevard Rene-Levesque West,463
4,Pretoria,(27)(12) 429 9300,Sheraton Pretoria Hotel,South Africa,"-25.7447842,28.2120407",(27)(12) 429 9999,,0007,2010-06-08T17:54:44,643 corner of Church and Wessels Streets,1136
2,Shenyang,(86)(24) 2318 8000,Sheraton Shenyang Lido Hotel,China,"41.7572108,123.4366078",(86)(24) 2318 8888,Liaoning,110004,2010-06-08T19:28:10,"386 Qingnian Street, Heping District",1184
2,Phoenix,(602) 943-6156,Four Points by Sheraton Phoenix North,United States,"33.5798652,-112.1218154",(602) 997-5900,Arizona,85051,2010-06-08T18:37:08,10220 North Metro Parkway East,1256
4,Scottsdale,(480) 624-1001,The Westin Kierland Resort & Spa,United States,"33.627645,-111.935942",(480) 624-1000,Arizona,85254,2010-06-08T18:42:56,6902 East Greenway Parkway,1386
4,Kailua-Kona,(808) 930-4800,Sheraton Keauhou Bay Resort & Spa,United States,"19.558553,-155.964846",(808) 930-4900,Hawaii,96740,2010-06-08T18:26:07,78-128 Ehukai Street,1469
4,Hamburg,(49)(40) 2100 1111,Le Royal Méridien Hamburg,Germany,"53.55834,10.00749",(49)(040) 2100 0,,20099,2010-06-08T18:14:12,An der Alster 52-56,1857
4,Herndon,(703) 793-3866,The Westin Washington Dulles Airport,United States,"38.9543026,-77.4273571",(703) 793-3366,Virginia,20171,2010-06-08T18:13:53,2520 Wasser Terrace,3103
3,Malpensa,(39)(02) 63363600,Sheraton Milan Malpensa Airport Hotel & Conference Centre,Italy,"45.6313567,8.7228391",(39)(02) 63363636,,21010,2010-06-08T18:37:12,Malpensa Terminal 1 S.S. 336,3138
4,Long Beach,(562) 436-9176,The Westin Long Beach,United States,"33.767032,-118.188488",(562) 436-3000,California,90802,2010-06-08T17:55:49,333 East Ocean Boulevard,1003
6,Paris,(33)(1) 53237878,"Prince de Galles, Paris",France,"48.8691549,2.3009703",(33)(1) 53 237777,,75008,2010-06-08T18:03:45,33 Avenue George V,250
5,Dubai,(971)(4) 2213468,Sheraton Dubai Creek Hotel & Towers,United Arab Emirates,"25.25,55.3",(971)(4) 2281111,,,2010-06-08T19:07:09,Baniyas Street/Creek Road,408
3,Fort Lauderdale,(954) 772-6867,The Westin Fort Lauderdale,United States,"26.204431,-80.138016",(954) 772-1331,Florida,33334,2010-06-08T18:30:13,400 Corporate Drive,598
4,Arlington,(703) 769-3970,Sheraton Crystal City Hotel,United States,"38.857088,-77.052656",(703) 486-1111,Virginia,22202,2010-06-08T18:45:46,1800 Jefferson Davis Highway,741
5,Los Cabos,(52)(624) 142 9066,"The Westin Resort & Spa, Los Cabos",Mexico,"26.0444446,-111.6660725",(52)(624) 142 9000,Baja California Sur,23400,2010-06-08T19:03:52,Carretera Transpeninsular KM 22.5,1087
4,Leipzig,(49)(341) 1403700,"Hotel Fuerstenhof, Leipzig",Germany,"51.34472,12.37304",(49)(341) 140 0,,04105,2010-06-08T17:57:54,Troendlinring 8,1359
2,Maitland,(407) 660-9008,Sheraton Orlando North Hotel,United States,"28.632099,-81.391032",(407) 660-9000,Florida,32751,2010-06-08T18:35:23,600 North Lake Destiny Drive,1725
3,Rancho Cucamonga,(909) 484-6491,Aloft Ontario-Rancho Cucamonga,United States,"34.077519,-117.578387",(909) 484-2018,California,91730,2010-06-08T17:56:26,10480 Fourth Street,3071
4,Brussels,(32)(2) 224 31 01,Aloft Brussels Schuman,Belgium,"50.8401884,4.3800555",(32)(2) 224 31 11,,1040,2010-06-08T18:37:09,Place Jean Rey,3242
5,Costa Navarino,(30)(272) 309 5500,"The Westin Resort, Costa Navarino",Greece,"36.9136316,21.6965419",(30)(272) 309 5000,,24001,2010-06-08T18:13:52,Navarino Dunes,3289
5,Costa Navarino,(30)(272) 309 6500,"The Romanos, Costa Navarino",Greece,"36.9136316,21.6965419",(30)(272) 309 6000,,24001,2010-06-08T18:36:32,Navarino Dunes,3290
5,Scottsdale,(480) 624-1701,"The Westin Kierland Villas, Scottsdale",United States,"33.628915,-111.938196",(480) 624-1700,Arizona,85254,2010-06-08T19:11:48,15620 North Clubgate Drive,5639
4,Los Angeles,(213) 612-4800,"The Westin Bonaventure Hotel & Suites, Los Angeles",United States,"34.053184,-118.256021",(213) 624-1000,California,90071,2010-06-08T18:36:45,404 South Figueroa Street,1004
7,Porto Cervo,(39)(0789) 976617,"Hotel Cala di Volpe, Costa Smeralda",Italy,"40.866965,9.2632",(39)(0789) 976111,,07020,2010-06-08T17:55:53,Costa Smeralda,59
2,Kuala Lumpur,(60)(3) 2717 9999,Sheraton Imperial Kuala Lumpur Hotel,Malaysia,"3.155552,101.705252",(60)(3) 2717 9900,,50250,2010-06-08T17:56:39,Jalan Sultan Ismail,129
4,Niagara Falls,(905) 374-6224,Sheraton Fallsview Hotel & Conference Center,Canada,"43.0780954,-79.0822842",(905) 374-1077,Ontario,L2G 3W7,2010-06-08T19:22:10,6755 Fallsview Boulevard,610
2,Pleasanton,(925) 847-9455,Four Points by Sheraton Pleasanton,United States,"37.69653,-121.903342",(925) 460-8800,California,94588,2010-06-08T17:55:13,5115 Hopyard Road,712
3,Norwalk,(203) 846-6925,Four Points by Sheraton Norwalk,United States,"41.1007645,-73.4334989",(203) 849-9828,Connecticut,06851,2010-06-08T17:54:31,"426 Main Avenue, Route 7",742
2,Chapel Hill,(919) 968-3520,Sheraton Chapel Hill Hotel,United States,"35.9419419,-79.0182452",(919) 968-4900,North Carolina,27517,2010-06-08T17:55:51,One Europa Drive,1124
4,Santa Monica,(310) 399-2504,Sheraton Delfina Santa Monica Hotel,United States,"34.0105334,-118.485643",(310) 399-9344,California,90405,2010-06-08T18:37:28,530 Pico Boulevard,1135
4,Shanghai,(86)(21) 6875 6789,The St. Regis Shanghai,China,"31.189952,121.5054338",(86)(21) 5050 4567,Shanghai,200122,2010-06-08T17:54:02,"889 Dong Fang Road, Pudong District",1365
2,6th of October City,(20)(2) 385 95100,Sheraton Dreamland Hotel & Conference Center,Egypt,"29.9315549,30.9303084",(20) (2) 385 95000,,,2010-06-08T18:36:44,Wahat Road,1414
4,Princeton,(609) 452-1223,The Westin Princeton at Forrestal Village,United States,"40.3557209,-74.6124559",(609) 452-7900,New Jersey,08540,2010-06-08T19:20:43,201 Village Boulevard,1440
4,Montreal,(514) 395-3150,W Montréal,Canada,"45.5017497,-73.5616494",(514) 395-3100,Quebec,H2Z 1R1,2010-06-08T18:43:02,901 Square Victoria,1471
4,Pattaya,(66)(38) 259899,Sheraton Pattaya Resort,Thailand,"12.9160681,100.8668655",(66)(38) 259888,,20150,2010-06-08T18:56:36,437 Phra Tamnak Road,1549
2,San Salvador,(503) 2283 4040,Sheraton Presidente San Salvador Hotel,El Salvador,"13.6925106,-89.2419843",(503) 2283 4000,,,2010-06-08T18:05:56,Ave. La Revolucion,1597
4,Eilat,(972) (8) 638 3300,Le Méridien Eilat,Israel,"37.8016033,-122.4106233",(972) (8) 638 3333,,88119,2010-06-08T18:05:43,North Beach,1882
4,Beijing,(86)(10) 5922 8999,The Westin Beijing Chaoyang,China,"39.94811,116.45473",(86)(10) 5922 8888,Beijing,100027,2010-06-08T18:48:09,7 North Dongsanhuan Road,1967
4,Scottsdale,(480) 515-9699,"Sheraton Desert Oasis Villas, Scottsdale",United States,"33.646283,-111.908385",(480) 515-5888,Arizona,85255,2010-06-08T18:37:02,17700 North Hayden Road,5611
4,Costa Mesa,(714) 662-6695,"The Westin South Coast Plaza, Costa Mesa",United States,"33.690767,-117.884161",(714) 540-2500,California,92626,2010-06-08T19:21:45,686 Anton Boulevard,1002
5,Dubai,(971)(4) 268 8876,"Sheraton Deira Hotel, Dubai",United Arab Emirates,"25.25,55.3",(971)(4) 268 8888,,,2010-06-08T17:54:00,Al Mateena Street,724
3,Tempe,(480) 829-9427,Sheraton Phoenix Airport Hotel Tempe,United States,"33.4115321,-111.9695324",(480) 967-6600,Arizona,85281,2010-06-08T18:14:23,1600 South 52nd Street,954
6,Tokyo,(81)(3) 5423 7600,The Westin Tokyo,Japan,"35.7529182,139.7387218",(81)(3) 5423 7000,Tokyo,153-8580,2010-06-08T17:56:28,1-4-1 Mita,1062
3,Anaheim,(714) 971-3626,Sheraton Park Hotel at the Anaheim Resort,United States,"33.801046,-117.91597",(714) 750-1811,California,92802,2010-06-08T18:05:47,1855 South Harbor Boulevard,1569
2,Sacramento,(916) 263-9933,Four Points by Sheraton Sacramento International Airport,United States,"38.655076,-121.539037",(916) 263-9000,California,95834,2010-06-08T18:06:47,4900 Duckhorn Drive,1580
4,Carlsbad,(760) 827-2410,Sheraton Carlsbad Resort & Spa,United States,"33.1290375,-117.3091012",(760) 827-2400,California,92008,2010-06-08T18:47:21,5480 Grand Pacific Drive,1719
7,North Ari Atoll,(960) 664 1979,W Retreat & Spa - Maldives,"Maldives, Republic of","4.170864,73.502312",(960) 666 2222,,,2010-06-08T18:48:09,Fesdu Island,1585
4,Portimão,(351)(282) 420300,Le Méridien Penina Golf & Resort,Portugal,"37.159308,-8.5646347",(351)(282) 420200,,8501-952,2010-06-08T18:14:05,Penina,1928
4,Lake Mary,(407) 531-3553,"The Westin Lake Mary, Orlando North",United States,"28.7726646,-81.3589105",(407) 531-3555,Florida,32746,2010-06-08T17:54:12,2974 International Parkway,3088
3,Leawood,(913) 345-9940,Aloft Overland Park at Leawood Town Center,United States,"38.917305,-94.648372",(913) 345-9430,Kansas,66211,2010-06-08T18:03:28,11620 Ash Street,3136
6,Barcelona,(34) 93 3123506,W Barcelona,Spain,"41.6706257,1.8399197",(34)(93) 295 2800,,08039,2010-06-08T19:09:58,"Placa de la Rosa dels Vents, 1",3183
5,Tripoli,(218) (21) 4773350,Four Points by Sheraton Tripoli,Libya,"32.876174,13.187507",(218) (21) 7153202,,,2010-06-08T17:59:40,Hi Elandalous,3365
4,Costa Mesa,(714) 662-6695,"The Westin South Coast Plaza, Costa Mesa",United States,"33.690767,-117.884161",(714) 540-2500,California,92626,2010-06-08T18:45:53,686 Anton Boulevard,1005
6,Vienna,(43)(1) 50110410,"Hotel Imperial, Vienna",Austria,"48.2012039,16.3731437",(43)(1) 501100,,1015,2010-06-08T19:14:27,Kaerntner Ring 16,97
5,Beijing,(86)(10) 6460 3299,The St. Regis Beijing,China,"39.90812,116.4368",(86)(10) 6460 6688,Beijing,100020,2010-06-08T18:48:12,21 Jianguomenwai Dajie,110
5,Buenos Aires,(54)(11) 4318 9150,"Park Tower, Buenos Aires",Argentina,"-34.5934963,-58.3736656",(54)(11) 4318 9100,Buenos Aires,1001,2010-06-08T18:08:49,Avenida Leandro N. Alem 1193,233
4,Lisbon,(351)(21) 3547164,Sheraton Lisboa Hotel & Spa,Portugal,"38.7317944,-9.1469936",(351)(21) 3120000,,1069,2010-06-08T18:14:21,"Rua Latino Coelho, 1",292
4,Tumon,(671) 647-0919,"The Westin Resort, Guam",United States,"13.51767,144.80669",(671) 647-1020,Guam,96913,2010-06-08T18:48:12,105 Gun Beach Road,1057
4,Mumbai,(91)(22) 24101111,"ITC Grand Central, Mumbai",India,"19.2126736,72.8283644",(91)(22) 24101010,Maharashtra,400012,2010-06-08T18:05:41,Dr Babasaheb Ambedkar Road,1540
4,Rimini,(39)(0541) 396601,Le Méridien Rimini,Italy,"44.065583,12.5844738",(39)(0541) 396600,,47921,2010-06-08T17:54:47,Viale Lungomare Murri 13,1871
4,Dubai,(971)(4) 295 2122,Al Sondos Suites by Le Méridien,United Arab Emirates,"25.25,55.3",(971)(4) 294 9797,,,2010-06-08T18:16:44,"Opp Diera City Center, Diera",1902
3,Minneapolis,(612) 455-8410,Aloft Minneapolis,United States,"44.976526,-93.2552125",(612) 455-8400,Minnesota,55415,2010-06-08T18:20:59,900 Washington Avenue South,3074
3,Zhubei City,(886)(3) 620 6100,"Sheraton Hsinchu Hotel, Taiwan",Taiwan,"24.806243,120.968882",(886)(3) 620 6000,,302,2010-06-08T18:48:12,"No. 265, Dong Sec. 1",3116
3,Arlington,(817) 548-2873,Sheraton Arlington Hotel,United States,"32.757144,-97.081568",(817) 261-8200,Texas,76011,2010-06-08T18:16:37,1500 Convention Center Drive,3175
3,Homewood,(205) 874-8455,Aloft Birmingham Soho Square,United States,"33.479267,-86.789223",(205) 874-8055,Alabama,35209,2010-06-08T18:15:10,1903 29th Avenue South,3272
4,San Diego,(619) 692-2337,Sheraton San Diego Hotel & Marina,United States,"32.727063,-117.19847",(619) 291-2900,California,92101,2010-06-08T18:15:55,1380 Harbor Island Drive,1009
3,Zagreb,(385)(1) 4553035,Sheraton Zagreb Hotel,Croatia,"45.8077269,15.984453",(385)(1) 4553535,,10000,2010-06-08T18:06:04,Kneza Borne 2,316
5,Honolulu,(808) 931-8883,Sheraton Waikiki,United States,"21.278098,-157.829579",(808) 922-4422,Hawaii,96815,2010-06-08T17:54:45,2255 Kalakaua Avenue,377
2,Warwick,(401) 738-8206,Sheraton Providence Airport Hotel,United States,"41.730815,-71.435795",(401) 738-4000,Rhode Island,02886,2010-06-08T18:42:27,1850 Post Road,828
3,Frazer,(610) 524-1808,Sheraton Great Valley Hotel,United States,"40.03371,-75.580932",(610) 524-5500,Pennsylvania,19355,2010-06-08T18:14:17,707 East Lancaster Avenue,867
3,Emeryville,(510) 652-4426,Four Points by Sheraton San Francisco Bay Bridge,United States,"37.838149,-122.293859",(510) 547-7888,California,94608,2010-06-08T17:54:51,1603 Powell Street,913
4,Chicago,(312) 397-5580,The Westin Michigan Avenue Chicago,United States,"41.899498,-87.623493",(312) 943-7200,Illinois,60611,2010-06-08T18:42:52,909 North Michigan Avenue,1030
4,Hyderabad,(91)(40) 23401045,"ITC Kakatiya, Hyderabad",India,"17.444865,78.469396",(91)(40) 23400132,Andhra Pradesh,500016,2010-06-08T18:37:16,"63-3-1187, Begumpet",1119
4,Vancouver,(604) 647 2502,"The Westin Grand, Vancouver",Canada,"49.2795249,-123.1169258",(604) 602-1999,British Columbia,V6B 6L9,2010-06-08T19:21:10,433 Robson Street,1148
4,Porto Alegre,(55)(51) 2121 6010,Sheraton Porto Alegre Hotel,Brazil,"-30.0244238,-51.2009557",(55)(51) 2121 6000,Rio Grande do Sul,90570-070,2010-06-08T17:58:26,Rua Olavo Barreto Viana 18,1398
3,San Diego,(619) 497-0853,Sheraton Mission Valley San Diego Hotel,United States,"32.764969,-117.150383",(619) 260-0111,California,92108,2010-06-08T17:54:43,1433 Camino Del Rio South,1556
2,Ningbo,(86) 574 87758899,Sheraton Ningbo Hotel,China,"29.8624856,121.5677116",(86) 574 87688688,Zhejiang,315040,2010-06-08T18:47:26,50 Caihong Rd (N),3016
2,Dallas,(214) 761-0001,Aloft Dallas Downtown,United States,"32.7770049,-96.8013817",(214) 761-0000,Texas,75202,2010-06-08T19:16:07,1033 Young Street,3146
5,Washington,(202) 661-2405,W Washington D.C.,United States,"38.8965512,-77.0336131",(202) 661-2400,District of Columbia,20004,2010-06-08T17:57:26,515 15th Street NW,3279
3,Charlotte,(704) 247-2221,Aloft Charlotte Ballantyne,United States,"35.0578266,-80.8437942",(704) 247-2222,North Carolina,28277,2010-06-08T18:37:33,13139 Ballantyne Corporate Place,3363
4,Rancho Mirage,(760) 770-2199,The Westin Mission Hills Resort & Spa,United States,"33.799959,-116.417463",(760) 328-5955,California,92270,2010-06-08T19:02:18,71333 Dinah Shore Drive,1008
5,Milan,(39)(02) 20582058,"Sheraton Diana Majestic, Milan",Italy,"45.4738699,9.206573",(39)(02) 20581,,20129,2010-06-08T17:55:54,"Viale Piave, 42",53
2,Indianapolis,(317) 574-6775,Sheraton Indianapolis Hotel & Suites,United States,"39.915433,-86.109161",(317) 846-2700,Indiana,46240,2010-06-08T18:47:30,8787 Keystone Crossing,158
3,Norfolk,(757) 625-8271,Sheraton Norfolk Waterside Hotel,United States,"36.8436949,-76.289393",(757) 622-6664,Virginia,23510,2010-06-08T19:25:42,777 Waterside Drive,171
5,San Francisco,(415) 543-0671,"Palace Hotel, San Francisco",United States,"37.788213,-122.401619",(415) 512-1111,California,94105,2010-06-08T19:25:30,2 New Montgomery Street,373
5,Bangalore,(91)(80) 22264941,"ITC Windsor, Bengaluru",India,"12.9953593,77.585271",(91)(80) 22269898,Karnataka,560052,2010-06-08T18:36:33,Windsor Square,429
4,Lake Buena Vista,(407) 934-4099,Walt Disney World Dolphin,United States,"28.4132865,-81.3385663",(407) 934-4000,Florida,32830,2010-06-08T18:10:52,1500 Epcot Resort Boulevard,468
3,Bogota,(57)(1) 2105003,Sheraton Bogota Hotel,Colombia,"4.7540357,-74.0570633",(57)(1) 2105000,,,2010-06-08T19:05:38,Avenida Eldorado #69C-80,651
3,Charlotte,(704) 393-2207,Sheraton Charlotte Airport Hotel,United States,"35.237487,-80.921946",(704) 392-1200,North Carolina,28208,2010-06-08T17:54:46,3315 Scott Futrell Drive,942
2,Houston,(713) 526-8709,Four Points by Sheraton Houston Southwest,United States,"29.731565,-95.422773",(713) 942-2111,Texas,77098-4502,2010-06-08T19:19:30,2828 Southwest Freeway,1481
3,Lombard,(630) 719-8079,The Westin Lombard Yorktown Center,United States,"41.839722,-88.007222",(630) 719-8000,Illinois,60148,2010-06-08T18:14:27,70 Yorktown Center,1526
4,Fort Worth,(817) 335-3333,Sheraton Fort Worth Hotel and Spa,United States,"32.7472303,-97.3251473",(817) 335-7000,Texas,76102,2010-06-08T18:42:54,1701 Commerce Street,1784
3,Qingdao,(86)(532) 5556 3788,Le Méridien Qingdao,China,"36.0870676,120.3739981",(86)(532) 5556 3888,Shandong,266034,2010-06-08T17:57:17,112 Yanji Road,3447
2,Los Ángeles,(56)(43) 406401,Four Points by Sheraton Los Angeles,Chile,"-37.4691258,-72.3529279",(56)(43) 406400,,,2010-06-08T19:07:20,Colo Colo 565,3505
3,Millbrae,(650) 872-8111,The Westin San Francisco Airport,United States,"37.604136,-122.375963",(650) 692-3500,California,94030,2010-06-08T18:36:53,1 Old Bayshore Highway,1007
7,Porto Cervo,(39)(0789) 931613,"Cervo Hotel, Costa Smeralda Resort",Italy,"40.866965,9.2632",(39)(0789) 931111,,07020,2010-06-08T18:37:25,Costa Smeralda,64
3,Nashville,(615) 231-1136,Sheraton Music City Hotel,United States,"36.144863,-86.683181",(615) 885-2200,Tennessee,37214,2010-06-08T18:43:03,777 McGavock Pike,198
5,Washington,(202) 293-0641,"The Fairfax at Embassy Row, Washington, D.C.",United States,"38.910642,-77.046674",(202) 293-2100,District of Columbia,20008,2010-06-08T18:37:04,"2100 Massachusetts Avenue, N.W.",245
4,Gold Coast,(61)(7) 5591 2299,Sheraton Mirage Resort and Spa Gold Coast,Australia,"-27.979642,153.424854",(61)(7) 5591 1488,Queensland,4217,2010-06-08T17:54:50,"Sea World Drive, Main Beach",372
5,Manama,(973)(17) 534069,Sheraton Bahrain Hotel,Bahrain,"26.2309828,50.5882465",(973)(17) 533533,,,2010-06-08T18:05:39,6 Palace Avenue,435
3,Sapporo,(81)(11) 895 8902,Sheraton Sapporo Hotel,Japan,"43.0381185,141.4697223",(81)(11) 895 8811,Hokkaido,0040052,2010-06-08T17:55:27,"5-5-25 Atsubetsuchuo 2J0,  Atsubetsu-Ku",1235
3,Beirut,(961)(1) 803802,Four Points by Sheraton Le Verdun,Lebanon,"33.8799265,35.493695",(961)(1) 803804,,,2010-06-08T18:36:49,"Verdun, Boulevard Saeb Salam",1478
7,Mallorca,(34)(971) 629630,The St. Regis Mardavall Mallorca Resort,Spain,"39.527612,2.551059",(34)(971) 629629,,07181,2010-06-08T17:54:10,Passeig Calvià s/n,1403
4,Istanbul,(90)(212) 2850951,Sheraton Istanbul Maslak Hotel,Turkey,"41.0715426,29.0156659",(90)(212) 3359999,,,2010-06-08T17:54:29,"Buyukdere Caddesi, 233",3083
6,Naples,(39)(081) 764 9743,"Hotel Excelsior, Naples",Italy,"40.829904,14.2496802",(39)(081) 764 0111,,80121,2010-06-08T18:44:41,Via Partenope 48,56
3,Phoenix,(602) 371-2857,Sheraton Crescent Hotel,United States,"33.568595,-112.115585",(602) 943-8200,Arizona,85021,2010-06-08T19:00:57,2620 West Dunlap Avenue,102
3,Frankfurt/Offenbach,(49)(69) 82999 800,Sheraton Offenbach Hotel,Germany,"50.107857,8.761267",(49)(69) 82999 0,,63065,2010-06-08T18:15:40,Am Buesing Palais,143
3,Padova,(39)(049) 8998 555,Sheraton Padova Hotel & Conference Center,Italy,"45.4125382,11.9323613",(39)(049) 7808 230,,35129,2010-06-08T18:16:47,Corso Argentina 5,239
2,Brookfield,(262) 786-5210,Sheraton Milwaukee Brookfield Hotel,United States,"43.0272,-88.1084",(262) 364-1100,Wisconsin,53005,2010-06-08T18:05:49,375 South Moorland Road,347
2,Alexandria,(20)(3) 5401331,Sheraton Montazah Hotel,Egypt,"31.2135,29.9443",(20)(3) 5480550,,,2010-06-08T19:09:38,Corniche Road,438
4,Brussels,(32)(2) 2243456,Sheraton Brussels Hotel,Belgium,"50.855931,4.358118",(32)(2) 2243111,,1210,2010-06-08T18:15:47,"Place Rogier, 3",488
1,Huntsville,(256) 464-9116,Four Points by Sheraton Huntsville Airport,United States,"34.6489604,-86.7766154",(256) 772-9661,Alabama,35824,2010-06-08T17:57:24,1000 Glenn Hearn Boulevard,879
4,Waltham,(781) 290-5626,The Westin Waltham Boston,United States,"42.395046,-71.259518",(781) 290-5600,Massachusetts,02451,2010-06-08T19:01:31,70 Third Avenue,1036
3,Pasadena,(626) 584-1390,Sheraton Pasadena Hotel,United States,"34.142997,-118.144372",(626) 449-4000,California,91101,2010-06-08T18:44:46,303 East Cordova Street,1196
3,Kuala Lumpur,(60)(3) 2731 8000,The Westin Kuala Lumpur,Malaysia,"3.1480718,101.7134253",(60)(3) 2731 8333,,55100,2010-06-08T19:26:17,"199, Jalan Bukit Bintang",1443
3,Dongguan,(86)(769) 8590 8888,Sheraton Dongguan Hotel,China,"23.01588,113.74334",(86)(769) 8598 8888,Guangdong,523962,2010-06-08T18:48:14,S256 Provincial Highway Houjie Town,1460
4,San Diego,(619) 239-3274,The Westin San Diego,United States,"32.716251,-117.166933",(619) 239-4500,California,92101,2010-06-08T19:03:14,400 West Broadway,1762
5,Paris,(33)(1) 40 68 31 31,Le Méridien Etoile,France,"48.8802884,2.2851781",(33)(1) 40 68 34 34,,75017,2010-06-08T18:36:40,81 Boulevard Gouvion Saint-Cyr,1919
3,Franklin,(615) 771-3008,Aloft Nashville-Cool Springs,United States,"35.951436,-86.814015",(615) 435-8700,Tennessee,37067,2010-06-08T18:37:25,7109 South Springs Drive,3076
3,Glen Allen,(804) 433-1889,Aloft Richmond West,United States,"37.665978,-77.5063739",(804) 433-1888,Virginia,23060,2010-06-08T18:37:30,3939 Duckling Drive,3139
4,Houston,(713) 960-6553,The Westin Galleria Houston,United States,"29.7379511,-95.4608411",(713) 960-8100,Texas,77056,2010-06-08T18:14:10,5060 West Alabama,3215
3,Orlando,(407) 648-5414,Sheraton Orlando Downtown Hotel,United States,"28.547042,-81.383832",(407) 843-6664,Florida,32801,2010-06-08T18:37:03,400 West Livingston Street,3576
7,Porto Cervo,(39)(0789) 930611,"Hotel Pitrizza, Costa Smeralda",Italy,"40.866965,9.2632",(39)(0789) 930111,,07020,2010-06-08T18:37:07,Costa Smeralda,66
2,Dallas,(214) 742-5713,Sheraton Suites Market Center Dallas,United States,"32.8007865,-96.8233435",(214) 747-3000,Texas,75207,2010-06-08T18:05:46,2101 Stemmons Freeway,96
2,Cordoba,(54)(351) 526 9150,Sheraton Cordoba Hotel,Argentina,"-31.4141674,-64.2021634",(54)(351) 526 9000,,5000,2010-06-08T18:03:21,Duarte Quiros 1300,108
4,Frankfurt,(49)(69) 2981810,The Westin Grand Frankfurt,Germany,"50.11573,8.6872",(49)(69) 29810,,60313,2010-06-08T18:13:54,Konrad Adenauer Strasse 7,141
4,Chicago,(312) 464-9140,Sheraton Chicago Hotel & Towers,United States,"41.889196,-87.619464",(312) 464-1000,Illinois,60611,2010-06-08T19:12:14,301 East North Water Street,196
4,Chennai,(91)(44) 24997101,"Sheraton Park Hotel & Towers, Chennai",India,"13.0408549,80.2583887",(91)(44) 24994101,Tamil Nadu,600018,2010-06-08T18:17:22,TTK Road,418
2,Fresno,(559) 222-7147,Four Points by Sheraton Fresno,United States,"36.785873,-119.791758",(559) 226-2200,California,93726,2010-06-08T18:09:51,3737 North Blackstone,980
3,Cincinnati,(513) 852-5670,The Westin Cincinnati,United States,"39.100959,-84.512656",(513) 621-7700,Ohio,45202,2010-06-08T19:17:31,21 E. 5th Street,1044
4,Houston,(713) 960-6553,The Westin Galleria Houston,United States,"29.7379511,-95.4608411",(713) 960-8100,Texas,77056,2010-06-08T18:01:42,5060 West Alabama,1053
5,Temozon Sur,(52)(999) 923 7963,Hacienda Temozon,Mexico,"19.3390698,-99.2015369",(52)(999) 923 8089,Yucatan,97825,2010-06-08T19:12:52,KM 182 Carretera Merida-Uxmal,1378
6,Miami Beach,(305) 938-3005,W South Beach,United States,"25.797829,-80.127861",(305) 938-3000,Florida,33139,2010-06-08T18:28:12,2201 Collins Avenue,1599
4,Atlanta,(678) 500-3105,W Atlanta - Buckhead,United States,"33.847236,-84.366095",(678) 500-3100,Georgia,30326,2010-06-08T18:06:08,3377 Peachtree Road NE,3167
2,Rome,(39)(06) 50834701,Four Points by Sheraton Roma West Hotel,Italy,"41.7805024,12.4395886",(39)(06) 50834111,,00128,2010-06-08T19:07:01,"Viale degli Eroi di Cefalonia, 301",71
5,Scottsdale,(480) 947-4311,"The Phoenician, Scottsdale",United States,"33.507461,-111.949686",(480) 941-8200,Arizona,85251,2010-06-08T18:05:36,6000 East Camelback Road,103
3,Nadi,(679) 675 0818,Sheraton Denarau Villas,Fiji,"-17.760045,177.363082",(679) 675 0777,,,2010-06-08T19:24:02,Denarau Island West,1158
4,Dublin,(353)(1) 645 1234,The Westin Dublin,Ireland,"53.3239158,-6.344307",(353)(1) 645 1000,,2,2010-06-08T19:08:39,at College Green,1314
4,Nice,(33)(4) 93445040,Four Points by Sheraton Elysee Palace,France,"43.6931462,7.2529818",(33)(4) 93979090,,06005,2010-06-08T18:37:35,"59, Promenade des Anglais",1363
3,Halifax,(902) 423-2327,Four Points by Sheraton Halifax,Canada,"44.6449208,-63.5714903",(902) 423-4444,Nova Scotia,B3J 3Z1,2010-06-08T18:27:09,1496 Hollis Street,1387
4,Pasadena,(626) 792-3755,The Westin Pasadena,United States,"34.149122,-118.141887",(626) 792-2727,California,91101,2010-06-08T18:45:55,191 North Los Robles,1453
5,Campeche,(52)(999) 923 7963,Hacienda Puerta Campeche,Mexico,"19.8454459,-90.5236731",(52)(981) 816 7508,Campeche,24000,2010-06-08T18:06:12,"Calle 59, No. 71 por 16 & 18",1507
3,Hua Hin,(66)(3) 270 8088,Sheraton Hua Hin Resort & Spa,Thailand,"12.6576076,99.9541991",(66)(3) 270 8000,,76120,2010-06-08T18:16:45,1573 Petchkasem Road,1590
6,Ile des Pins,(687) 265100,Le Méridien Ile des Pins,New Caledonia,"-22.26674,166.45012",(687) 265000,,98832,2010-06-08T18:48:14,Baie d'Oro,1841
3,Turin,(39)(011) 664 2001,Le Méridien Lingotto,Italy,"45.0316737,7.6669789",(39)(011) 664 2000,,10126,2010-06-08T18:14:20,Via Nizza 262,1869
3,Dallas,(972) 503-8701,Le Méridien Dallas North,United States,"32.930451,-96.818055",(972) 503-8700,Texas,75240,2010-06-08T18:13:39,13402 Noel Road,3041
4,Shenzhen,(86)(755) 26988880,The Westin Shenzhen Nanshan,China,"22.5410739,114.1043781",(86)(755) 26988888,Guangdong,518053,2010-06-08T18:37:11,9028-2 Shennan Road,3346
4,Sendai,(81)(22) 722 1270,The Westin Sendai,Japan,"38.2615755,140.8720592",(81)(22) 722 1234,Miyagi,980-0811,2010-06-08T18:36:55,"1-9-1 Ichibancho, Aoba-ku",3453
4,Cancun,(52)(998) 891 4201,"The Westin Lagunamar Ocean Resort Villas, Cancun",Mexico,"21.158964,-86.845937",(52)(998) 891 4200,Quintana Roo,77500,2010-06-08T19:17:43,KM. 12.5 Blvd Kukulcan,5646
7,Porto Cervo,(39)(0789) 977614,"Hotel Romazzino, Costa Smeralda",Italy,"40.866965,9.2632",(39)(0789) 977111,,07020,2010-06-08T19:10:22,Costa Smeralda,67
3,Munich,(49)(89) 92324449,Sheraton Munich Arabellapark Hotel,Germany,"48.15149,11.61823",(49)(89) 92320,,81925,2010-06-08T19:09:46,ArabellaStrasse 5,156
3,Nadi,(679) 675 0259,"The Westin Denarau Island Resort & Spa, Fiji",Fiji,"-17.760045,177.363082",(679) 675 0000,,,2010-06-08T19:03:55,Denarau Island North,202
3,Columbia,(410) 730-1290,Sheraton Columbia Town Center Hotel,United States,"39.218007,-76.854823",(410) 730-3900,Maryland,21044,2010-06-08T19:15:11,10207 Wincopin Circle,856
4,Shanghai,(86)(21) 6275 5420,Sheraton Shanghai Hongqiao Hotel,China,"31.2044,121.40641",(86)(21) 6275 8888,Shanghai,200336,2010-06-08T18:48:17,No. 5 Zun Yi Nan Road,1056
2,Orlando,(407) 239-1778,Sheraton Safari Hotel & Suites Lake Buena Vista,United States,"28.386951,-81.504955",(407) 239-0444,Florida,32836,2010-06-08T19:26:46,12205 S Apopka Vineland Road,1162
4,Davos-Dorf,(41)(81) 417 9445,ArabellaSheraton Hotel Seehof,Switzerland,"46.8091152,9.8392012",(41)(81) 417 9444,,7260,2010-06-08T19:20:47,Promenade 159,1250
4,Mumbai,(91)(22) 28303131,"ITC Maratha, Mumbai",India,"19.10399,72.8695",(91)(22) 28303030,Maharashtra,400099,2010-06-08T18:48:17,"Sahar Airport Road, Near International Airport",1349
3,Kolkata,(91)(33) 2345 4455,"ITC Sonar, Kolkata",India,"22.5418014,88.386089",(91)(33) 2345 4545,West Bengal,700046,2010-06-08T19:18:07,"1, JBS Haldane Avenue",1463
4,Bellevue,(425) 638-1060,The Westin Bellevue,United States,"47.616449,-122.200836",(425) 638-1000,Washington,98004,2010-06-08T18:58:39,600 Bellevue Way NE,1555
5,Barcelona,(34)(93) 301 7776,Le Méridien Barcelona,Spain,"41.3837792,2.1710309",(34)(93) 318 6200,,08002,2010-06-08T19:18:40,La Rambla 111,1931
1,Kota Kinabalu,(60) 8832 2223,Le Méridien Kota Kinabalu,Malaysia,"5.986115,116.076308",(60) 8832 2222,,88000,2010-06-08T19:14:12,Jalan Tun Fuad Stephens,1935
2,Knoxville,(865) 971-4633,Four Points by Sheraton Knoxville Cumberland House Hotel,United States,"35.960386,-83.925751",(865) 971-4663,Tennessee,37916,2010-06-08T19:02:29,1109 White Avenue,3038
3,Philadelphia,(215) 673-4240,Four Points by Sheraton Philadelphia Northeast,United States,"40.0807296,-75.0284063",(215) 671-9600,Pennsylvania,19114,2010-06-08T19:18:14,9461 Roosevelt Boulevard,3194
2,Tucson,(520) 327-0276,Four Points by Sheraton Tucson University Plaza,United States,"32.235695,-110.943391",(520) 327-7341,Arizona,85719,2010-06-08T19:04:20,1900 East Speedway,97506
2,Rome,(39)(06) 50834701,Four Points by Sheraton Roma West Hotel,Italy,"41.7805024,12.4395886",(39)(06) 50834111,,00128,2010-06-08T19:01:54,"Viale degli Eroi di Cefalonia, 301",70
5,Honolulu,(808) 924-4799,"Moana Surfrider, A Westin Resort & Spa, Waikiki Beach",United States,"21.276738,-157.827358",(808) 922-3111,Hawaii,96815,2010-06-08T19:13:44,2365 Kalakaua Avenue,374
3,Seoul,(82)(2) 452 6867,Sheraton Grande Walkerhill,South Korea,"37.55424,127.11031",(82)(2) 455 5000,,143-708,2010-06-08T18:48:18,175 Achaseong-gil,735
3,Anaheim,(714) 535-3889,Sheraton Anaheim Hotel,United States,"33.8219018,-117.9234392",(714) 778-1700,California,92802,2010-06-08T19:00:00,900 South Disneyland Drive,995
3,Houston,(713) 586-2445,Sheraton Suites Houston Near The Galleria,United States,"29.744902,-95.458554",(713) 586-2444,Texas,77027-4204,2010-06-08T19:13:42,2400 West Loop South,1143
3,St. Louis,(314) 863-8513,Sheraton Clayton Plaza Hotel St. Louis,United States,"38.647064,-90.336234",(314) 863-0400,Missouri,63105,2010-06-08T19:14:02,7730 Bonhomme Avenue,1233
5,Santa Rosa,(52)(999) 923 7963,Hacienda Santa Rosa,Mexico,"20.606393,-90.088699",(52)(1)(999) 910 0174,Yucatan,97800,2010-06-08T19:12:25,KM 129 Carretera Merida Campeche,1381
4,Seoul,(82)(2) 450 4989,W Seoul - Walkerhill,South Korea,"37.554334,127.111076",(82)(2) 465 2222,,143-708,2010-06-08T18:48:20,175 Achaseong-Gil,1451
3,Fuerteventura,(34)(928) 160172,"Sheraton Fuerteventura Beach, Golf & Spa Resort Canary Isle",Spain,"28.4123052,-13.8549591",(34)(928) 495100,Canary Islands,35610,2010-06-08T19:15:51,Urb. Fuerteventura Golf Resort,1541
2,Shanghai,(86)(21) 2602 2338,"Four Points by Sheraton Shanghai, Daning",China,"31.5817947,121.5231598",(86)(21) 2602 2222,Shanghai,200072,2010-06-08T19:10:32,1928 Gong He Xin Road,1986
6,Santorini,(30)(2286) 081798,"Vedema Resort, Santorini",Greece,"36.3931562,25.4615092",(30)(2286) 081796,,84700,2010-06-08T18:56:31,Megalohori,3022
3,Tallahassee,(850) 513-0316,Aloft Tallahassee Downtown,United States,"30.443639,-84.2807084",(850) 513-0313,Florida,32308,2010-06-08T19:02:58,200 North Monroe Street,3046
3,Jacksonville,(904) 562-4921,Four Points by Sheraton Jacksonville Baymeadows,United States,"30.219936,-81.581312",(904) 562-4920,Florida,32256,2010-06-08T19:23:43,8520 Baymeadows Road,3061
3,Frisco,(972) 668-6032,Aloft Frisco,United States,"33.1054534,-96.8168805",(972) 668-6011,Texas,75034,2010-06-08T19:06:09,3202 Parkwood Boulevard,3130
2,Mumbai,(91)(22) 278 17979,"Four Points by Sheraton Navi Mumbai, Vashi",India,"19.06622,72.99978",(91)(22) 278 17777,Maharashtra,400701,2010-06-08T18:48:20,"Plot 39/1, 6 To 15, Sector 30A",3437
6,Venice,(39)(041) 5200208,"Hotel Danieli, Venice",Italy,"45.4338138,12.3420543",(39)(041) 522 6480,,30122,2010-06-08T19:18:37,Castello 4196,72
5,Addis Ababa,(251)(11) 5172727,Sheraton Addis,Ethiopia,"9.02102,38.76035",(251)(11) 5171717,,,2010-06-08T19:12:44,Taitu Street,149
4,Langkawi,(60)(4) 9666414,The Westin Langkawi Resort & Spa,Malaysia,"6.3574716,99.7686398",(60)(4) 9608888,,07000,2010-06-08T19:15:33,Jalan Pantai Dato Syed Omar,283
2,Portland,(503) 491-1918,Four Points by Sheraton Portland East,United States,"45.536181,-122.477826",(503) 491-1818,Oregon,97230,2010-06-08T19:18:32,1919 NE 181st Avenue,364
5,Hong Kong,(852) 2739 8707,Sheraton Hong Kong Hotel & Towers,China,"22.2952221,114.1724464",(852) 2369 1111,Hong Kong,,2010-06-08T19:11:53,20 Nathan Road,482
3,Surrey,(604) 582-9712,Sheraton Vancouver Guildford Hotel,Canada,"49.1915478,-122.7983565",(604) 582-9288,British Columbia,V3R 1N5,2010-06-08T19:24:27,15269 104th Avenue,609
4,Weehawken,(201) 617-5627,Sheraton Lincoln Harbor Hotel,United States,"40.7587448,-74.0235105",(201) 617-5600,New Jersey,07086,2010-06-08T18:59:15,500 Harbor Boulevard,1177
3,Izmir,(90)(232) 723 1856,"Sheraton Cesme Hotel, Resort and Spa",Turkey,"38.30601,26.36841",(90)(232) 723 1240,,35940,2010-06-08T18:48:21,"Sifne Caddesi, No. 35, llica",1353
3,Curitiba,(55) (41) 3340-4001,Four Points by Sheraton Curitiba,Brazil,"-25.44259,-49.2792721",(55) (41) 3340-4000,,80250-210,2010-06-08T19:09:58,Av. Sete de Setembro 4211,1385
4,Milan,(39)(02) 6703024,Four Points by Sheraton Milan Center,Italy,"45.4853959,9.1977388",(39)(02) 667461,,20124,2010-06-08T19:07:03,Via Gerolamo Cardano,1397
5,Hollywood,(954) 602-7000,"The Westin Diplomat Resort & Spa, Hollywood, Florida",United States,"25.990607,-80.118828",(954) 602-6000,Florida,33019,2010-06-08T19:20:01,3555 South Ocean Drive,1402
4,Washington,(202) 785-0786,"The Westin Washington, D.C. City Center",United States,"38.905678,-77.033322",(202) 429-1700,District of Columbia,20005,2010-06-08T19:14:15,1400 M Street NW,1761
2,Jacksonville,(904) 714-3999,Aloft Jacksonville Airport,United States,"30.4767709,-81.6339248",(904) 714-3800,Florida,32218,2010-06-08T19:15:26,751 Skymarks Drive,3055
5,Doha,(974) 453 5354,W Doha Hotel & Residences,Qatar,"25.3619978,51.5097515",(974) 453 5353,,,2010-06-08T18:58:53,West Bay,3057
4,Bratislava,(421)(0) 2 3535 0009,Sheraton Bratislava Hotel,Slovakia,"48.1409136,17.1209101",(421)(0) 2 3535 0000,,81109,2010-06-08T18:56:26,Pribinova 12,3330
6,Venice,(39)(041) 5200942,"Hotel Gritti Palace, Venice",Italy,"45.4324408,12.3328105",(39)(041) 794611,,30124,2010-06-08T19:21:17,Campo Santa Maria del Giglio,73
3,Rascafria,(34)(91) 8691006,Sheraton Santa Maria de El Paular,Spain,"40.9043211,-3.879174",(34)(91) 8691011,,28741,2010-06-08T19:09:14,Carretera M-604 KM 26.5,85
5,Zurich,(41)(44) 2869445,Sheraton Neues Schloss Hotel - Zurich,Switzerland,"47.3654896,8.5359179",(41)(44) 2869400,,8002,2010-06-08T19:01:42,Stockerstrasse 17,118
2,Wakefield,(781) 245-0842,Sheraton Colonial Boston North Hotel & Conference Center,United States,"42.512038,-71.041913",(781) 245-9300,Massachusetts,01880,2010-06-08T19:11:05,One Audubon Road,232
2,St. Louis,(314) 434-0140,Sheraton Westport Chalet Hotel St. Louis,United States,"38.702148,-90.44774",(314) 878-1500,Missouri,63146,2010-06-08T19:05:07,191 Westport Plaza,795
2,Houston,(281) 987-9130,Sheraton North Houston at George Bush Intercontinental,United States,"29.945363,-95.3306289",(281) 442-5100,Texas,77032,2010-06-08T19:19:29,15700 John F. Kennedy Boulevard,861
1,Chicago,(773) 581-8421,Four Points by Sheraton Chicago Midway Airport,United States,"41.7614747,-87.7418932",(773) 581-5300,Illinois,60629,2010-06-08T19:17:48,7353 South Cicero Avenue,1319
3,Zagreb,(385)(1) 489 2001,The Westin Zagreb,Croatia,"45.8073606,15.9671129",(385)(1) 489 2000,,10000,2010-06-08T19:01:02,Krsnjavoga 1,1464
5,Iguazu,(54) (3757) 491848,Sheraton Iguazú Resort & Spa,Argentina,"-25.68013,-54.44481",(54) (3757) 491800,,3370,2010-06-08T18:48:23,Parque Nacional Iguazú,1152
2,Tallahassee,(850) 297-2024,Four Points by Sheraton Tallahassee North,United States,"30.498664,-84.244269",(850) 671-2020,Florida,32308,2010-06-08T19:06:20,1978 Village Green Way,3040
2,Lone Tree,(303) 790-2101,Element Denver Park Meadows,United States,"39.5508515,-104.8718843",(303) 790-2100,Colorado,80124,2010-06-08T19:04:35,9985 Park Meadows Drive,3161
3,Philadelphia,(267) 298-1705,Aloft Philadelphia Airport,United States,"39.8921682,-75.2350576",(267) 298-1700,Pennsylvania,19153,2010-06-08T19:19:13,4301 Island Avenue,3181
3,Lexington,(781) 761-1755,Element Lexington,United States,"42.44566,-71.262324",(781) 761-1750,Massachusetts,02421,2010-06-08T19:17:51,727 Marrett Road - B,3210
4,Steamboat Springs,(970) 879-7686,Sheraton Steamboat Resort Villas,United States,"40.4590375,-106.805686",(970) 871-6480,Colorado,80477,2010-06-08T19:01:15,2200 Village Inn Court,5657
4,New Orleans,(504) 523-2910,W New Orleans - French Quarter,United States,"29.954619,-90.0663163",(504) 581-1200,Louisiana,70130,2010-06-08T19:22:41,316 Chartres Street,97508
5,Venice,(39)(041) 523 1533,"The Westin Europa & Regina, Venice",Italy,"45.4344235,12.3360398",(39)(041) 240 0001,,30124,2010-06-08T19:18:46,San Marco 2159,75
7,New York,(212) 787-3447,The St. Regis New York,United States,"40.761667,-73.9749136",(212) 753-4500,New York,10022,2010-06-08T19:22:08,"Two East 55th Street, at Fifth Avenue",81
3,Plantation,(954) 452-8887,"Sheraton Suites Plantation, Ft. Lauderdale West",United States,"26.124203,-80.255342",(954) 424-3300,Florida,33324,2010-06-08T19:22:21,311 N. University Drive,321
2,Allentown,(610) 266-1888,Four Points by Sheraton Hotel & Suites Allentown Airport,United States,"40.657572,-75.427049",(610) 266-1000,Pennsylvania,18109,2010-06-08T19:08:37,3400 Airport Road,639
3,Laval,(450) 687-0655,Sheraton Laval Hotel,Canada,"45.5753149,-73.750809",(450) 687-2440,Quebec,H7T 1X5,2010-06-08T19:14:37,2440 Autoroute des Laurentides,858
3,Halifax,(902) 422-9465,The Westin Nova Scotian,Canada,"44.6402228,-63.5690412",(902) 421-1000,Nova Scotia,B3H 2P6,2010-06-08T19:09:04,1181 Hollis Street,1081
2,Guayaquil,(593)(4) 2082081,Sheraton Guayaquil Hotel,Ecuador,"-2.203816,-79.897453",(593)(4) 2082088,,,2010-06-08T18:56:37,"Av Constitucion, Plaza Del Sol",1159
5,Uayamon,(52)(999) 923 7963,Hacienda Uayamon,Mexico,"19.64048,-90.43724",(52)(981) 813 0530,Campeche,,2010-06-08T19:12:58,KM 20 Carretera,1376
4,Al Khobar,(966)(3) 898 1651,Le Méridien Al Khobar,Saudi Arabia,"26.320877,50.2281342",(966)(3) 896 9000,,31952,2010-06-08T19:23:30,Corniche Boulevard,1887
4,Universal City,(818) 985-4980,Sheraton Universal Hotel,United States,"34.137605,-118.357065",(818) 980-1212,California,91608,2010-06-08T19:22:23,333 Universal Hollywood Drive,83
3,Mexico City,(52)(55) 5207 0684,Sheraton Maria Isabel Hotel and Towers,Mexico,"19.4262335,-99.2067361",(52)(55) 5242 5555,Federal District ,06500,2010-06-08T19:01:56,Paseo de la Reforma 325 Col. Cuauhtemoc,259
3,Firenze,(39)(055) 680747,Sheraton Firenze Hotel & Conference Center,Italy,"43.7478747,11.2888136",(39)(055) 64901,,50126,2010-06-08T19:21:06,Via Giovanni Agnelli 33,305
3,Raleigh,(919) 833-1217,Sheraton Raleigh Hotel,United States,"35.7748082,-78.6401188",(919) 834-9900,North Carolina,27601,2010-06-08T19:01:10,421 South Salisbury Street,434
4,San Juan,(787) 993-3505,Sheraton Puerto Rico Hotel & Casino,United States,"18.45295,-66.09363",(787) 993-3500,Puerto Rico,00907,2010-06-08T18:48:26,200 Convention Boulevard,1523
3,Tampa,(813) 273-0839,Sheraton Tampa Riverwalk Hotel,United States,"27.94627,-82.459323",(813) 223-2222,Florida,33602,2010-06-08T19:12:08,200 North Ashley Drive,1564
4,Jeddah,(966)(2) 663 2333,Le Méridien Jeddah,Saudi Arabia,"21.4959469,39.1853048",(966)(2) 663 3333,,21463,2010-06-08T19:02:46,Medinah Road,1888
3,Serrekunda,(220) 4410879,Sheraton Gambia Hotel Resort & Spa,Gambia,"13.4333333,-16.6666667",(220) 4410889,,,2010-06-08T19:12:33,Brufut Heights,1975
3,Woodbury,(651) 209-3281,Sheraton St. Paul Woodbury Hotel,United States,"44.9390947,-92.9569548",(651) 209-3280,Minnesota,55125,2010-06-08T19:00:59,676 Bielenberg Drive,3077
3,San Antonio,(210) 354-2888,Four Points by Sheraton San Antonio Downtown,United States,"29.420118,-98.490422",(210) 354-1333,Texas,78205,2010-06-08T19:17:18,524 South St. Mary's Street,3282
6,Hof bei Salzburg,(43)(6229) 2253 1531,"Schloss Fuschl Resort & Spa, Salzburg",Austria,"47.808579,13.2561141",(43)(6229) 22530,,5322,2010-06-08T19:06:28,Schloss Straße 19,3566
5,San Sebastian,(34)(943) 437676,"Hotel Maria Cristina, San Sebastian",Spain,"43.3209442,-1.9792337",(34)(943) 437600,,20004,2010-06-08T18:59:26,"Paseo Republica Argentina, 4",86
6,Athens,(30)(21) 03228034,"Hotel Grande Bretagne, Athens",Greece,"37.975718,23.7316726",(30)(21) 03330000,,10563,2010-06-08T19:06:11,Constitution Square,101
2,Lima,(51) (1) 3155015,Sheraton Lima Hotel & Convention Center,Peru,"-12.1334752,-77.0211577",(51) (1) 3155000,,1,2010-06-08T19:22:28,Paseo de la Republica 170,284
2,Agra,(91)(562) 2331730,"ITC Mughal, Agra",India,"27.1595687,78.048075",(91)(562) 4021700,Uttar Pradesh,282001,2010-06-08T18:59:54,Taj Ganj,422
3,Tirana,(355)(4) 2274711,Sheraton Tirana Hotel,Albania,"41.33,19.82",(355)(4) 2274707,,,2010-06-08T19:06:34,Sheshi Italia,1439
4,Huntsville,(256) 428-2001,The Westin Huntsville,United States,"34.7141569,-86.6752236",(256) 428-2000,Alabama,35806,2010-06-08T19:18:17,"6800 Governors West, NW",1560
4,Wheeling,(847) 777-6510,The Westin Chicago North Shore,United States,"42.150583,-87.911632",(847) 777-6500,Illinois,60090,2010-06-08T19:04:50,601 N. Milwaukee Avenue,1724
5,Boston,(617) 310-6730,W Boston,United States,"42.3509408,-71.0652586",(617) 261-8700,Massachusetts,02116,2010-06-08T19:17:04,100 Stuart Street,1787
3,Medina,(966)(4) 846 0385,Le Méridien Medina,Saudi Arabia,"24.460899,39.62019",(966)(4) 846 0777,,,2010-06-08T19:22:46,Khaled Bin El Waleed Road,1889
4,Sohna-Gurgaon,(91)(124) 4508800,The Westin Sohna-Gurgaon Resort & Spa,India,"28.23767,77.14814",(91)(124) 4508888,Haryana,122103,2010-06-08T18:48:29,Vatika Complex,3000
5,Vienna,(43)(1) 51516550,"Hotel Bristol, Vienna",Austria,"48.2025029,16.370284",(43)(1) 515160,,1015,2010-06-08T19:09:00,Kaerntner Ring 1,89
3,Kansas City,(816) 561-7330,Sheraton Suites Country Club Plaza,United States,"39.0424579,-94.5957565",(816) 931-4400,Missouri,64112,2010-06-08T19:01:04,770 W 47th Street,95
3,Philadelphia,(215) 365-6035,Four Points by Sheraton Philadelphia Airport,United States,"39.892048,-75.234965",(215) 492-0400,Pennsylvania,19153,2010-06-08T19:14:41,4101A Island Avenue,123
6,Abu Dhabi,(971)(2) 6725149,Sheraton Abu Dhabi Hotel & Resort,United Arab Emirates,"24.4723331,54.3400605",(971)(2) 6773333,,,2010-06-08T19:11:38,Corniche Road,446
3,Nagoya,(81)(52) 531 3313,The Westin Nagoya Castle,Japan,"35.185612,136.8956574",(81)(52) 521 2121,Aichi,451-8551,2010-06-08T19:21:50,"3-19 Hinokuchi-cho, Nishi-ku",1060
4,Seoul,(82)(2) 752 1443,"The Westin Chosun, Seoul",South Korea,"37.5640333,126.9801766",(82)(2) 771 0500,,100-070,2010-06-08T19:10:07,"87 Sogong-Dong, Jung-gu",1064
3,Overland Park,(913) 234-2111,Sheraton Overland Park Hotel at the Convention Center,United States,"38.927967,-94.655972",(913) 234-2100,Kansas,66211,2010-06-08T19:30:09,6100 College Boulevard,1400
3,Asuncion,(595) (21) 6177001,Sheraton Asuncion Hotel,Paraguay,"-25.300494,-57.636231",(595) (21) 6177000,,,2010-06-08T19:11:25,Aviadores Del Chaco 2066,1450
3,Panama City,(507)(2) 65-3550,Four Points by Sheraton Panama,"Panama, Republic of","8.98078,-79.52035",(507)(2) 65-3636,,832-0239,2010-06-08T18:48:29,"Street 53, Marbela and Ave 5A B South",1472
4,Alexandria,(703) 253-8605,The Westin Alexandria,United States,"38.802929,-77.065267",(703) 253-8600,Virginia,22314-5700,2010-06-08T19:20:52,400 Courthouse Square,1718
7,Key West,(305) 294-4086,"Sunset Key Guest Cottages, A Westin Resort",United States,"24.558048,-81.807425",(305) 292-5300,Florida,33040,2010-06-08T18:59:06,245 Front Street,1781
5,Moscow,(7)(495) 258 7100,"Hotel National, Moscow",Russia,"55.7619636,37.6096025",(7)(495) 258 7000,,125009,2010-06-08T19:09:16,15/1 Mokhovaya Street,1864
2,Broomfield,(303) 464-1615,Aloft Broomfield Denver,United States,"39.9056996,-105.0899237",(303) 635-2000,Colorado,80021,2010-06-08T19:09:48,8300 Arista Place,3048
3,Tempe,(480) 621-3303,Aloft Tempe,United States,"33.4340463,-111.9246366",(480) 621-3300,Arizona,85281,2010-06-08T19:22:29,951 East Playa Del Norte Drive,3102
2,Tulsa,(918) 949-9001,Aloft Tulsa,United States,"36.0736142,-95.8613718",(918) 949-9000,Oklahoma,74133,2010-06-08T19:18:22,6716 S. 104th East Avenue,3143
2,Elk Grove Village,(847) 290-1129,Sheraton Suites Chicago Elk Grove,United States,"42.037746,-87.981609",(847) 290-1600,Illinois,60007,2010-06-08T19:05:17,121 Northwest Point Boulevard,91
3,Richmond Hill,(905) 881-7841,Sheraton Parkway Toronto North Hotel & Suites,Canada,"43.8444677,-79.3822423",(905) 881-2121,Ontario,L4B 1B2,2010-06-08T19:02:15,600 Highway 7 East,221
3,Eastham,(508) 240-1870,Four Points by Sheraton Eastham Cape Cod,United States,"41.8459708,-69.9853819",(508) 255-5000,Massachusetts,02642,2010-06-08T19:18:38,3800 Route 6,786
2,Harrisburg,(717) 561-8398,Four Points by Sheraton Harrisburg,United States,"40.273538,-76.814486",(717) 561-2800,Pennsylvania,17111,2010-06-08T19:20:54,800 East Park Drive,788
4,Providence,(401) 598-8200,The Westin Providence,United States,"41.824972,-71.415907",(401) 598-8000,Rhode Island,02903,2010-06-08T19:12:48,One West Exchange Street,1049
1,Lexington,(859) 233-3658,Four Points by Sheraton Lexington,United States,"38.1016224,-84.4819002",(859) 259-1311,Kentucky,40511,2010-06-08T18:59:13,1938 Stanton Way,1263
3,Pilar,(54)(2322) 47 4450,Sheraton Pilar Hotel & Convention Center,Argentina,"-34.4681052,-58.8999825",(54)(2322) 47 4400,Buenos Aires,1629,2010-06-08T19:16:14,Panamericana KM 49.5,1286
4,Evora,(351) 266 788229,"Convento do Espinheiro Hotel & Spa, Evora",Portugal,"38.5245926,-8.0247005",(351) 266 788200,,7000,2010-06-08T19:04:33,Convento do Espinheiro,1553
3,Virginia Beach,(757) 557-0554,The Westin Virginia Beach Town Center,United States,"36.8418305,-76.1357895",(757) 557-0550,Virginia,23462,2010-06-08T19:24:07,4535 Commerce Street,1568
4,Mendoza,(54)(261) 4415510,Sheraton Mendoza Hotel,Argentina,"-32.892255,-68.83814",(54)(261) 4415500,,5500,2010-06-08T18:48:40,Primitivo de la Reta 989,1733
4,Pointe Aux Piments,(230) 204 3344,Le Méridien Ile Maurice,Mauritius,"-20.0465504,57.5377073",(230) 204 3333,,,2010-06-08T19:09:25,Village Hall Lane,1800
4,Frankfurt,(49)(69) 269 7884,Le Méridien Parkhotel Frankfurt,Germany,"50.10557,8.66665",(49)(69) 26970,,60329,2010-06-08T19:13:29,Wiesenhuettenplatz 28-38,1856
2,Zhongshan,(86)(760) 8888 8666,Sheraton Zhongshan Hotel,China,"22.51438,113.39221",(86)(760) 8822 8888,Guangdong,528403,2010-06-08T18:48:40,Qi Jiang Park North,1973
2,Hangzhou,(86)(571) 2887 8887,"Four Points by Sheraton Hangzhou, Binjiang",China,"30.1762422,120.1416327",(86)(571) 2887 8888,Zhejiang,310053,2010-06-08T18:59:43,868 Dongxin Avenue,3005
3,Portland,(503) 200-5244,Aloft Portland Airport at Cascade Station,United States,"45.572551,-122.558327",(503) 200-5678,Oregon,97220,2010-06-08T18:56:34,9920 NE Cascades Parkway,3043
3,Northbrook,(847) 480-1922,Sheraton Chicago Northbrook Hotel,United States,"42.1080185,-87.8070926",(847) 480-1900,Illinois,60062,2010-06-08T19:16:49,1110 Willow Road,3134
2,Columbus,(614) 436-0926,Sheraton Suites Columbus,United States,"40.113075,-83.009631",(614) 436-0004,Ohio,43235,2010-06-08T19:23:27,201 Hutchinson Avenue,94
3,Schwaig-Oberding,(49)(89) 92722800,Sheraton Munich Airport Hotel,Germany,"48.34242,11.83301",(49)(89) 927220,,85445,2010-06-08T19:27:35,Freisinger Strasse 80,147
4,"Koloa, Kauai",(808) 742-9777,Sheraton Kauai Resort,United States,"21.877346,-159.4623719",(808) 742-1661,Hawaii,96756,2010-06-08T19:17:30,2440 Hoonani Road,379
2,Jaipur,(91)(141) 5102102,"Sheraton Rajputana Palace Hotel, Jaipur",India,"24.5922444,72.7050207",(91)(141) 5100100,Rajasthan,302006,2010-06-08T19:01:27,Palace Road,492
3,Rome,(39)(06) 5940689,Sheraton Roma Hotel & Conference Center,Italy,"41.8416601,12.4721308",(39)(06) 54531,,00144,2010-06-08T19:05:27,"Viale Del Pattinaggio, 100",497
3,Framingham,(508) 875-7593,Sheraton Framingham Hotel & Conference Center,United States,"42.297691,-71.478875",(508) 879-7200,Massachusetts,01701,2010-06-08T19:01:45,1657 Worcester Road,756
2,East Hartford,(860) 289-4728,Sheraton Hartford Hotel,United States,"41.7670902,-72.6610387",(860) 528-9703,Connecticut,06108,2010-06-08T19:16:24,100 East River Drive,1272
5,Ho Chi Minh City,(84)(8) 38272929,Sheraton Saigon Hotel & Towers,Vietnam,"10.775994,106.7031897",(84)(8) 38272828,,,2010-06-08T19:14:43,"88 Dong Khoi Street, District 1",1449
3,Tunis Carthage Cedex,(216)(71)782 208,Sheraton Tunis Hotel & Towers,Tunisia,"36.81881,10.16596",(216)(71) 782 100,,1080,2010-06-08T19:21:54,Avenue de la Ligue Arabe,1483
4,San Juan,(787) 721-1111,Sheraton Old San Juan Hotel & Casino,United States,"18.39983,-66.05092",(787) 721-5100,Puerto Rico,00901,2010-06-08T18:48:41,100 Brumbaugh Street,1497
4,Blue Mountains,(705) 443-8081,"The Westin Trillium House, Blue Mountain",Canada,"44.5010245,-80.3109124",(705) 443-8080,Ontario,L9Y 0V9,2010-06-08T19:08:19,220 Mountain Drive,1498
3,Garden Grove,(714) 703-8401,Sheraton Garden Grove - Anaheim South Hotel,United States,"33.785454,-117.915507",(714) 703-8400,California,92840,2010-06-08T19:23:37,12221 Harbor Boulevard,1552
3,Urumqi,(86)(991) 699 9888,Sheraton Urumqi Hotel,China,"43.82103,87.58949",(86)(991) 699 9999,Xinjiang,830000,2010-06-08T18:48:41,669 Northern Youhao Road,1707
7,Bali,(62)(361) 8478 099,The St. Regis Bali Resort,Indonesia,"-8.81453,115.22448",(62)(361) 8478 111,Bali,80363,2010-06-08T18:48:41,"Kawasan Pariwisata, Nusa Dua",1708
4,Libreville,(241) 742924,Le Méridien Re-Ndama,Gabon,"0.390841,9.453644",(241)(79) 32 00,,,2010-06-08T19:14:23,PO Box 4064,1810
4,Auckland,(64)(9) 909 9001,The Westin Auckland Lighter Quay,New Zealand,"-36.844888,174.757477",(64)(9) 909 9000,,1010,2010-06-08T18:51:34,21 Viaduct Harbour Avenue,3015
2,Indianapolis,(317) 638-0782,Sheraton Indianapolis City Centre Hotel,United States,"39.769634,-86.158664",(317) 635-2000,Indiana,46204,2010-06-08T19:17:23,31 West Ohio Street,3054
4,Philadelphia,(215) 422-8277,Le Méridien Philadelphia,United States,"39.954573,-75.1642793",(215) 422-8200,Pennsylvania,19102,2010-06-08T19:03:19,1421 Arch Street,3238
3,Morrisville,(919) 640-1102,Four Points by Sheraton Raleigh Durham Airport,United States,"35.8560718,-78.8232623",(919) 380-1221,North Carolina,27560,2010-06-08T19:21:11,1200 Claren Circle,3298
5,Salzburg,(43)(662) 843349,"Hotel Goldener Hirsch, Salzburg",Austria,"47.7998979,13.0409689",(43)(662) 80840,,5020,2010-06-08T19:16:56,Getreidegasse 37,98
5,Lakeville,(570) 226-6982,Cove Haven Resort,United States,"41.4510881,-75.2429217",(570) 226-4506,Pennsylvania,18438,2010-06-08T18:59:58,Rt 590,155
4,Reston,(703) 860-1594,Sheraton Reston Hotel,United States,"38.949972,-77.354366",(703) 620-9000,Virginia,20191,2010-06-08T19:16:36,11810 Sunrise Valley Drive,655
1,Saginaw,(989) 790-1466,Four Points by Sheraton Saginaw,United States,"43.478887,-83.962186",(989) 790-5050,Michigan,48604,2010-06-08T19:02:33,4960 Towne Centre Road,661
3,Fort Lauderdale,(954) 772-6867,The Westin Fort Lauderdale,United States,"26.204431,-80.138016",(954) 772-1331,Florida,33334,2010-06-08T19:24:59,400 Corporate Drive,1016
5,Tixkokob,(52) (999) 924 1534,Hacienda San Jose,Mexico,"21.0021037,-89.40007",(52)(999) 924 1333,Yucatan,97470,2010-06-08T19:16:05,KM 30 Carretera,1377
4,San Diego,(619) 692-2337,Sheraton San Diego Hotel & Marina,United States,"32.727063,-117.19847",(619) 291-2900,California,92101,2010-06-08T19:03:45,1380 Harbor Island Drive,1433
4,Shenzhen,(86)(755) 8383 8998,Sheraton Shenzhen Futian Hotel,China,"22.53587,114.05963",(86)(755) 8383 8888,Guangdong,518048,2010-06-08T18:48:44,Great China International Exchange Square,1709
4,Washington,(202) 349-2215,Four Points by Sheraton Washington D.C. Downtown,United States,"38.902918,-77.0285509",(202) 289-7600,District of Columbia,20005,2010-06-08T19:12:03,1201 K Street N.W.,1750
4,Reston,(703) 391-9115,The Westin Reston Heights,United States,"38.950328,-77.352126",(703) 391-9000,Virginia,20191,2010-06-08T19:16:40,11750 Sunrise Valley Drive,1752
4,Portland,(503) 222-9997,"the Nines, Portland",United States,"45.5188806,-122.6778336",(877) 229-9995,Oregon,97204,2010-06-08T19:19:05,525 SW Morrison,1757
2,New Carrollton,(301) 459-8192,Four Points by Sheraton New Carrollton,United States,"38.956994,-76.870826",(301) 459-6700,Maryland,20784,2010-06-08T18:58:08,8500 Annapolis Road,1779
5,Limassol,(357)(25) 634222,Le Méridien Limassol Spa & Resort,Cyprus,"34.7116,33.1741",(357)(25) 862000,,CY-3308,2010-06-08T18:48:45,Old Limassol - Nicosia Road,1853
3,Québec City,(418) 627-3658,Four Points by Sheraton Québec,Canada,"46.886867,-71.281738",(418) 627-8008,Quebec,G1G 6T8,2010-06-08T19:05:31,7900 Rue du Marigot,1587
3,Tempe,(480) 968-6262,Four Points by Sheraton Tempe,United States,"33.4129238,-111.9262489",(480) 968-3451,Arizona,85281,2010-06-08T19:07:38,1333 Rural Rd.,3064
2,Edison,(732) 225-0037,Sheraton Edison Hotel Raritan Center,United States,"40.5163807,-74.3395711",(732) 225-8300,New Jersey,08837,2010-06-08T18:56:48,125 Raritan Center Parkway,3154
3,Austin,(512) 491-0708,Aloft Austin at The Domain,United States,"30.4001504,-97.7251019",(512) 491-0777,Texas,78758,2010-06-08T19:30:12,11601 Domain Drive,3240
3,Incheon,(82)(32) 835 1001,Sheraton Incheon Hotel,South Korea,"37.3863652,126.6388839",(82)(32) 835 1000,,406-840,2010-06-08T19:01:40,"6-9 Songdo-Dong, Yeonsu-Gu",3342
4,Minneapolis,(612) 767-6901,Le Méridien Chambers Minneapolis,United States,"44.976079,-93.2774099",(612) 767-6900,Minnesota,55403,2010-06-08T19:07:43,901 Hennepin Avenue,3554
5,Amsterdam,(31)(20) 6276753,"Hotel Pulitzer, Amsterdam",Netherlands,"52.3725814,4.8832151",(31)(20) 5235235,,1016 GZ,2010-06-08T18:56:29,Prinsengracht 315-331,100
2,Edison,(732) 225-0037,Sheraton Edison Hotel Raritan Center,United States,"40.5163807,-74.3395711",(732) 225-8300,New Jersey,08837,2010-06-08T19:22:13,125 Raritan Center Parkway,421
4,Dammam,(966)(3) 834 9872,Sheraton Dammam Hotel & Towers,Saudi Arabia,"26.432606,50.1179217",(966)(3) 834 5555,,31422,2010-06-08T19:23:59,1st Street,1186
3,Victoria,(250) 474-6031,Four Points by Sheraton Victoria Gateway,Canada,"48.457882,-123.505103",(250) 474-6063,British Columbia,V9B 6W6,2010-06-08T18:49:05,829 McCallum Road,1561
1,Changshu,(86)(512) 5280 3588,Four Points by Sheraton Changshu,China,"31.6642295,120.7568457",(86)(512) 5298 8888,Jiangsu,215500,2010-06-08T19:19:27,176 Zhujiang Road,1756
4,Orlando,(407) 233-2201,The Westin Imagine Orlando,United States,"28.433273,-81.459962",(407) 233-2200,Florida,32819,2010-06-08T18:59:09,9501 Universal Boulevard,1767
4,Cancun,(52) 998 881 2201,Le Méridien Cancun Resort & Spa,Mexico,"21.1773205,-86.8136281",(52) 998 881 2200,Quintana Roo,77500,2010-06-08T19:10:57,"Retorno Del Rey, Lote 37-1",1877
4,Uyo,(234)(0) 708 0660 189,Le Méridien Ibom Hotel & Golf Resort,Nigeria,"5.05,7.9333333",(234)(0) 708 0660 000,Akwa Ibom State,,2010-06-08T19:18:48,"Nwaniba Road, PMB 1200",1936
3,Chiang Rai,(66)(53) 603 330,"Le Méridien Chiang Rai Resort, Thailand",Thailand,"19.9094444,99.8275",(66)(53) 603 333,,57000,2010-06-08T19:27:43,221 / 2 Moo 20 Kwaewai Road,3160
4,London,(44)(207) 499 1965,"The Park Lane Hotel, London",United Kingdom,"51.5065444,-0.1425781",(44)(207) 499 6321,England,W1J 7BX,2010-06-08T19:08:45,Piccadilly,105
1,Bandung,(62)(22) 2500301,Sheraton Bandung Hotel & Towers,Indonesia,"-6.87545,107.62087",(62)(22) 2500303,West Java,40135,2010-06-08T18:48:47,Jalan Ir. H. Juanda No. 390,276
4,Amsterdam,(31) (20) 316 4399,Sheraton Amsterdam Airport Hotel and Conference Center,Netherlands,"52.3089362,4.7593735",(31) (20) 316 4300,,1118BG,2010-06-08T19:09:02,Schiphol Boulevard 101,301
3,Saskatoon,(306) 244-1739,Sheraton Cavalier Saskatoon Hotel,Canada,"52.1267676,-106.6586221",(306) 652-6770,Saskatchewan,S7K 3G9,2010-06-08T19:05:05,612 Spadina Crescent East,739
3,Brussels,(32)(2) 646 6344,Four Points by Sheraton Brussels,Belgium,"50.8280603,4.3651125",(32)(2) 645 6111,,1000,2010-06-08T18:56:44,Rue Paul Spaak 15,1140
5,Dubai,(971)(4) 399 5577,Sheraton Jumeirah Beach Resort & Towers,United Arab Emirates,"25.0996798,55.156556",(971)(4) 3995533,,,2010-06-08T19:25:19,Al Sufouh Road,1326
4,Tampa,(813) 229-5322,The Westin Tampa Harbour Island,United States,"27.937925,-82.454825",(813) 229-5000,Florida,33602,2010-06-08T19:19:15,725 South Harbour Island Blvd,1764
3,Philadelphia,(215) 448-2864,Sheraton Philadelphia City Center Hotel,United States,"39.956841,-75.167597",(215) 448-2000,Pennsylvania,19103,2010-06-08T19:17:58,17th & Race Street,1776
5,Zurich,(41)(44) 554 0001,Four Points By Sheraton Sihlcity - Zurich,Switzerland,"47.3580262,8.5232679",(41)(44) 554 0000,,8045,2010-06-08T19:05:13,Kalandergasse 1,1782
5,El Vendrell,(34) 977 692999,Le Méridien Ra Beach Hotel & Spa,Spain,"41.1862121,1.5589313",(34) 977 694200,,43880,2010-06-08T18:50:31,"Avinguda Sanatori, 1",3037
2,Roanoke,(540) 561-7985,Sheraton Roanoke Hotel & Conference Center,United States,"37.3065227,-79.9772711",(540) 563-9300,Virginia,24017,2010-06-08T19:20:10,2801 Hershberger Road,3068
2,Brookfield,(262) 786-5210,Sheraton Milwaukee Brookfield Hotel,United States,"43.0272,-88.1084",(262) 364-1100,Wisconsin,53005,2010-06-08T19:18:59,375 South Moorland Road,3254
4,Abu Dhabi,(971)(2) 4499702,Aloft Abu Dhabi,United Arab Emirates,"24.4191677,54.4383177",(971)(2) 6545000,,,2010-06-08T19:16:34,Abu Dhabi National Exhibition Centre,3357
1,Jakarta,(62)(21) 559 7700,Sheraton Bandara Hotel,Indonesia,"-6.16667,106.80024",(62)(21) 559 7777,Jakarta,19110,2010-06-08T18:48:49,Bandara Soekarno-Hatta,107
4,Santiago,(56)(2) 707 1010,"San Cristobal Tower, Santiago",Chile,"-33.4225258,-70.6213923",(56)(2) 707 1000,,,2010-06-08T19:15:53,Josefina Edwards De Ferrari 0100,206
3,Burlington,(802) 865-6670,Sheraton Burlington Hotel & Conference Center,United States,"44.472031,-73.187134",(802) 865-6600,Vermont,05403,2010-06-08T19:16:46,870 Williston Road,606
4,Osaka,(81)(6) 6440 1100,The Westin Osaka,Japan,"34.7053988,135.4842854",(81)(6) 6440 1111,Osaka,531-0076,2010-06-08T18:59:31,"1-1-20 Oyodonaka, Kita-Ku",1061
2,San Luis Potosi,(52)(444) 825 0200,The Westin San Luis Potosi,Mexico,"22.1377193,-101.0295006",(52)(444) 825 0125,San Luis Potosi,78210,2010-06-08T19:03:01,Avenida Real de Lomas No. 1000,1094
4,Frisco,(972) 668-8100,The Westin Stonebriar,United States,"33.0917032,-96.841394",(972) 668-8000,Texas,75034,2010-06-08T19:09:12,1549 Legacy Drive,1193
4,Detroit,(734) 942-6600,The Westin Detroit Metropolitan Airport,United States,"42.2161757,-83.3522229",(734) 942-6500,Michigan,48242,2010-06-08T18:59:35,2501 Worldgateway Place,1415
3,Columbia,(803) 988-1401,Sheraton Columbia Downtown Hotel,United States,"34.0039928,-81.0347562",(803) 988-1400,South Carolina,29201,2010-06-08T19:00:20,1400 Main Street,1783
4,Port Gentil,(241) 552806,Le Méridien Mandji,Gabon,"-0.721085,8.781655",(241) 552103,,,2010-06-08T19:10:16,Le Meridien Mandji,1811
4,Bangalore,(91)(80) 2226 7676,Le Méridien Bangalore,India,"13.0071978,77.5772733",(91)(80) 2226 2233,Karnataka,560 052,2010-06-08T18:58:19,28 Sankey Road,1833
4,New Orleans,(504) 581-7179,W New Orleans,United States,"29.948818,-90.066444",(504) 525-9444,Louisiana,70130,2010-06-08T19:19:03,333 Poydras Street,2030
4,Viña del Mar,(56)(32) 238 8799,Sheraton Miramar Hotel & Convention Center,Chile,"-33.0207873,-71.565623",(56)(32) 238 8600,,,2010-06-08T19:02:21,Avenida Marina  N 15,1536
2,Winchester,(540) 678-1369,Aloft Winchester,United States,"39.160362,-78.1519749",(540) 678-8899,Virginia,22602,2010-06-08T18:59:38,1055 Milwood Pike,3025
3,Athlone,(353)(90) 6451001,Sheraton Athlone Hotel,Ireland,"53.4234637,-7.9346752",(353)(90) 6451000,,,2010-06-08T19:04:11,Gleeson Street,3222
4,Fort Lauderdale,(954) 462-2342,"The Westin Beach Resort, Fort Lauderdale",United States,"26.126777,-80.104269",(954) 467-1111,Florida,33304,2010-06-08T19:05:35,321 North Fort Lauderdale Beach Boulevard,3328
5,Palma de Mallorca,(34)(971) 787200,Sheraton Mallorca Arabella Golf Hotel,Spain,"39.5902846,2.59277",(34)(971) 787100,,07013,2010-06-08T19:11:36,"Carrer de la Vinagrella, Urbanization Son Vida",116
3,Munich,(49)(89) 35751800,Four Points by Sheraton Munich Olympiapark,Germany,"48.18185,11.55312",(49)(89) 357510,,80809,2010-06-08T19:06:46,Helene-Mayer-Ring 12,148
4,Brussels,(32)(2) 7108080,Sheraton Brussels Airport Hotel,Belgium,"50.899017,4.4858997",(32)(2) 7108000,,1930,2010-06-08T19:08:52,Brussels National Airport,295
4,Boston,(617) 236-1702,Sheraton Boston Hotel,United States,"42.346302,-71.084032",(617) 236-2000,Massachusetts,02199,2010-06-08T19:23:21,39 Dalton Street,430
5,Ayrshire,(44)(1655) 331706,"Turnberry Resort, Scotland",United Kingdom,"55.3119222,-4.8317552",(44)(1655) 331000,Scotland,KA26 9LT,2010-06-08T19:15:16,Turnberry,1109
4,Yokohama,(81)(45) 411 1343,Yokohama Bay Sheraton Hotel & Towers,Japan,"35.4670859,139.617797",(81)(45) 411 1111,Kanagawa,220-0004,2010-06-08T19:11:21,"1-3-23 Kitasaiwai, Nishi-Ku",1134
4,San Antonio,(210) 558-2400,"The Westin La Cantera Resort, San Antonio",United States,"29.6043578,-98.60454",(210) 558-6500,Texas,78256,2010-06-08T19:01:33,16641 La Cantera Parkway,1170
3,Chengdu,(86)(28) 8676 8888,Sheraton Chengdu Lido Hotel,China,"30.6615,104.0659",(86)(28) 8676 8999,Sichuan,610015,2010-06-08T18:48:52,"No. 15, Section 1, Ren Min Zhong Road",1296
3,Weimar,(49)(3643) 802610,"Hotel Elephant, Weimar",Germany,"50.97919,11.32986",(49)(3643) 8020,,99423,2010-06-08T19:11:54,Markt 19,1358
2,Monterrey,(52)(81) 8389 1640,Four Points by Sheraton Galerias Monterrey,Mexico,"25.6819042,-100.3567547",(52)(81) 8389 1600,Nuevo Leon,64640,2010-06-08T19:22:07,Ave Insurgentes 3961,1441
3,Bellevue,(425) 451-2473,Sheraton Bellevue Hotel,United States,"47.610695,-122.190033",(425) 455-3330,Washington,98004,2010-06-08T19:04:05,100 112th Avenue NE,1506
3,Edmonton,(780) 469-3680,Four Points by Sheraton Edmonton South,Canada,"53.509752,-113.4401253",(780) 465-7931,Alberta,T6C 4A6,2010-06-08T19:03:48,7230 Argyll Road,1544
6,Park City,(435) 940-5705,The St. Regis Deer Crest Resort,United States,"40.638205,-111.476727",(435) 940-5700,Utah,84060,2010-06-08T19:16:11,2300 Deer Valley Drive East,1588
5,Cafayate,(54)(3868) 421 753,Patios de Cafayate Hotel & Spa,Argentina,"-26.0653,-65.9762",(54)(3868) 422 229,Salta,4427,2010-06-08T18:48:54,Ruta Nacional 40 y Ruta Nacional 68,1702
1,Kuching,(60)(82) 280 650,Four Points by Sheraton Kuching,Malaysia,"1.5414509,110.3351878",(60)(82) 280 888,,93350,2010-06-08T19:08:15,Lot 3186-3187 Block 16 KCLD,3277
6,Male’,(960) 664 1979,Sheraton Maldives Full Moon Resort & Spa,"Maldives, Republic of","4.2204,73.5411",(960) 664 2010,,20-15,2010-06-08T18:48:55,Furanafushi Island,3442
4,Port St. Lucie,(772) 460-5705,"Sheraton PGA Vacation Resort, Port St. Lucie",United States,"27.307093,-80.42142",(772) 460-5700,Florida,34986,2010-06-08T19:20:28,8702 Champions Way,5604
3,Myrtle Beach,(843) 918-5001,Sheraton Myrtle Beach Convention Center Hotel,United States,"33.706402,-78.872416",(843) 918-5000,South Carolina,29577,2010-06-08T19:03:41,2101 North Oak Street,5601
3,Mar del Plata,(54)(223) 414 0009,Sheraton Mar del Plata Hotel,Argentina,"-38.0316654,-57.5391692",(54)(223) 414 0000,Buenos Aires,7600,2010-06-08T18:58:50,Alem 4221,113
6,Moscow,(7)(495) 9319704,"Sheraton Palace Hotel, Moscow",Russia,"55.7738441,37.590441",(7)(495) 9319700,,125047,2010-06-08T19:04:41,1st Tverskaya Yamskaya Street 19,137
5,Maui,(808) 661-0458,Sheraton Maui Resort & Spa,United States,"20.92663,-156.694629",(808) 661-0031,Hawaii,96761,2010-06-08T19:04:45,2605 Kaanapali Parkway,378
3,Fort Lauderdale,(954) 772-5490,Sheraton Suites Cypress Creek Ft. Lauderdale,United States,"26.2034071,-80.1514132",(954) 772-5400,Florida,33309,2010-06-08T19:19:01,555 N.W. 62nd Street,1113
2,Ontario,(909) 937-8028,Sheraton Ontario Airport Hotel,United States,"34.068066,-117.612502",(909) 937-8000,California,91764,2010-06-08T19:07:28,429 North Vineyard Avenue,1133
2,Annapolis,(410) 266-6247,Sheraton Annapolis Hotel,United States,"38.985667,-76.542735",(410) 266-3131,Maryland,21401,2010-06-08T19:17:14,173 Jennifer Road,1266
5,New York,(212) 627-1611,Four Points by Sheraton Manhattan Chelsea,United States,"40.7451145,-73.9941535",(212) 627-1888,New York,10001,2010-06-08T19:21:33,160 West 25th Street,1408
5,Mammoth Lakes,(760) 934-4686,"The Westin Monache Resort, Mammoth",United States,"37.6489959,-118.985945",(760) 934-0400,California,93546,2010-06-08T19:07:49,50 Hillside Drive,1562
3,Irving,(972) 929-0733,The Westin Dallas Fort Worth Airport,United States,"32.917107,-97.008178",(972) 929-4500,Texas,75063,2010-06-08T18:59:49,4545 W. John Carpenter Freeway,1565
3,Itasca,(630) 773-4088,The Westin Chicago Northwest,United States,"41.986769,-88.019926",(630) 773-4000,Illinois,60143,2010-06-08T19:10:14,400 Park Blvd.,1760
3,Dakar,(221)(33) 8696924,Le Méridien President,Senegal,"14.740833,-17.53",(221)(33) 8696969,,,2010-06-08T19:23:22,Pointe des Almadies,1821
2,Vilnius,(370)(5) 2651385,Le Méridien Vilnius,Lithuania,"54.82799,25.13234",(370)(5) 2739700,,LT-03005,2010-06-08T18:48:56,Highway A2,1862
4,Santiago,(56)(2) 770 0001,W Santiago,Chile,"-33.41409,-70.59849",(56)(2) 770 0000,,,2010-06-08T19:03:26,Isidora Goyenechea 3000,1979
2,Qiandao Lake,(86)(571) 6489 8888,Sheraton Qiandao Lake Resort,China,"29.60809,119.04064",(86)(571) 6488 8888,Zhejiang,311700,2010-06-08T18:48:57,Chun An,3245
3,Ewing,(609) 671-0151,Element Ewing Hopewell,United States,"40.2780132,-74.8204625",(609) 671-0050,New Jersey,08628,2010-06-08T19:28:27,1000 Sam Weinroth Road East,3367
1,Lenggries,(49)(8042) 4224,Four Points by Sheraton Brauneck,Germany,"47.68625,11.57274",(49)(8042) 5020,,83661,2010-06-08T19:04:54,Muenchner Strasse 25,117
4,Sofia,(359)(2) 9806464,Sheraton Sofia Hotel Balkan,Bulgaria,"42.697056,23.322194",(359)(2) 9816541,,1000,2010-06-08T19:16:16,5 Sveta Nedelya Square,186
3,Quito,(593)(2) 243 3906,Sheraton Quito Hotel,Ecuador,"-0.2254294,-78.5110901",(593)(2) 297 0002,,,2010-06-08T19:02:48,Avenida Naciones Unidas y Avenida Republica de El Salvador,766
5,Maui,(808) 661-5764,"The Westin Maui Resort & Spa, Ka'anapali",United States,"20.919806,-156.694844",(808) 667-2525,Hawaii,96761,2010-06-08T18:58:23,2365 Kaanapali Parkway,1028
2,Fairview Heights,(618) 622-9548,Four Points by Sheraton Fairview Heights,United States,"38.605104,-89.982975",(618) 622-9500,Illinois,62208,2010-06-08T19:21:06,319 Fountains Pkwy,1248
4,Chicago,(312) 981-6622,Four Points by Sheraton Chicago Downtown/Magnificent Mile,United States,"41.893439,-87.6254399",(312) 981-6600,Illinois,60611,2010-06-08T19:15:48,630 N. Rush Street,1592
4,Sopot,(48)(58) 767 1001,"Sheraton Sopot Hotel, Conference Center & Spa",Poland,"54.4466297,18.5689397",(48)(58) 767 1000,,81-718,2010-06-08T19:19:42,Powstancow Warszawy 10,3032
1,Mataram,(62)(370) 693241,Sheraton Senggigi Beach Resort,Indonesia,"-8.5818496,116.1095036",(62)(370) 693333,West Nusa Tenggara,83015,2010-07-06T11:38:38,PO Box 1154,121
3,South Padre Island,(956) 761-6570,Sheraton South Padre Island Beach Hotel & Condominiums,United States,"26.0793753,-97.165632",(956) 761-6551,Texas,78597,2010-06-08T18:58:33,310 Padre Boulevard,909
2,London,(519) 681-8222,Four Points by Sheraton London,Canada,"42.9194364,-81.2100734",(519) 681-0600,Ontario,N6E 1M3,2010-06-08T19:14:01,1150 Wellington Road South,930
3,Petaluma,(707) 283-2828,Sheraton Sonoma County - Petaluma,United States,"38.23057,-122.612852",(707) 283-2888,California,94954,2010-06-08T19:12:40,745 Baywood Drive,1138
3,Winnipeg,(204) 775 5333,Four Points by Sheraton Winnipeg International Airport,Canada,"49.9037833,-97.2233129",(204) 775 5222,Manitoba,R3H 1H5,2010-06-08T19:19:34,1999 Wellington Avenue,1180
7,Geneva,(41)(22) 906 6667,"Hotel President Wilson, Geneva",Switzerland,"46.2143033,6.1517119",(41)(22) 906 6666,,1211,2010-06-08T19:13:57,"47, Quai Wilson",1274
3,Cape Town,(27)(21) 4129001,The Westin Grand Cape Town Arabella Quays,South Africa,"-33.91587,18.42615",(27)(21) 4129999,,8000,2010-06-08T18:49:00,Convention Square,1445
6,Elounda,(30)(2841) 089712,"Blue Palace Resort & Spa, Elounda",Greece,"35.26211,25.722328",(30)(2841) 065500,,72053,2010-06-08T19:11:32,P.O. Box 38,1487
3,Jamaica,(718) 322-7191,Sheraton JFK Airport Hotel,United States,"40.665806,-73.806788",(718) 322-7190,New York,11430,2010-06-08T19:21:31,132-26 South Conduit Avenue,1496
2,Jacksonville,(904) 564-4773,Sheraton Jacksonville Hotel,United States,"30.248167,-81.538062",(904) 564-4772,Florida,32256,2010-06-08T19:20:41,10605 Deerwood Park Boulevard,1582
5,Key West,(305) 294-4086,The Westin Key West Resort & Marina,United States,"24.558048,-81.807425",(305) 294-4000,Florida,33040,2010-06-08T19:21:26,245 Front Street,1780
3,Ahmedabad,(91)(79) 2550 5501,Le Méridien Ahmedabad,India,"23.0271737,72.5771243",(91)(79) 2550 5505,Gujarat,380 001,2010-06-08T19:18:27,Near Nehru Bridge,1835
3,Bangkok,(66)(2) 232 8999,Le Méridien Bangkok,Thailand,"13.7278817,100.5249023",(66)(2) 232 8888,,10500,2010-06-08T18:56:28,40/5 Surawong Road,1946
6,Mahé,(248) 620 901,Le Méridien Fisherman's Cove,Seychelles,"-4.6204838,55.4167072",(248) 677 000,,,2010-06-08T19:20:29,Bel Ombre,1802
4,Panama City,(507) 305-5101,Sheraton Panama Hotel & Convention Center,"Panama, Republic of","8.98829,-79.50117",(507) 305-5100,,0819-05896,2010-06-08T18:49:00,Vía Israel y Calle 77,3012
5,Istanbul,(90)(212) 381 2199,W Istanbul,Turkey,"41.042361,29.0006785",(90)(212) 381 2121,,34357,2010-06-08T19:18:51,Suleyman Seba Cad No: 22,3028
3,Las Vegas,(702) 589-2020,Element Las Vegas Summerlin,United States,"36.1218798,-115.323188",(702) 589-2000,Nevada,89135,2010-06-08T19:18:26,10555 Discovery Drive,3145
4,Munich,(49)(89) 92648699,The Westin Grand Munich Arabellapark,Germany,"48.15179,11.61715",(49)(89) 92640,,81925,2010-06-08T19:10:45,Arabellastrasse 6,274
3,Cerritos,(562) 403-2080,Sheraton Cerritos Hotel,United States,"33.8695847,-118.0606052",(562) 809-1500,California,90703,2010-06-08T19:10:42,12725 Center Court Drive,417
3,Portland,(503) 249-7602,Sheraton Portland Airport Hotel,United States,"45.5823499,-122.5754614",(503) 281-2500,Oregon,97220,2010-06-08T19:06:18,8235 Northeast Airport Way,881
3,Indianapolis,(317) 231-3928,The Westin Indianapolis,United States,"39.7681746,-86.161704",(317) 262-8100,Indiana,46204,2010-06-08T19:00:37,50 South Capitol Ave.,1033
1,Pittsburgh,(724) 695-7262,Four Points by Sheraton Pittsburgh Airport,United States,"40.465394,-80.199329",(724) 695-0002,Pennsylvania,15275,2010-06-08T19:11:01,One Industry Lane,1270
4,Minneapolis,(612) 746-4890,"Hotel Ivy, Minneapolis",United States,"44.9716092,-93.2726001",(612) 746-4600,Minnesota,55403,2010-06-08T19:08:33,201 South Eleventh Street,1721
3,Osaka,(81)(6) 6773 3322,"Sheraton Miyako Hotel, Osaka",Japan,"34.6663489,135.5204829",(81)(6) 6773 1111,Osaka,543-0001,2010-06-08T18:59:47,"6-1-55, Uehonmachi, Tennoji-ku",3092
3,Irving,(972) 929-0741,Element Dallas Fort Worth Airport North,United States,"32.876744,-96.9370333",(972) 929-9800,Texas,75063,2010-06-08T19:23:53,3550 Highway 635,3097
4,Tianjin,(86)(22) 2389-0099,The Westin Tianjin,China,"39.1175477,117.2031727",(86)(22) 2389 0088,Tianjin,300040,2010-06-08T19:16:28,101 Nanjing Road,3159
3,Oran,(213)(41) 288886,Le Méridien Oran Hotel & Convention Centre,Algeria,"35.6969,-0.6331",(213)(41) 984000,,,2010-06-08T19:19:47,"Les Genets, Chemin de Wilaya, Route 75",3431
4,Tbilisi,(995)(32) 772120,"Sheraton Metechi Palace Hotel, Tbilisi","Georgia, Republic of","41.702941,44.74754",(995)(32) 772020,,0103,2010-06-08T18:49:03,20 Telavi Street,132
4,Damascus,(963)(11) 2243607,Sheraton Damascus Hotel,Syria,"33.513,36.292",(963)(11) 2229300,,,2010-06-08T18:56:38,Omayad Square,332
4,Arlington,(703) 271-6626,Sheraton National Hotel,United States,"38.8668959,-77.072736",(703) 521-1900,Virginia,22204,2010-06-08T19:02:06,900 South Orme Street,829
3,Columbia,(410) 730-1290,Sheraton Columbia Town Center Hotel,United States,"39.218007,-76.854823",(410) 730-3900,Maryland,21044,2010-06-08T19:05:54,10207 Wincopin Circle,1013
3,Edmonton,(780) 428-1454,The Westin Edmonton,Canada,"53.5412465,-113.4902284",(780) 426-3636,Alberta,T5J 0N7,2010-06-08T19:05:03,10135 100th Street,1079
2,Salta,(54)(387) 432 3010,Sheraton Salta Hotel,Argentina,"-24.78812,-65.39766",(54)(387) 432 3000,Salta,A4406BKQ,2010-06-08T18:49:04,Coronel Francisco de Uriondo 330,1701
4,Istanbul,(90)(212) 5608155,Sheraton Istanbul Ataköy Hotel,Turkey,"40.963819,28.842502",(90)(212) 4130600,,34158,2010-06-08T19:06:04,Sahilyolu Cad.,3281
2,Greenwood Village,(303) 799-4828,Sheraton Denver Tech Center Hotel,United States,"39.589485,-104.879862",(303) 799-6200,Colorado,80112,2010-06-08T19:10:11,7007 South Clinton Street,139
4,Rio de Janeiro,(55)(21) 2239 5643,Sheraton Rio Hotel & Resort,Brazil,"-22.9892522,-43.2276109",(55)(21) 2274 1122,Rio De Janeiro,22450-220,2010-06-08T19:17:46,Avenida Niemeyer 121 - Leblon,255
6,Kuwait City,(965) 22448032/4,Sheraton Kuwait Hotel & Towers,Kuwait,"29.3331,47.98335",(965) 1835 555,,13060,2010-06-08T18:49:04,Safat 13060 / Fahd Al-Salem Street,406
4,Pittsburgh,(412) 261-2932,Sheraton Station Square Hotel,United States,"40.4368864,-80.0114098",(412) 261-2000,Pennsylvania,15219,2010-06-08T18:56:23,300 W Station Square Dr,693
3,Cuyahoga Falls,(330) 929-3031,Sheraton Suites Akron/Cuyahoga Falls,United States,"41.132602,-81.482875",(330) 929-3000,Ohio,44221-3811,2010-06-08T19:18:02,1989 Front Street,802
3,Minneapolis,(952) 893-8419,"Sheraton Bloomington Hotel, Minneapolis South",United States,"44.862044,-93.352225",(952) 835-7800,Minnesota,55439,2010-06-08T19:07:30,7800 Normandale Blvd.,1493
4,Arlington,(703) 717-6260,The Westin Arlington Gateway,United States,"38.880878,-77.114432",(703) 717-6200,Virginia,22203,2010-06-08T18:56:14,801 North Glebe Road,1513
4,Brooklyn,(718) 855-8840,Sheraton Brooklyn New York Hotel,United States,"40.6912951,-73.9843892",(718) 855-1900,New York,11201,2010-06-08T19:17:36,228 Duffield Street,1727
4,Eilat,(972) (8) 638 3300,Le Méridien Eilat,Israel,"37.8016033,-122.4106233",(972) (8) 638 3333,,88119,2010-06-08T19:01:35,North Beach,1880
2,Lattakia,(963) (41) 428732,Le Méridien Lattakia,Syria,"35.52145,35.7924",(963) (41) 428736,,,2010-06-08T19:18:00,PO Box 473,1892
5,New York,(212) 307-1776,Le Parker Méridien New York,United States,"40.763999,-73.978481",(212) 245-5000,New York,10019,2010-06-08T19:19:12,119 West 56th Street,1909
4,La Jolla,(858) 453-5550,Sheraton La Jolla Hotel,United States,"32.870541,-117.231284",(858) 453-5500,California,92037,2010-06-08T19:20:17,3299 Holiday Court,1959
3,Houston,(713) 622-7025,Aloft Houston by the Galleria,United States,"29.7388883,-95.4712392",(713) 622-7010,Texas,77056,2010-06-08T19:10:18,5415 Westheimer Road,3127
1,Lianyungang,(86)(518) 8119 9998,Four Points by Sheraton Lianyungang,China,"34.6994131,119.3582436",(86)(518) 8119 9999,Jiangsu,222042,2010-06-08T19:12:10,1 Huanghe Road,3202
3,Frankfurt,(49)(69) 6633667,Sheraton Congress Hotel Frankfurt,Germany,"50.07695,8.62754",(49)(69) 66330,,60528,2010-06-08T19:00:22,Lyoner Strasse 44-48,142
2,Edison,(732) 225-0037,Sheraton Edison Hotel Raritan Center,United States,"40.5163807,-74.3395711",(732) 225-8300,New Jersey,08837,2010-06-08T19:06:02,125 Raritan Center Parkway,425
3,Dover,(302) 678-9073,Sheraton Dover Hotel,United States,"39.194963,-75.549717",(302) 678-8500,Delaware,19901,2010-06-08T19:13:41,1570 North DuPont Highway,893
4,Calgary,(403) 266-1300,Sheraton Suites Calgary Eau Claire,Canada,"51.0515349,-114.0700678",(403) 266-7200,Alberta,T2P 5C2,2010-06-08T19:12:12,255 Barclay Parade SW,941
5,St. John,(340) 779-4985,The Westin St. John Resort & Villas,United States,"18.3368114,-64.7280952",(340) 693-8000,Virgin Islands,00831,2010-06-08T19:12:06,P.O. Box 8310,1098
4,Awaji,(81)(799) 74 1100,The Westin Awaji Island Resort and Conference Center,Japan,"34.5503151,134.9964059",(81)(799) 74 1111,Hyogo,656-2301,2010-06-08T19:19:22,2 Yumebutai,1192
5,Mexico City,(52)(55) 5228 1826,The St. Regis Mexico City,Mexico,"19.4257103,-99.1719976",(52)(55) 5228 1818,Federal District ,06500,2010-06-08T19:13:08,Paseo de la Reforma 439,1735
4,Chennai,(91)(44) 2231 4344,Le Royal Méridien Chennai,India,"12.9526143,80.2403348",(91)(44) 2231 4343,Tamil Nadu,600 016,2010-06-08T19:01:06,1 GST Road,1834
4,Shanghai,(86)(21) 5089 2100,"Sheraton Shanghai Hotel & Residences, Pudong",China,"31.209892,121.517791",(86)(21) 5089 9999,Shanghai,200127,2010-06-08T19:24:57,No. 38 Pujian Road,1962
3,Munich,(49)(89) 92324449,Sheraton Munich Arabellapark Hotel,Germany,"48.15149,11.61823",(49)(89) 92320,,81925,2010-06-08T19:19:43,ArabellaStrasse 5,145
3,Bologna,(39)(051) 6415140,Sheraton Bologna Hotel & Conference Center,Italy,"44.5301663,11.2873517",(39)(051) 400056,,40132,2010-06-08T19:13:06,Via dell'Aeroporto 34/36,310
2,Xian,(86)(29) 8426 2188,Sheraton Xian Hotel,China,"34.3054529,108.6851963",(86)(29) 8426 1888,Shaanxi,710077,2010-06-08T18:59:45,No. 262 Feng Hao East Rd,475
3,Guatemala City,(502) 2337-4313,"The Westin Camino Real, Guatemala",Guatemala,"14.6052415,-90.5160117",(502) 2333-3000,,01010,2010-06-08T19:04:18,Avenida la Reforma y 14 Calle,1075
2,Orlando,(407) 345-5249,Four Points by Sheraton Orlando Studio City,United States,"28.463124,-81.461429",(407) 351-2100,Florida,32819,2010-06-08T19:01:24,5905 International Drive,1142
5,Mont Tremblant,(819) 681-8001,"Le Westin Resort & Spa, Tremblant, Quebec",Canada,"46.2127032,-74.58798",(819) 681-8000,Quebec,J8E 1E2,2010-06-08T19:15:04,100 Chemin Kandahar,1197
3,Greensboro,(336) 292-1407,Sheraton Greensboro at Four Seasons,United States,"36.0420609,-79.840659",(336) 292-9161,North Carolina,27407,2010-06-08T19:03:50,3121 High Point Road,1224
4,Milan,(39)(02) 6703024,Four Points by Sheraton Milan Center,Italy,"45.4853959,9.1977388",(39)(02) 667461,,20124,2010-06-08T19:16:02,Via Gerolamo Cardano,1870
3,Montreal,(514) 933 7102,Le Méridien Versailles,Canada,"45.4955117,-73.5826582",(514) 933 8111,Quebec,H3H 1E5,2010-06-08T18:56:16,1808 Sherbrooke Street West,1913
3,Shanghai,(86)(21) 5779 8999,Le Méridien She Shan Shanghai,China,"31.11657,121.36691",(86)(21) 5779 9999,Shanghai,201602,2010-06-08T18:49:10,1288 Linyin Xin Road,1944
5,Napa ,(707) 257-1200,The Westin Verasa Napa,United States,"38.30448,-122.283121",(707) 257-1800,California,94559,2010-06-08T19:19:49,1314 Mckinstry Street ,1997
3,Frisco,(972) 668-8799,Sheraton Stonebriar Hotel,United States,"33.0915348,-96.8237161",(972) 668-8700,Texas,75034,2010-06-08T19:06:16,5444 State Highway 121,3023
5,Turtle Bay,(230) 204 1401,"The Grand Mauritian Resort & Spa, Mauritius",Mauritius,"-20.08169,57.513",(230) 204 1400,,,2010-06-08T18:49:10,Balaclava,3216
3,East Rutherford,(201) 896-9696,Sheraton Meadowlands Hotel & Conference Center,United States,"40.8053886,-74.0797315",(201) 896-0500,New Jersey,07073,2010-06-08T19:13:12,2 Meadowlands Plaza,151
2,Tucson,(520) 325-2989,Sheraton Tucson Hotel & Suites,United States,"32.251676,-110.883347",(520) 323-6262,Arizona,85712,2010-06-08T19:23:18,5151 East Grant Road,177
4,Cairo,(20)(2) 33364601,"Sheraton Cairo Hotel, Towers and Casino",Egypt,"30.0402151,31.2197654",(20)(2) 33369800,,,2010-06-08T19:19:18,Galae Square,386
6,Doha,(974) 4832323,Sheraton Doha Resort & Convention Hotel,Qatar,"25.3014454,51.5184257",(974) 4854444,,,2010-06-08T18:49:32,Al Corniche Street,409
2,Revere,(781) 284-1886,Four Points by Sheraton Boston Logan Airport,United States,"42.428921,-71.015604",(781) 284-7200,Massachusetts,02151,2010-06-08T19:14:25,407 Squire Road,1141
4,Portland,(503) 241-9565,The Westin Portland,United States,"45.5201478,-122.6798617",(503) 294-9000,Oregon,97205,2010-06-08T19:22:01,750 Southwest Alder Street,1189
4,Dubai,(971)(4) 3977333,Four Points by Sheraton Bur Dubai,United Arab Emirates,"25.25,55.3",(971)(4) 3977444,,,2010-06-08T19:14:39,Khalid Bin Walid Street,1230
2,Culver City,(310) 645-7045,Four Points by Sheraton Los Angeles Westside,United States,"33.983801,-118.393854",(310) 641-7740,California,90230,2010-06-08T19:22:16,5990 Green Valley Circle,1257
4,Poznan,(48) (61) 655 2001,Sheraton Poznan Hotel,Poland,"52.4073947,16.9097277",(48) (61) 655 2000,,60-809,2010-06-08T19:11:10,Bukowska 3/9,1778
4,Munich,(49)(89) 2422 2025,Le Méridien Munich,Germany,"48.13866,11.5577",(49)(89) 24220,,80335,2010-06-08T19:08:41,Bayerstrasse 41,1860
2,Dahab,(20)(69) 3640 428,Le Méridien Dahab Resort,Egypt,"28.501,34.5134",(20)(69) 3640 425,,,2010-06-08T19:05:45,PO Box 2,1937
2,Linthicum,(410) 691-9069,Aloft Baltimore Washington International Airport,United States,"39.1957314,-76.6808343",(410) 691-6969,Maryland,21090,2010-06-08T19:14:06,1741 West Nursery Road,3047
3,Rogers,(714) 384-7576,Aloft Rogers-Bentonville,United States,"36.3246284,-94.1863227",(479) 268-6799,Arkansas,72758,2010-06-08T19:25:04,1103 South 52nd Street,3070
5,Mount Pocono,(570) 226-6982,Paradise Stream Resort,United States,"41.120946,-75.377811",(570) 839-8881,Pennsylvania,18344,2010-06-08T19:03:03,Rt 940,152
3,Beijing,(86)(10) 6590 5398,The Great Wall Sheraton Hotel Beijing,China,"39.969239,116.4184712",(86)(10) 6590 5566,Beijing,100125,2010-06-08T19:09:27,"10 North Dong San Huan Road, Chaoyang District",175
3,Langkawi,(60)(4) 952 8050,Sheraton Langkawi Beach Resort,Malaysia,"6.3605556,99.7011111",(60)(4) 952 8000,,07000,2010-06-08T19:10:06,Teluk Nibong,281
4,Bangkok,(66)(2) 649 8000,"Sheraton Grande Sukhumvit, Bangkok",Thailand,"13.7385283,100.5614498",(66)(2) 649 8888,,10110,2010-06-08T19:07:41,250 Sukhumvit Road,357
4,Ottawa,(613) 235-2723,Sheraton Ottawa Hotel,Canada,"45.4208726,-75.6982117",(613) 238-1500,Ontario,K1P 5G2,2010-06-08T18:58:46,150 Albert Street,665
2,Brown Deer,(414) 355-3566,Four Points by Sheraton Milwaukee North,United States,"43.180216,-87.961049",(414) 355-8585,Wisconsin,53209,2010-06-08T19:06:24,8900 North Kildeer Court,949
3,Kansas City,(816) 391-4438,"The Westin Crown Center, Kansas City",United States,"39.0839588,-94.5835314",(816) 474-4400,Missouri,64108,2010-06-08T18:59:18,1 East Pershing Road,1039
2,Edison,(732) 225-0037,Sheraton Edison Hotel Raritan Center,United States,"40.5163807,-74.3395711",(732) 225-8300,New Jersey,08837,2010-06-08T18:59:00,125 Raritan Center Parkway,1137
2,York,(717) 854-0307,Four Points by Sheraton York,United States,"39.984437,-76.727378",(717) 846-4940,Pennsylvania,17402,2010-06-08T19:08:04,1650 Toronita Street,1151
2,Dresden,(49)(351) 8731499,Four Points by Sheraton Königshof,Germany,"51.02766,13.75995",(49)(351) 87310,,01219,2010-06-08T19:11:14,Kreischaer Strasse 2,1304
2,Damascus,(963)(11) 5958022,Sheraton Ma'aret Sednaya Hotel & Resort,Syria,"33.513,36.292",(963)(11) 5958000,,,2010-06-08T19:00:06,Ma'aret Sednaya,1347
3,Mount Laurel,(856) 235-5731,The Westin Mount Laurel,United States,"39.932603,-74.959599",(856) 778-7300,New Jersey,08054,2010-06-08T19:13:23,555 Fellowship Road,1570
3,Shanghai,(86)(21) 5039 5699,"Four Points by Sheraton Shanghai, Pudong",China,"31.1317021,121.4887359",(86)(21) 5039 9999,Shanghai,200127,2010-06-08T19:20:15,2111 Pudong Nan Road,1716
5,Hoboken,(201) 253-2425,W Hoboken,United States,"40.7393326,-74.0281328",(201) 253-2400,New Jersey,07030,2010-06-08T19:09:10,225 River Street,1785
4,Palm Beach,(011)(297) 586 0928,"The Westin Resort, Aruba",Aruba,"12.5505867,-70.0562373",(011)(297) 586 4466,,,2010-06-08T19:23:08,J.E. Irausquin Boulevard 77,1960
3,Harrisburg,(717) 564-2476,Sheraton Harrisburg Hershey Hotel,United States,"40.243621,-76.804247",(717) 564-5511,Pennsylvania,17111,2010-06-08T19:05:43,4650 Lindle Road,1995
3,Atlanta,(404) 564-3001,Sheraton Atlanta Perimeter North Hotel,United States,"33.919612,-84.3607059",(404) 564-3000,Georgia,30328,2010-06-08T19:08:46,800 Hammond Drive,3089
4,Ashburn,(703) 723-9140,Aloft Dulles Airport North,United States,"38.99664,-77.4818849",(703) 723-6969,Virginia,20148,2010-06-08T19:14:02,22390 Flagstaff Plaza,3140
3,Phuket,(66)(76) 614205,"The Westin Siray Bay Resort & Spa, Phuket",Thailand,"7.8860546,98.385532",(66)(76) 335 600,,83000,2010-06-08T19:16:19,21/4 Moo 1 T.Rasada A.Muang,3452
3,Spitzingsee,(49)(8026) 798879,ArabellaSheraton Alpenhotel,Germany,"47.66301,11.88749",(49)(8026) 7980,,83727,2010-06-08T19:13:18,Seeweg 7,157
1,Surabaya,(62)(31) 5467000,Sheraton Surabaya Hotel & Towers,Indonesia,"-7.259979,112.736638",(62)(31) 5468000,East Java,60261,2010-06-08T19:17:38,Jalan Embong Malang  25-31,164
4,Steamboat Springs,(970) 879-7686,Sheraton Steamboat Resort,United States,"40.4590375,-106.805686",(970) 879-2220,Colorado,80477,2010-06-08T19:16:52,2200 Village Inn Court,220
1,Luxor,(20)(95) 227 4941,Sheraton Luxor Resort,Egypt,"32.3182314,-86.902298",(20)(95) 227 4544,,83951,2010-06-08T19:10:00,Al Awameya,402
4,Singapore,(65) 6737 1072,Sheraton Towers Singapore,Singapore,"1.3125,103.83637",(65) 6737 6888,,228230,2010-06-08T19:19:45,39 Scotts Road,471
2,Guilin,(86)(773) 282 5598,Sheraton Guilin Hotel,China,"25.282315,110.303336",(86)(773) 282 5588,Guangxi,541001,2010-06-08T19:08:31,15 Bin Jiang Road,483
3,Philadelphia,(215) 220-4626,Sheraton Suites Philadelphia Airport,United States,"39.8905096,-75.2315997",(215) 365-6600,Pennsylvania,19153,2010-06-08T19:16:58,4101 B Island Avenue,1047
4,Red Sea,(20)(65) 3545-885,Sheraton Soma Bay Resort,Egypt,"19.4556063,35.2148469",(20)(65) 3545-845,,,2010-06-08T19:01:37,P.O. BOX 71,1127
3,Atlanta,(404) 524-1259,Sheraton Atlanta Hotel,United States,"33.759018,-84.383358",(404) 659-6500,Georgia,30303,2010-06-08T19:22:26,165 Courtland Street NE,1144
1,Taipei,(886)(2) 2222 5299,"Four Points by Sheraton Chung Ho, Taipei",Taiwan,"24.994446,121.4970294",(886)(2) 2222 9999,,235,2010-06-08T19:12:24,"631 Chung Cheng Road, Chung Ho City",1372
4,Los Angeles,(213) 488-4110,Sheraton Los Angeles Downtown Hotel,United States,"34.047708,-118.258134",(213) 488-3500,California,90017,2010-06-08T19:12:20,711 South Hope Street,1598
6,Monte Carlo,(377) 93 15 79 46,Le Méridien Beach Plaza,Monaco,"43.7417451,7.430199",(377)(93) 30 98 80,,98000,2010-06-08T18:58:48,22 Avenue Princesse Grace,1921
5,Hong Kong,(852) 3717 2888,W Hong Kong,China,"22.3166667,114.1833333",(852) 3717 2222,Hong Kong,,2010-06-08T18:52:36,"1 Austin Road West, Kowloon Station, Kowloon",1965
2,Foshan,(86)(757) 2288 8888,Sheraton Shunde Hotel,China,"23.03322,113.11656",(86)(757) 2888 8888,Guangdong,528300,2010-06-08T18:49:17,11 Desheng Zhong Road,3191
5,Manchester Village,(802) 362-4861,"The Equinox Golf Resort & Spa, Vermont",United States,"43.161991,-73.072563",(802) 362-4700,Vermont,05254,2010-06-08T19:05:25,3567 Main Street,3382
5,Bengaluru,(91)(80) 2211 9999,"ITC Royal Gardenia, Bengaluru",India,"12.9679371,77.6005681",(91)(80) 2211 9898,Karnataka,560025,2010-06-08T18:50:34,"No 1, Residency Road  ",3526
5,New York,(212) 319-8344,W New York,United States,"40.756149,-73.972321",(212) 755-1200,New York,10022,2010-06-08T19:17:03,541 Lexington Avenue,97502
4,Philadelphia,(215) 238-6652,Sheraton Society Hill Hotel,United States,"39.946297,-75.144188",(215) 238-6000,Pennsylvania,19106,2010-06-08T19:09:52,One Dock Street,166
3,Atlanta,(770) 395-3935,The Westin Atlanta Perimeter North,United States,"33.916135,-84.3532145",(770) 395-3900,Georgia,30328,2010-06-08T19:13:49,7 Concourse Parkway,1022
4,Seattle,(206) 264-6100,W Seattle,United States,"47.607384,-122.333633",(206) 264-6000,Washington,98101,2010-06-08T19:08:58,1112 4th Avenue,1154
3,Chattanooga,(423) 643-1294,The Sheraton Read House Hotel Chattanooga,United States,"35.046429,-85.311113",(423) 266-4121,Tennessee,37402,2010-06-08T19:01:59,827 Broad Street,1474
2,Colon,(507) 447 1111,Four Points by Sheraton Colon,"Panama, Republic of","9.36125,-79.90066",(507) 447 1000,,,2010-06-08T18:49:18,"Millennium Plaza, Av A. Waked",1769
2,Savannah,(912) 629-1515,Four Points by Sheraton Savannah Airport,United States,"32.1403918,-81.2337811",(912) 629-1500,Georgia,31408,2010-06-08T18:56:25,15 Jay R. Turner Drive,1987
4,Muscat,(968)(24) 795791,Sheraton Oman Hotel,Oman,"23.60996,58.59011",(968)(24) 772772,,112,2010-06-08T18:49:18,"P.O. Box 3260, Ruwi",167
4,Stockholm,(46) (8) 4123409,Sheraton Stockholm Hotel,Sweden,"59.3288855,18.0617471",(46) (8) 4123400,,10123,2010-06-08T19:06:00,"Tegelbacken 6, Box 195",298
3,Santiago,(56)(2) 2341729,Sheraton Santiago Hotel and Convention Center,Chile,"-33.4157197,-70.6628305",(56)(2) 2335000,,,2010-06-08T19:26:16,Ave Santa Maria 1742,296
2,Greenwood Village,(303) 799-4828,Sheraton Denver Tech Center Hotel,United States,"39.589485,-104.879862",(303) 799-6200,Colorado,80112,2010-06-08T19:07:55,7007 South Clinton Street,1012
3,Busan,(82)(51) 742 1313,"The Westin Chosun, Busan",South Korea,"35.15542,129.15253",(82)(51) 749 7000,,612-600,2010-06-08T18:49:18,"P.O. Box 29, Haeundae, 737 Woo 1-Dong",1063
3,Cancun,(52)(998) 885 2084,"The Westin Resort & Spa, Cancun",Mexico,"21.1420314,-86.8668695",(52)(998) 848 7400,Quintana Roo,77500,2010-06-08T19:14:45,Boulevard Kukulcan KM 20,1092
4,Morristown,(973) 984-1036,"The Westin Governor Morris, Morristown",United States,"40.798144,-74.458963",(973) 539-7300,New Jersey,07960,2010-06-08T19:02:31,2 Whippany Road,1145
2,Greenwood Village,(303) 799-4828,Sheraton Denver Tech Center Hotel,United States,"39.589485,-104.879862",(303) 799-6200,Colorado,80112,2010-06-08T19:26:39,7007 South Clinton Street,1173
3,Nashville,(615) 231-1136,Sheraton Music City Hotel,United States,"36.144863,-86.683181",(615) 885-2200,Tennessee,37214,2010-06-08T19:21:29,777 McGavock Pike,1236
2,Dornbirn,(43)(5572) 388830,Four Points by Sheraton Panoramahaus Dornbirn,Austria,"47.4121683,9.7136167",(43)(5572) 38880,,A-6850,2010-06-08T18:56:06,Messe Strasse 1,1584
1,Manassas,(703) 361-8440,Four Points by Sheraton Manassas Battlefield,United States,"38.8022761,-77.5183624",(703) 335-0000,Virginia,20109,2010-06-08T19:14:29,10800 Vandor Lane,1730
4,New Delhi,(91)(11) 371 6996,Le Méridien New Delhi,India,"28.6198536,77.2182892",(91)(11) 23710101,New Delhi,,2010-06-08T19:00:45,Windsor Place,1831
5,The Hague,31 (0)70 361 23 50,"Hotel Des Indes, The Hague",Netherlands,"52.0836987,4.3133336",31 (0)70 361 23 45,,2514 EG,2010-06-08T19:16:44,Lange Voorhout 54-56,1924
3,Philadelphia,(215) 496-2715,Four Points by Sheraton Philadelphia City Center,United States,"39.9559349,-75.1591739",(215) 496-2700,Pennsylvania,19107,2010-06-08T19:21:03,1201 Race Street,1980
5,Athens - Vouliagmeni,(30)(210) 8962583,"Arion Resort & Spa, Astir Palace, Athens",Greece,"37.8127499,23.7781571",(30)(210) 8902000,,16671,2010-06-08T19:17:41,40 Apollonos Street - Astir Palace Complex,1984
4,Richmond,(604) 303-6595,"The Westin Wall Centre, Vancouver Airport",Canada,"49.1896454,-123.1347899",(604) 303-6565,British Columbia,V6X 4K3,2010-06-08T19:16:50,3099 Corvette Way,3156
3,Punta Gorda,(941) 637-6775,Four Points by Sheraton Punta Gorda Harborside,United States,"26.938411,-82.052652",(941) 637-6770,Florida,33950,2010-06-08T19:14:50,33 Tamiami Trail,3213
2,Jaipur,(91)(141) 3004699,"Four Points by Sheraton Jaipur, City Square",India,"26.89911,75.81429",(91)(141) 3004600,Rajasthan,302018,2010-06-08T18:49:20,"City Square, Vasundhara Colony",3499
4,Avon,(970) 748-6006,"Sheraton Mountain Vista Villas, Avon / Vail Valley",United States,"39.6369645,-106.5247658",(970) 748-6000,Colorado,81620,2010-06-08T19:14:34,160 Beaver Creek Boulevard West,5635
3,Bangkok,(66)(2) 236 8320,Royal Orchid Sheraton Hotel & Towers,Thailand,"13.7262395,100.5267991",(66)(2) 266 0123,,10500,2010-06-08T19:06:32,2 Charoen Krung Road Soi 30 (Captain Bush Lane),172
4,Baltimore,(410) 962-8211,Sheraton Inner Harbor Hotel,United States,"39.284622,-76.615402",(410) 962-8300,Maryland,21201,2010-06-08T19:10:25,300 South Charles Street,197
4,Port Douglas,(61)(7) 4099 4424,Sheraton Mirage Port Douglas Resort,Australia,"-16.492588,145.464153",(61)(7) 4099 5888,Queensland,4877,2010-06-08T19:23:42,"Davidson Street, P.O. Box 172",370
6,New York,(212) 930-7500,W New York - Times Square,United States,"40.75896,-73.985195",(212) 930-7400,New York,10036,2010-06-08T18:56:19,1567 Broadway,1234
5,Los Cabos,(52)(624) 14 58002 14-58002,"Sheraton Hacienda del Mar Golf & Spa Resort, Los Cabos",Mexico,"26.0444446,-111.6660725",(52)(624) 14 58000,Baja California Sur,23410,2010-06-08T19:14:55,Corredor Turistico KM 10,1298
3,Khao Lak,(66)(76) 427 575,Le Méridien Khao Lak Beach & Spa Resort,Thailand,"8.7443421,98.259469",(66)(76) 427 500,,82190,2010-06-08T19:21:19,9/9 Moo. 1 Tambol Kuk Kak,1847
4,Minneapolis,(612) 215-3705,W Minneapolis - The Foshay,United States,"44.974817,-93.272295",(612) 215-3700,Minnesota,55402,2010-06-08T19:05:19,821 Marquette Avenue,3019
3,Asheville,(828) 252-9205,Four Points by Sheraton Asheville Downtown,United States,"35.5984494,-82.5518429",(828) 253-1851,North Carolina,28801,2010-06-08T19:13:01,22 Woodfin Street,3063
5,Dubai,(00971)(4) 3230343,"Four Points by Sheraton Sheikh Zayed Road, Dubai",United Arab Emirates,"25.1270151,55.2071978",(00971)(4) 3230333,,,2010-06-08T18:56:50,Sheikh Zayed Road,3094
3,Toronto,(416) 675-4022,Sheraton Toronto Airport Hotel & Conference Centre,Canada,"43.6878468,-79.5869117",(416) 675-6100,Ontario,M9W 1J5,2010-06-08T19:21:49,801 Dixon Road,3508
2,Nanjing,(86)(25) 8666 9999,Sheraton Nanjing Kingsley Hotel & Towers,China,"32.04265,118.773901",(86)(25) 8666 8888,Jiangsu,210029,2010-06-08T19:00:47,169 Hanzhong Road,180
1,Bandar,(62)(721) 488777,Sheraton Lampung Hotel,Indonesia,"-5.435912,105.255386",(62)(721) 486666,Lampung,35401,2010-06-08T19:08:27,Jalan Wolter Monginsidi No. 175,278
2,St. Louis,(314) 434-0140,Sheraton Westport Plaza Hotel St. Louis,United States,"38.700202,-90.446477",(314) 878-1500,Missouri,63146,2010-06-08T19:26:19,900 Westport Plaza,804
4,Lake Buena Vista,(407) 934-4499,Walt Disney World Swan,United States,"28.4132865,-81.3385663",(407) 934-3000,Florida,32830,2010-06-08T19:04:26,1200 Epcot Resort Boulevard,1018
2,Metairie,(504) 454-8294,Four Points by Sheraton New Orleans Airport,United States,"30.0056089,-90.2116929",(504) 885-5700,Louisiana,70003,2010-06-08T19:21:28,6401 Veterans Memorial Boulevard,1357
3,Marrakech,(212)(524) 447446,Le Méridien N'Fis,Morocco,"31.61909,-8.00753",(212)(524) 339400,,40000,2010-06-08T18:49:21,Avenue Mohammed VI,1817
4,Tamuning,(671) 649 7034,Sheraton Laguna Guam Resort,United States,"13.49635,144.77086",(671) 646 2222,Guam,96913,2010-06-08T18:49:36,470 Farenholt Avenue,3018
3,Ebene,(230) 403 7201,Four Points by Sheraton Cybercity,Mauritius,"-20.24267,57.48978",(230) 403 7200,,,2010-06-08T18:49:36,"65, Ebene Cybercity",3260
3,Pineville,(704) 540-8385,Four Points by Sheraton Charlotte - Pineville,United States,"35.088785,-80.88076",(704) 540-8500,North Carolina,28134,2010-06-08T19:20:35,9705 Leitner Drive,3299
5,Chicago,(312) 917-5771,W Chicago - City Center,United States,"41.879731,-87.633142",(312) 332-1200,Illinois,60603-3604,2010-06-08T19:23:35,172 West Adams Street,97509
3,Hamilton,(905) 529-8266,Sheraton Hamilton Hotel,Canada,"43.257543,-79.8719992",(905) 529-5515,Ontario,L8P 4V3,2010-06-08T19:02:04,116 King Street West,185
4,New Orleans,(504) 595-5552,Sheraton New Orleans Hotel,United States,"29.951872,-90.067726",(504) 525-2500,Louisiana,70130,2010-06-08T19:02:35,500 Canal Street,353
2,Mars,(724) 776-1115,Four Points by Sheraton Pittsburgh North,United States,"40.667619,-80.095525",(724) 776-6900,Pennsylvania,16046,2010-06-08T19:25:12,910 Sheraton Drive,917
4,Calgary,(403) 233-7471,The Westin Calgary,Canada,"51.0495495,-114.0699894",(403) 266-1611,Alberta,T2P 2S6,2010-06-08T19:22:53,320 4th Avenue SW,1078
4,Puerto Vallarta,(52)(322) 226 1144,"The Westin Resort & Spa, Puerto Vallarta",Mexico,"20.6614756,-105.2517581",(52)(322) 226 1100,Jalisco,48354,2010-06-08T19:18:06,Paseo de la Marina Sur #205,1090
3,Toronto,(416) 766-1278,Four Points by Sheraton Toronto Lakeshore,Canada,"43.6355117,-79.4675403",(416) 766-4392,Ontario,M6S 1A1,2010-06-08T19:05:47,1926 Lake Shore Boulevard West,1243
5,Abu Dhabi,(971)(2) 6666291,"Sheraton Khalidiya Hotel, Abu Dhabi",United Arab Emirates,"24.4666667,54.3666667",(971)(2) 6666220,,,2010-06-08T19:12:35,"Zayed the First Street, Khalidiya Area",1322
6,Dana Point,(949) 234-3201,The St. Regis Monarch Beach,United States,"33.482319,-117.715448",(949) 234-3200,California,92629,2010-06-08T19:14:14,One Monarch Beach Resort,1361
3,Cologne,(49)(221) 1651333,Four Points by Sheraton Central Köln,Germany,"50.94384,6.96022",(49)(221) 16510,,50668,2010-06-08T19:16:18,Breslauer Platz 2,1412
4,New York,(212) 967-8186,Four Points by Sheraton Midtown - Times Square,United States,"40.75639,-73.992368",(212) 967-8585,New York,10018,2010-06-08T18:56:53,326 West 40th Street,1713
2,Cairo,(20)(2) 2291 8591,Le Méridien Heliopolis,Egypt,"30.0984418,31.3473918",(20)(2) 2290 5055,,,2010-06-08T19:20:37,51 El Orouba Street,1808
3,Beltsville,(301) 937-4455,Sheraton Washington North Hotel,United States,"39.047267,-76.934976",(301) 937-4422,Maryland,20705,2010-06-08T18:56:13,4095 Powder Mill Road,2011
2,North Charleston,(843) 744-6108,Sheraton Charleston Airport Hotel,United States,"32.872408,-80.009396",(843) 747-1900,South Carolina,29406,2010-06-08T18:50:23,4770 Goer Drive,2017
3,Chesapeake,(757) 410-9563,Aloft Chesapeake,United States,"36.778054,-76.241555",(757) 410-9562,Virginia,23320,2010-06-08T19:02:38,1454 Crossways Boulevard,3003
3,Aurora,(303) 371-9505,Aloft Denver International Airport,United States,"39.769245,-104.796267",(303) 371-9500,Colorado,80011,2010-06-08T19:09:23,16470 East 40th Circle,3166
6,Kauai,(808) 826-1166,The St. Regis Princeville Resort,United States,"22.220973,-159.496939",(808) 826-9644,Hawaii,96722,2010-06-08T19:02:11,"5520 Ka Haku Road, Princeville",189
2,Dhaka,(880)(2) 8312975,Dhaka Sheraton Hotel,Bangladesh,"23.7426756,90.4002982",(880)(2) 8330001,,1000,2010-06-08T19:08:50,1 Minto Road,200
4,Salzburg,(43) (662) 881776,Sheraton Salzburg Hotel,Austria,"47.8069061,13.0408092",(43) (662) 889990,,5020,2010-06-08T19:28:19,Auerspergstrasse 4,327
2,Greensburg,(724) 834-5640,Four Points by Sheraton Greensburg,United States,"40.305189,-79.510696",(724) 836-6060,Pennsylvania,15601,2010-06-08T19:08:29,100 Sheraton Drive,990
5,Algiers,(213)(21) 377700,Sheraton Club des Pins Resort and Towers,Algeria,"36.78327,3.0498",(213)(21) 377777,,16101,2010-06-08T18:49:41,"Boite Postal 62, Club Des Pins",1160
6,Santorini,(30)(2286) 081798,"Vedema Resort, Santorini",Greece,"36.3931562,25.4615092",(30)(2286) 081796,,84700,2010-06-08T19:12:16,Megalohori,1288
2,Monclova,(52)(866) 632 0025,Four Points by Sheraton Monclova,Mexico,"26.9183977,-101.4246696",(52)(866) 632 0025,Coahuila,,2010-06-08T18:59:51,Boulevard Harold R. Pape 200,1384
4,Dhaka,(880)(2) 9896661,The Westin Dhaka,Bangladesh,"23.71136,90.39776",(880)(2) 9891988,,1212,2010-06-08T18:49:41,Main Gulshan Avenue,1394
3,Bangkok,(66)(2) 255 2441,"The Westin Grande Sukhumvit, Bangkok",Thailand,"13.7385283,100.5614498",(66)(2) 207 8000,,10110,2010-06-08T19:06:43,259 Sukhumvit Road,1446
4,San Diego,(619) 696-1555,Sheraton Suites San Diego at Symphony Hall,United States,"32.718389,-117.157901",(619) 696-9800,California,92101,2010-06-08T18:58:28,701 A Street,2003
5,Prague,(420) 225 999 909,Sheraton Prague Charles Square Hotel,Czech Republic,"50.0774323,14.4224589",(420) 225 999 999,,120 00,2010-06-08T19:08:13,Zitna 8 ,3268
4,Rhodes,(30)(22410) 76690,Sheraton Rhodes Resort,Greece,"36.443235,28.227007",(30)(22410) 75000,,85100,2010-06-08T19:06:38,Ialyssos Avenue,3555
6,Washington,(202) 638-4231,"The St. Regis Washington, D.C.",United States,"38.902529,-77.0365336",(202) 638-2626,District of Columbia,20006,2010-06-08T19:10:21,"923 16th and K Streets, N.W.",193
4,Perth,(61)(8) 9224 7788,Sheraton Perth Hotel,Australia,"-31.95909,115.868243",(61)(8) 9224 7777,Western Australia,6000,2010-06-08T19:12:39,207 Adelaide Terrace,240
6,Honolulu,(808) 931-7098,"The Royal Hawaiian, Waikiki",United States,"21.279037,-157.829032",(808) 923-7311,Hawaii,96815,2010-06-08T19:15:20,2259 Kalakaua Avenue,376
3,Kingston,(613) 548-1782,Four Points by Sheraton Kingston,Canada,"44.2295922,-76.4818752",(613) 544-4434,Ontario,K7L 3B1,2010-06-08T19:10:59,285 King Street East,749
2,Madison,(608) 251-1189,Sheraton Madison Hotel,United States,"43.0468582,-89.3742934",(608) 251-2300,Wisconsin,53713,2010-06-08T19:26:57,706 John Nolen Drive,759
3,Eatontown,(732) 542-6607,Sheraton Eatontown Hotel,United States,"40.275728,-74.043689",(732) 542-6500,New Jersey,07724,2010-06-08T19:08:11,6 Industrial Way East,951
3,Greenville,(864) 421-0460,"The Westin Poinsett, Greenville",United States,"34.849446,-82.400803",(864) 421-9700,South Carolina,29601,2010-06-08T19:09:56,120 South Main Street,1255
3,Maspalomas,(34)(928) 943 010,Sheraton Salobre Golf Resort & Spa,Spain,"27.7741924,-15.5320505",(34)(928) 943 000,Canary Islands,35100,2010-06-08T19:24:41,Urbanizacion Salobre Golf SN,1468
4,Kuwait City,(965) 2244 9106,Four Points by Sheraton Kuwait,Kuwait,"29.33175,47.97169",(965) 1835 555,,13060,2010-06-08T18:49:42,"Safat 13058, Fahd Al Salem Street",1480
4,Boston,(617) 532-4630,The Westin Boston Waterfront,United States,"42.3461861,-71.0432362",(617) 532-4600,Massachusetts,02210,2010-06-08T19:00:32,425 Summer Street,1528
4,Oran,(213)(41) 590101,Sheraton Oran Hotel & Towers,Algeria,"35.7125888,-0.6160069",(213)(41) 590100,,,2010-06-08T19:12:22,Route des Falaises Avenue Canastel,1572
4,Minneapolis,(612) 333-4007,The Westin Minneapolis,United States,"44.9774114,-93.2703181",(612) 333-4006,Minnesota,55402-1114,2010-06-08T19:10:39,88 South 6th Street,1723
4,Mumbai,(91)(22) 2838 0101,Le Royal Méridien Mumbai,India,"19.0951779,72.8533271",(91)(22) 2838 0000,Maharashtra,400 099,2010-06-08T19:16:41,Sahar Airport Road,1830
3,Prince George,(250) 564-7199,Four Points by Sheraton Prince George,Canada,"53.94042,-122.760707",(250) 564-7100,British Columbia,V2L 5L3,2010-06-08T19:07:16,1790 Highway 97 South,1994
3,Charlotte,(704) 333-0699,Aloft Charlotte Uptown at the EpiCentre,United States,"35.225324,-80.842187",(704) 333-1999,North Carolina,28202,2010-06-08T19:08:21,210  East Trade Street,3007
3,Houston,(281) 501-4205,Sheraton Houston West Hotel,United States,"29.831285,-95.560613",(281) 501-4200,Texas,77041,2010-06-08T18:58:57,11191 Clay Road,3107
4,Albufeira,(351)(289) 501950,"Sheraton Algarve Hotel, Albufeira",Portugal,"37.0889909,-8.2522825",(351)(289) 500100,,8200,2010-06-08T19:02:44,"Praia da Falesia, Apartado P.O. Box 644",199
3,Atlantic City,(609) 441-2999,Sheraton Atlantic City Convention Center Hotel,United States,"39.3775792,-74.4701475",(609) 344-3535,New Jersey,08401,2010-06-08T19:21:35,Two Convention Boulevard,270
4,Tianjin,(86)(22) 2335 8740,Sheraton Tianjin Hotel,China,"39.0772,117.1996174",(86)(22) 2731 3388,Tianjin,300074,2010-06-08T19:00:03,"Zi Jin Shan Road, He Xi District",384
3,Catania,(39)(095) 271380,Sheraton Catania Hotel & Conference Center,Italy,"37.5355967,15.080982",(39)(095) 7114111,,95021,2010-06-08T19:05:55,"Via Antonello da Messina, 45",442
5,Chicago,(312) 527-2650,The Westin Chicago River North,United States,"41.888233,-87.63014",(312) 744-1900,Illinois,60654,2010-06-08T19:15:28,320 North Dearborn Street,1031
4,Atlanta,(770) 399-5514,W Atlanta - Perimeter,United States,"33.927373,-84.338522",(770) 396-6800,Georgia,30346,2010-06-08T18:56:41,111 Perimeter Center West,1114
5,Maui,(808) 667-3201,The Westin Ka'anapali Ocean Resort Villas,United States,"20.937563,-156.690831",(808) 667-3200,Hawaii,96761,2010-06-08T19:27:56,6 Kai Ala Drive,1406
4,Rio de Janeiro,(55)(21) 3139 8085,Sheraton Barra Hotel & Suites,Brazil,"-23.01114,-43.3269242",(55)(21) 3139 8000,Rio De Janeiro,22630-010,2010-06-08T18:55:42,Avenida Lucio Costa 3150,1452
4,Annapolis,(410) 972-4301,The Westin Annapolis,United States,"38.9765612,-76.5045691",(410) 972-4300,Maryland,21401,2010-06-08T18:58:45,100 Westgate Circle,1573
3,Edina,(952) 567-5010,The Westin Edina Galleria,United States,"44.877745,-93.3226894",(952) 567-5000,Minnesota,55435,2010-06-08T19:12:00,3201 Galleria,1799
6,Abu Dhabi,(971)(2) 644 0348,Le Méridien Abu Dhabi,United Arab Emirates,"24.4825444,54.3563932",(971)(2) 644 6666,,46066,2010-06-08T19:11:16,Tourist Club Area,1899
3,St Julians,(356) 2311 0001,Le Méridien St. Julians Hotel & Spa,Malta,"35.91401,14.49316",(356) 2311 0000,,STJ 15,2010-06-08T18:49:46,39 Main Street,1947
3,Hanover,(443) 577-0238,Element Arundel Mills,United States,"39.1559079,-76.717214",(443) 577-0050,Maryland,21076,2010-06-08T18:59:23,7522 Teague Road,3051
2,Houston,(281) 501-4605,"Four Points by Sheraton Houston, Memorial City",United States,"29.782708,-95.562042",(281) 501-4600,Texas,77024,2010-06-08T19:22:34,10655 Katy Freeway,3109
4,Mumbai,(91)(22) 6147 0101,The Westin Mumbai Garden City,India,"19.17226,72.86058",(91)(22) 6147 0000,Maharashtra,400063,2010-06-08T18:49:46,"International Business Park, Oberoi Garden City",3314
4,San Jose,(408) 282-8850,Four Points by Sheraton San Jose Downtown,United States,"37.332167,-121.887994",(408) 282-8800,California,95113,2010-06-08T19:14:20,211 S. First Street,3510
3,Warsaw,(48)(22) 450 6200,Sheraton Warsaw Hotel,Poland,"52.2279257,21.024925",(48)(22) 450 6100,,00-493,2010-06-08T19:17:26,Ul. B. Prusa 2,201
3,Casablanca,(212)(522) 439433,Sheraton Casablanca Hotel & Towers,Morocco,"33.5568457,-7.5822433",(212)(522) 439494,,20000,2010-06-08T19:17:16,"100, Avenue des F.A.R.",307
1,Oklahoma City,(405) 682-9090,Four Points by Sheraton Oklahoma City Airport,United States,"35.403064,-97.595836",(405) 681-3500,Oklahoma,73159,2010-06-08T19:02:51,6300 East Terminal Drive,653
4,Key West,(305) 294-6009,Sheraton Suites Key West,United States,"24.5526519,-81.7722469",(305) 292-9800,Florida,33040,2010-06-08T19:17:35,2001 South Roosevelt Boulevard,760
2,Schiller Park,(847) 671-0371,Four Points by Sheraton Chicago O'Hare Airport,United States,"41.9559987,-87.8825171",(847) 671-6000,Illinois,60176,2010-06-08T18:58:16,10249 West Irving Park Road,849
4,Clearwater Beach,(727) 596-8488,Sheraton Sand Key Resort,United States,"27.955896,-82.8292",(727) 595-1611,Florida,33767,2010-06-08T19:16:12,1160 Gulf Blvd.,914
4,Washington,(202) 349-2215,Four Points by Sheraton Washington D.C. Downtown,United States,"38.902918,-77.0285509",(202) 289-7600,District of Columbia,20005,2010-06-08T18:56:10,1201 K Street N.W.,1237
3,Thorold,(905) 984-6691,Four Points by Sheraton St. Catharines Niagara Suites,Canada,"43.117306,-79.2402315",(905) 984-8484,Ontario,L2V 4Y6,2010-06-08T19:21:25,3530 Schmon Parkway,1355
5,Sanya,(86)(898) 8855 8866,Sheraton Sanya Resort,China,"18.26043,109.61008",(86)(898) 8855 8855,Hainan,572000,2010-06-08T18:49:48,Yalong Bay National Resort District,1447
3,Plainview,(516) 694-4718,Four Points by Sheraton Plainview Long Island,United States,"40.784807,-73.446445",(516) 694-6500,New York,11803,2010-06-08T19:00:34,333 South Service Road,1476
6,San Francisco,(415) 284-4100,The St. Regis San Francisco,United States,"37.7860196,-122.4017062",(415) 284-4000,California,94103,2010-06-08T19:28:22,125 3rd Street,1511
2,Cali,(57) (2) 685 9990,Four Points by Sheraton Cali,Colombia,"3.4499834,-76.5364453",(57) (2) 685 9999,,,2010-06-08T19:29:57,Cali 18 North No. 4 N-08,1554
3,Rockville,(240) 912-8205,Sheraton Rockville Hotel,United States,"39.109478,-77.183601",(240) 912-8200,Maryland,20850,2010-06-08T19:09:29,920 King Farm Boulevard,1589
2,Changsha,(86)(731) 84888889,Sheraton Changsha Hotel,China,"28.21604,112.98769",(86)(731) 84888888,Hunan,410005,2010-06-08T18:49:49,Yunda International Plaza,1705
4,St. Maarten,(599) 543 6004,"The Westin Dawn Beach Resort & Spa, St. Maarten",St. Maarten,"18.0543305,-63.0285752",(599) 543 6700,,,2010-06-08T19:03:43,144 Oyster Pond Road,1770
3,Bangkok,(66)(2) 650 8500,"Plaza Athénée Bangkok, A Royal Méridien Hotel",Thailand,"13.7234186,100.4762319",(66)(2) 650 8800,,,2010-06-08T19:11:44,Wireless Road,1846
4,Nouméa,(687) 265100,Le Méridien Nouméa,New Caledonia,"-22.2666,166.45008",(687) 265000,,98846,2010-06-08T18:49:49,Pointe Magnin,1842
4,Huizhou,(86)(752) 832 8999,Sheraton Huizhou Beach Resort,China,"23.1044,114.40068",(86)(752) 832 8888,Guangdong,516367,2010-06-08T18:49:49,"1 Jinhai Lu, Xunliao Bay",3010
5,Lagos,To be Announced,Four Points by Sheraton Lagos,Nigeria,"6.4530556,3.3958333",To be Announced,Lagos,,2010-06-08T19:08:35,"Plot 9/10, Block 2, Oniru Chieftaincy Estate",3188
2,Cleveland,(216) 265-3177,Sheraton Cleveland Airport Hotel,United States,"41.4112465,-81.833574",(216) 267-1500,Ohio,44135,2010-06-08T19:09:36,5300 Riverside Drive,205
4,Honolulu,(808) 931-4577,Sheraton Princess Kaiulani,United States,"21.2774949,-157.825737",(808) 922-5811,Hawaii,96815,2010-06-08T19:09:06,120 Kaiulani Ave,380
3,Dresden,(49)(351) 8051609,"The Westin Bellevue, Dresden",Germany,"51.05839,13.73923",(49)(351) 8050,,01097,2010-06-08T19:15:31,Grosse Meissner Strasse 15,1106
4,San Antonio,(210) 444-6000,"The Westin Riverwalk, San Antonio",United States,"29.423388,-98.490731",(210) 224-6500,Texas,78205,2010-06-08T19:09:21,420 W Market Street,1167
3,Buenos Aires,(54)(11) 4322 9703,Sheraton Libertador Hotel,Argentina,"-34.5988234,-58.3766547",(54)(11) 4321 0000,Buenos Aires,1054,2010-06-08T19:04:22,Avenida Cordoba 690,1195
2,San Rafael,(415) 479-2342,Four Points by Sheraton San Rafael,United States,"38.009008,-122.543556",(415) 479-8800,California,94903,2010-06-08T19:04:52,1010 Northgate Drive,1260
2,Geelong,(61)(3) 5223 3417,Four Points by Sheraton Geelong,Australia,"-38.145004,144.363622",(61)(3) 5223 1377,Victoria,3220,2010-06-08T19:09:44,10-14 Eastern Beach Road,1302
3,Sydney,(61)(2) 9290 4040,"Four Points by Sheraton Sydney, Darling Harbour",Australia,"-33.870027,151.203257",(61)(2) 9290 4000,New South Wales,2000,2010-06-08T19:06:14,161 Sussex Street,1305
4,Hanoi,(84)(4) 3719 9001,Sheraton Hanoi Hotel,Vietnam,"21.0558567,105.8290298",(84)(4) 3719 9000,,,2010-06-08T19:25:33,"K5 Nghi Tam, 11 Xuan Dieu Road",1484
5,Port Harcourt,(234)(84) 461 771,Le Méridien Ogeyi Place,Nigeria,"4.8240042,6.9946589",(234)(84) 461 770,Rivers State,,2010-06-08T19:11:30,45 Tombia Street,1818
3,Kuala Lumpur,(60)(3) 2263 7222,Le Méridien Kuala Lumpur,Malaysia,"3.1340885,101.6866958",(60)(3) 2263 7888,,50470,2010-06-08T19:19:40,2 Jalan Stesen Sentral,1840
4,Phuket,(66)(76) 340 479,Le Méridien Phuket Beach Resort,Thailand,"7.8391582,98.3033694",(66)(76) 370 100,,83100,2010-06-08T19:00:52,"29 Soi Karon Nui, Tambon Karon",1848
6,Dubai,(971)(4) 3176980,"Grosvenor House, Dubai",United Arab Emirates,"25.270179,55.3238",(971)(4) 3998888,,,2010-06-08T19:03:32,Al Sofouh Road,1898
4,Jersey City,(201) 626-2925,The Westin Jersey City Newport,United States,"40.724608,-74.036007",(201) 626-2900,New Jersey,07310,2010-06-08T19:03:36,479 Washington Boulevard,3049
4,Montreal,(514) 380-3465,Le Westin Montreal,Canada,"45.5032465,-73.5603154",(514) 380-3333,Quebec,H2Y 0A3,2010-06-08T19:20:09,270 Saint-Antoine Ouest,3313
2,Chongqing,(86)(23) 8638 6666,"Le Méridien Chongqing, Nan'an",China,"29.5396923,106.5637674",(86)(23) 8638 8888,Chongqing,400060,2010-06-08T19:03:12,10 Jiangnan Avenue,3446
4,St. John's,(709) 726-2025,Sheraton Hotel Newfoundland,Canada,"47.5712312,-52.7016857",(709) 726-4980,Newfoundland and Labrador,A1C 3K2,2010-06-08T19:06:56,115 Cavendish Square,3455
3,Bangor,(207) 941-9761,Four Points by Sheraton Bangor Airport,United States,"44.808495,-68.8160588",(207) 947-6721,Maine,04401,2010-06-08T19:12:30,308 Godfrey Blvd.,212
5,Riyadh,(966)(1) 4541889,Sheraton Riyadh Hotel & Towers,Saudi Arabia,"24.727567,46.664716",(966)(1) 4543300,,11623,2010-06-08T18:49:54,Olaya Junction of King Fahad and King Abdullah Road,225
3,Dallas,(972) 991-4557,"The Westin Park Central, Dallas",United States,"32.921918,-96.771333",(972) 385-3000,Texas,75251,2010-06-08T19:06:26,12720 Merit Drive,472
2,Sana'a,(967)(1) 251521,Sheraton Sana'a Hotel,Yemen,"15.352029,44.207456",(967)(1) 237500,,,2010-06-08T19:08:43,P.O. Box 2467,491
3,Iowa City,(319) 337-9045,Sheraton Iowa City Hotel,United States,"41.6586,-91.533",(319) 337-4058,Iowa,52240,2010-06-08T19:08:56,210 S Dubuque Street,1282
3,Warsaw,(48)(22) 450 8111,The Westin Warsaw,Poland,"52.2354049,20.9968348",(48)(22) 450 8000,,00-854,2010-06-08T19:23:56,Al. Jana Pawla II 21,1437
2,Cocoa Beach,(321) 783-8719,Four Points by Sheraton Cocoa Beach,United States,"28.355521,-80.607713",(321) 783-8717,Florida,32931,2010-06-08T19:14:52,4001 N. Atlantic Avenue,1515
4,New Orleans,(504) 553-5120,The Westin New Orleans Canal Place,United States,"29.951359,-90.0646715",(504) 566-7006,Louisiana,70130,2010-06-08T19:10:09,100 Rue Iberville,1763
3,Levis,(418) 830-0549,Four Points by Sheraton Lévis Convention Centre,Canada,"46.790729,-71.162987",(418) 838-0025,Quebec,G6V 0B3,2010-06-08T19:05:40,5800 Rue J. B. Michaud,1775
5,London,(44)(207) 437 3574,Le Méridien Piccadilly,United Kingdom,"51.5097906,-0.1348459",(44)(207) 734 8000,England,W1J 0BH,2010-06-08T19:00:55,21 Piccadilly,1925
4,San Francisco,(415) 543-8268,The Westin San Francisco Market Street,United States,"37.786695,-122.402812",(415) 974-6400,California,94103,2010-06-08T19:13:20,50 Third Street,1981
4,Avon,(970) 790-5555,"The Westin Riverfront Mountain Villas, Beaver Creek Mountain",United States,"39.633467,-106.525345",(970) 790-3000,Colorado,81620,2010-06-08T19:17:00,218 Riverfront Lane,5656
4,Jeddah,(966)(2) 6992660,Sheraton Jeddah Hotel,Saudi Arabia,"21.6364348,39.1028213",(966)(2) 6992212,,21424,2010-06-08T19:06:48,North Corniche,224
3,Buenos Aires,(54)(11) 43189346,Sheraton Buenos Aires Hotel & Convention Center,Argentina,"-34.607374,-58.447068",(54)(11) 43189000,Buenos Aires,1104,2010-06-08T19:21:08,San Martin 1225/1275,260
4,Phuket,(66)(76) 324 108,"Sheraton Grande Laguna, Phuket",Thailand,"8.0707888,98.3307468",(66)(76) 324 101,,83110,2010-06-08T19:09:33,"10 Moo 4, Srisoonthorn Road",489
3,Syracuse,(315) 475-3311,Sheraton Syracuse University Hotel & Conference Center,United States,"43.040995,-76.134439",(315) 475-3000,New York,13210,2010-06-08T19:05:56,801 University Avenue,813
3,Hauppauge,(631) 231-1143,Sheraton Long Island Hotel,United States,"40.806825,-73.263999",(631) 231-1100,New York,11788,2010-06-08T19:15:44,110 Motor Parkway,855
4,Hannover,(49)(511) 9093555,Sheraton Pelikan Hotel Hanover,Germany,"52.3985508,9.7702864",(49)(511) 90930,,D-30177,2010-06-08T18:56:12,Pelikanplatz 31,1117
5,San Francisco,(415) 817-7823,W San Francisco,United States,"37.785182,-122.400484",(415) 777-5300,California,94103,2010-06-08T19:18:30,181 3rd Street,1153
3,Santiago,(56)(2) 7500350,Four Points by Sheraton Santiago,Chile,"-33.4203603,-70.6097582",(56)(2) 7500300,,,2010-06-08T19:18:09,Santa Magdalena No. 111,1294
3,Linthicum,(443) 577-2301,The Westin Baltimore Washington Airport - BWI,United States,"39.20681,-76.693664",(443) 577-2300,Maryland,21090,2010-06-08T19:07:36,1110 Old Elkridge Landing Road,1508
1,Kansas City,(816) 464-2543,Four Points by Sheraton Kansas City Airport,United States,"39.309745,-94.68366",(816) 464-2345,Missouri,64153,2010-06-08T19:01:51,11832 NW Plaza Circle,1567
3,Durham,(919) 806-8233,Four Points by Sheraton Durham at Southpoint,United States,"35.901497,-78.9584959",(919) 806-8200,North Carolina,27713,2010-06-08T19:01:13,7807 Leonardo Drive,1712
3,Hanover,(443) 577-0237,Aloft Arundel Mills,United States,"39.1555789,-76.7157787",(443) 577-0077,Maryland,21076,2010-06-08T19:13:59,7520 Teague Road,3050
4,Avon,(970) 748-6006,"Sheraton Mountain Vista Villas, Avon / Vail Valley",United States,"39.6369645,-106.5247658",(970) 748-6000,Colorado,81620,2010-06-08T19:06:57,160 Beaver Creek Boulevard West,5624
4,Mexico City,(52)(55) 5258 8501,"Sheraton Suites Santa Fe, Mexico City",Mexico,"19.3665569,-99.2638312",(52)(55) 5258 8500,Federal District ,01210,2010-06-08T19:11:34,Guillermo Gonzalez Camarena St #200,238
6,Aspen,(970) 925-8998,The St. Regis Aspen Resort,United States,"39.1872894,-106.8214338",(970) 920-3300,Colorado,81611,2010-06-08T19:07:26,315 East Dean Street,244
4,New Delhi,(91)(11) 26113333,"ITC Maurya, New Delhi",India,"28.5898774,77.2134965",(91)(11) 26112233,New Delhi,110 021,2010-06-08T19:20:12,Diplomatic Enclave,423
4,Edinburgh,(44)(131) 228 4510,"Sheraton Grand Hotel & Spa, Edinburgh",United Kingdom,"55.947072,-3.207616",(44)(131) 229 9131,Scotland,EH3 9SR,2010-06-08T19:06:52,1 Festival Square,474
3,Nadi,(679) 675 0818,Sheraton Fiji Resort,Fiji,"-17.760045,177.363082",(679) 675 0777,,,2010-06-08T19:26:43,Denarau Island South,485
4,Melbourne,(61)(3) 9635 2122,The Westin Melbourne,Australia,"-37.815446,144.967346",(61)(3) 9635 2222,Victoria,3000,2010-06-08T19:12:46,205 Collins Street,1185
2,Los Angeles,(310) 649-7047,Four Points by Sheraton Los Angeles International Airport,United States,"33.9483279,-118.384052",(310) 645-4600,California,90045,2010-06-08T19:23:34,9750 Airport Boulevard,1223
4,Miyazaki,(81)(985) 21 1144,Sheraton Grande Ocean Resort,Japan,"31.950867,131.470031",(81)(985) 21 1133,Miyazaki,880-8545,2010-06-08T18:58:41,"Hamayama, Yamasaki-cho",1422
2,Shenzhen,(86)(755) 8359 2988,Four Points by Sheraton Shenzhen,China,"22.5110968,114.0608687",(86)(755) 8359 9999,Guangdong,518038,2010-06-08T19:15:42,5 Guihua Road,1489
3,Humacao,(787) 850-6001,Four Points by Sheraton Resort & Casino at Palmas Del Mar,United States,"18.15166,-65.82791",(787) 850-6000,Puerto Rico,00791,2010-06-08T18:50:00,170 Candelero Drive,1547
4,Memphis,(901) 334-5901,The Westin Memphis Beale Street,United States,"35.138807,-90.052722",(901) 334-5900,Tennessee,38103,2010-06-08T19:20:38,170 Lt. George W. Lee Avenue,1563
4,Stuttgart,(49)(711) 2221 2599,Le Méridien Stuttgart,Germany,"48.78402,9.18901",(49)(711) 2221 0,,70173,2010-06-08T19:10:02,Willy-Brandt-Strasse 30,1866
2,Rome,(39)(06) 50834701,Four Points by Sheraton Roma West Hotel,Italy,"41.7805024,12.4395886",(39)(06) 50834111,,00128,2010-06-08T19:03:08,"Viale degli Eroi di Cefalonia, 301",1872
2,Dallas,(972) 385-3156,Sheraton Dallas North Hotel,United States,"32.9261054,-96.826246",(972) 661-3600,Texas,75244,2010-06-08T19:17:24,4801 Lyndon B. Johnson Freeway,1991
1,Zhoushan,(86)(580) 2088889,Sheraton Zhoushan Hotel,China,"30.7146689,122.4521358",(86)(580) 2088888,Zhejiang,,2010-06-08T19:07:06,Qian Dao Road,3157
4,National Harbor,(301) 749-9001,Aloft Washington National Harbor,United States,"38.7843489,-77.0161975",(301) 749-9000,Maryland,20745,2010-06-08T19:22:37,156 Waterfront Street,3284
4,Nusa Dua,(62)(361) 771326,"The Laguna Resort & Spa, Nusa Dua, Bali",Indonesia,"-8.79348,115.22843",(62)(361) 771327,Bali,80363,2010-06-08T18:50:01,Kawasan Pariwisata Nusa Dua Lot N2,277
4,St. Julians,(356)(21) 381347,"The Westin Dragonara Resort, Malta",Malta,"35.92515,14.49249",(356)(21) 381000,,STJ 02,2010-06-08T18:50:01,Dragonara Road,1107
3,Minnetonka,(952) 544-2090,Sheraton Minneapolis West Hotel,United States,"44.9669459,-93.4329025",(952) 593-0000,Minnesota,55305,2010-06-08T19:05:22,12201 Ridgedale Drive,1324
3,Jeffersonville,(812) 283-3686,Sheraton Louisville Riverside Hotel,United States,"38.269075,-85.748337",(812) 284-6711,Indiana,47130,2010-06-08T19:17:28,700 West Riverside Drive,3115
3,Dallas,(214) 303-4291,Sheraton Dallas Hotel,United States,"32.784677,-96.794679",(214) 922-8000,Texas,75201,2010-06-08T19:05:11,400 North Olive Street,3207
2,Antalya,(90)(242) 249 4900,"Sheraton Voyager Antalya Hotel, Resort & Spa",Turkey,"36.658477,30.555285",(90)(242) 249 4949,,07050,2010-06-08T18:58:36,Sakip Sabanci Bulvari ,289
4,San Francisco,(415) 956-5275,Sheraton Fisherman's Wharf Hotel,United States,"37.806567,-122.41377",(415) 362-5500,California,94133,2010-06-08T19:03:29,2500 Mason Street,315
2,Plateau de Serpent,(253) 328888,Sheraton Djibouti Hotel,Djibouti,"11.588,43.145",(253) 328000,,,2010-06-08T19:01:29,BP 1924,466
2,Albuquerque,(505) 881-3736,Sheraton Albuquerque Uptown,United States,"35.110376,-106.567713",(505) 881-0000,New Mexico,87110,2010-06-08T19:14:10,2600 Louisiana Boulevard NE,713
4,Calgary,(403) 291-2834,Sheraton Cavalier Calgary Hotel,Canada,"51.081554,-113.999471",(403) 291-0107,Alberta,T1Y 6B8,2010-06-08T19:05:00,2620 32nd Avenue NE,925
4,Dallas,(972) 851-2869,The Westin Galleria Dallas,United States,"32.929999,-96.820424",(972) 934-9494,Texas,75240,2010-06-08T19:08:01,13340 Dallas Parkway,1052
3,Newark,(510) 794-3001,W Silicon Valley,United States,"37.536243,-122.063036",(510) 494-8800,California,94560,2010-06-08T19:28:32,8200 Gateway Boulevard,1300
4,Adeje Tenerife,(34)(922) 162 010,"Sheraton La Caleta Resort & Spa, Costa Adeje, Tenerife",Spain,"28.0956937,-16.7458191",(34)(922) 162 000,,38670,2010-06-08T19:24:17,"C/ La Enramada, 9",1467
2,West Des Moines,(515) 223-0894,Sheraton West Des Moines Hotel,United States,"41.599286,-93.771508",(515) 223-1800,Iowa,50266,2010-06-08T19:12:55,1800 50th Street,1557
7,Punta de Mita,(52)(329) 291 5801,The St. Regis Punta Mita Resort,Mexico,"20.7693,-105.5381",(52)(329) 291 5800,Nayarit,63734,2010-06-08T18:50:05,Lote H-4,1734
4,Cologne,(49)(221) 2024444,Dom Hotel,Germany,"50.9404804,6.9565521",(49)(221) 20240,,50667,2010-06-08T19:15:06,Domkloster 2a,1855
2,Greenwood Village,(303) 799-4828,Sheraton Denver Tech Center Hotel,United States,"39.589485,-104.879862",(303) 799-6200,Colorado,80112,2010-06-08T19:13:16,7007 South Clinton Street,3205
3,Calgary,(403) 288-4442,Four Points by Sheraton Hotel & Suites Calgary West,Canada,"51.0834434,-114.2069388",(403) 288-4441,Alberta,T3B 2V1,2010-06-08T19:09:40,8220 Bowridge Crescent NW,304
6,London,(44)(207) 2358231,"Sheraton Park Tower, London",United Kingdom,"51.5016611,-0.1612742",(44)(207) 2358050,England,SW1X 7RN,2010-06-08T19:15:56,101 Knightsbridge,412
2,Ventura,(805) 658-6347,Four Points by Sheraton Ventura Harbor,United States,"34.2488035,-119.2592278",(805) 658-1212,California,93001,2010-06-08T19:04:48,1050 Schooner Drive,752
3,Kobe,(81)(78) 857 7001,Kobe Bay Sheraton Hotel & Towers,Japan,"34.6865736,135.2700642",(81)(78) 857 7000,Hyogo,658-0032,2010-06-08T19:10:37,2-13 Koyocho-naka,772
5,Grand Cayman,(345) 949 5825,"The Westin Casuarina Resort & Spa, Grand Cayman",Cayman Islands,"19.3436184,-81.3950916",(345) 945 3800,,,2010-06-08T19:19:10,Seven Mile Beach,1095
5,Helsinki,(358)(9) 5761122,"Hotel Kämp, Helsinki",Finland,"60.167659,24.9424467",(358)(9) 576111,,00100,2010-06-08T19:10:54,"Pohjoisesplanadi, 29",1157
7,Mykonos,(30)(22890) 23412,"Santa Marina Resort & Villas, Mykonos",Greece,"37.446389,25.32855",(30)(22890) 23220,,84600,2010-06-08T19:01:22,Ornos Bay,1194
4,Jeddah,(966)(2) 6588550,The Westin Jeddah,Saudi Arabia,"21.6364348,39.1028213",(966)(2) 6588200,,21553,2010-06-08T19:09:19,North Courniche,1279
2,Richmond,(804) 288-3961,Sheraton Richmond West Hotel,United States,"37.603318,-77.512515",(804) 285-2000,Virginia,23230,2010-06-08T18:59:28,6624 West Broad Street,1334
2,Bolzano-Bozen,(39)(0471) 1950999,Four Points by Sheraton Bolzano,Italy,"46.4718711,11.324624",(39)(0471) 1950000,,39100,2010-06-08T18:58:55,"Via Bruno Buozzi, 35",1462
4,Sebring,(863) 655-6303,"Four Points by Sheraton Sebring, Château Élan",United States,"27.451604,-81.358744",(863) 655-7200,Florida,33870,2010-06-08T19:04:57,150 Midway Drive,1731
3,Baltimore,(410) 385-6865,Sheraton Baltimore City Center Hotel,United States,"39.289893,-76.617106",(410) 752-1100,Maryland,21201,2010-06-08T19:09:42,101 West Fayette Street,1765
2,Duluth,(218) 733-5650,Sheraton Duluth Hotel,United States,"46.7901426,-92.0944754",(218) 733-5660,Minnesota,55802,2010-06-08T19:06:59,301 East Superior Street,1774
5,Athens - Vouliagmeni,(30)(210) 8963281,The Westin Athens Astir Palace Beach Resort,Greece,"37.8127499,23.7781571",(30)(210) 8902000,,16671,2010-06-08T19:06:36,40 Apollonos Street - Astir Palace Complex,1983
4,New Delhi,(91)(11) 4266 2112,Sheraton New Delhi Hotel,India,"28.52658,77.21616",(91)(11) 4266 1122,New Delhi,110017,2010-06-08T18:50:06,"District Centre, Saket",1996
4,Herndon,(571) 643-0951,Sheraton Herndon Dulles Airport Hotel,United States,"38.958651,-77.4218063",(571) 643-0950,Virginia,20171,2010-06-08T19:11:51,13715 Sayward Boulevard,1998
4,Nassau,(242) 327 5968,Sheraton Nassau Beach Resort,Bahamas,"25.06,-77.345",(242) 327 6000,,,2010-06-08T19:07:18,P.O. Box No - 4914,3067
6,Palma de Mallorca,(34)(971) 493494,"Castillo Hotel Son Vida, Mallorca",Spain,"39.5901063,2.597137",(34)(971) 493493,,07013,2010-06-08T19:19:51,C/Raixa 2,3090
4,Urubamba,(51)(84) 581 778,"Tambo del Inka Resort & Spa, Valle Sagrado",Peru,"35.92522,14.49281",(51)(84) 581 777,,,2010-06-08T18:50:07,Avenida Ferrocarril S/N,3285
3,Bolingbrook,(630) 410-6368,Aloft Bolingbrook,United States,"41.7088573,-88.0392791",(630) 410-6367,Illinois,60440,2010-06-08T19:14:17,500 Janes Avenue,3347
2,El Gouna,(20)(65) 3545608,Sheraton Miramar Resort El Gouna,Egypt,"27.38503,33.67966",(20)(65) 3545606,,,2010-06-08T18:50:07,Red Sea,323
2,Sioux Falls,(605) 373-1033,Sheraton Sioux Falls & Convention Center,United States,"43.5635326,-96.7469839",(605) 331-0100,South Dakota,57104,2010-06-08T19:13:37,1211 West Avenue North,392
2,Atlanta,(404) 559-3996,The Westin Atlanta Airport,United States,"33.62757,-84.457243",(404) 762-7676,Georgia,30337,2010-06-08T19:15:40,4736 Best Road,1024
2,Fairview Heights,(618) 622-9548,Four Points by Sheraton Fairview Heights,United States,"38.605104,-89.982975",(618) 622-9500,Illinois,62208,2010-06-08T19:27:47,319 Fountains Pkwy,1168
4,Sydney,(61)(2) 8223 1222,The Westin Sydney,Australia,"-33.86807,151.208302",(61)(2) 8223 1111,New South Wales,2000,2010-06-08T19:12:50,1 Martin Place,1183
5,Palo Alto,(650) 321-5522,The Westin Palo Alto,United States,"37.440383,-122.163506",(650) 321-4422,California,94301,2010-06-08T19:02:51,675 El Camino Real,1198
1,Sharm El Sheikh,(20)(69) 3602099,"Sheraton Sharm Hotel, Resort, Villas & Spa",Egypt,"27.8598,34.2824",(20)(69) 3602070,,,2010-06-08T19:11:08,Al Pasha Coast,1202
3,Pittsburgh,(412) 227-4500,"The Westin Convention Center, Pittsburgh",United States,"40.4444655,-79.9955266",(412) 281-3700,Pennsylvania,15222,2010-06-08T19:10:35,1000 Penn Avenue,1370
4,Atlanta,(404) 365-8787,The Westin Buckhead Atlanta,United States,"33.8488938,-84.3644506",(404) 365-0065,Georgia,30326,2010-06-08T19:13:53,"3391 Peachtree Road, N.E.",1485
5,Dallas,(214) 397-4105,W Dallas - Victory,United States,"32.7873817,-96.8093257",(214) 397-4100,Texas,75219,2010-06-08T19:10:48,2440 Victory Park Lane,1521
3,Erie,(814) 454-2009,Sheraton Erie Bayfront Hotel,United States,"42.1372406,-80.0908836",(814) 454-2005,Pennsylvania,16507,2010-06-08T19:04:09,55 West Bay Drive,1728
4,Atlanta,(404) 582-5805,W Atlanta - Downtown,United States,"33.7646784,-84.3887299",(404) 582-5800,Georgia,30308,2010-06-08T19:18:34,45 Ivan Allen Jr. Boulevard,1788
4,Detroit,(313) 442-1605,The Westin Book Cadillac Detroit,United States,"42.331804,-83.050899",(313) 442-1600,Michigan,48226,2010-06-08T19:17:50,1114 Washington Blvd,3001
6,Los Angeles,(310) 247-0315,SLS Hotel at Beverly Hills,United States,"34.0699984,-118.376415",(310) 247-0400,California,90048,2010-06-08T19:02:01,465 S. La Cienega Boulevard,3171
4,Sao Paulo,(55)(11) 3055 8001,Sheraton Sao Paulo WTC Hotel,Brazil,"-23.6074052,-46.6972471",(55)(11) 3055 8000,Sao Paulo,04578-903,2010-06-08T18:59:33,Nacoes Unidas Ave 12559,3438
1,Jinan,(86)(531) 81629990,Sheraton Jinan Hotel,China,"36.5832852,117.1513291",(86)(531) 81629999,Shandong,250098,2010-06-08T19:18:56,No. 8 Long Ao North Road,3494
3,Batumi,(995)(222) 29029,Sheraton Batumi Hotel,"Georgia, Republic of","41.650982,41.63065",(995)(222) 29000,,6000,2010-06-08T18:50:10,28 Rustaveli Street,3552
4,Ankara,(90)(312) 457 6100,"Sheraton Hotel & Convention Center, Ankara",Turkey,"39.899598,32.865542",(90)(312) 457 6000,,06700,2010-06-08T19:27:52,"Noktali Sokak, Kavaklidere",331
3,Langhorne,(215) 269-3400,Sheraton Bucks County Hotel,United States,"40.1795606,-74.8701857",(215) 547-4100,Pennsylvania,19047,2010-06-08T19:29:03,400 Oxford Valley Road,674
2,Newark,(973) 465-7195,Sheraton Newark Airport Hotel,United States,"40.7118403,-74.1706461",(973) 690-5500,New Jersey,07114,2010-06-08T19:18:49,128 Frontage Road,796
2,Dania,(954) 920-3571,Sheraton Fort Lauderdale Airport & Cruise Port Hotel,United States,"26.061438,-80.162333",(954) 920-3500,Florida,33004,2010-06-08T19:05:15,1825 Griffin Road,1115
3,Columbia,(410) 730-1290,Sheraton Columbia Town Center Hotel,United States,"39.218007,-76.854823",(410) 730-3900,Maryland,21044,2010-06-08T19:00:49,10207 Wincopin Circle,1130
4,Amman,(962)(6) 593 4222,Sheraton Amman Al Nabil Hotel & Towers,Jordan,"31.949358,35.933",(962)(6) 593 4111,,11184,2010-06-08T18:50:00,5th Circle,1239
2,Mississauga,(905) 564-9555,Four Points by Sheraton Toronto Airport West,Canada,"43.6569481,-79.6498861",(905) 670-0050,Ontario,L5T 1A6,2010-06-08T19:19:09,6090 Dixie Road,1473
2,Linthicum,(443) 577-2101,Sheraton Baltimore Washington Airport Hotel - BWI,United States,"39.205395,-76.69387",(443) 577-2100,Maryland,21090,2010-06-08T19:11:03,1100 Old Elkridge Landing Road,1495
4,Tampa,(813) 282-1859,The Westin Tampa Bay,United States,"27.968424,-82.565792",(813) 281-0000,Florida,33607,2010-06-08T19:00:48,7627 W. Courtney Campbell Causeway,1505
3,Myrtle Beach,(843) 918-5001,Sheraton Myrtle Beach Convention Center Hotel,United States,"33.706402,-78.872416",(843) 918-5000,South Carolina,29577,2010-06-08T19:03:22,2101 North Oak Street,1726
5,Nice,(33)(4) 97 03 44 45,Le Méridien Nice,France,"43.694888,7.266662",(33)(4) 97 03 44 44,,06046,2010-06-08T19:22:50,1 Promenade des Anglais,1918
4,Chicago,(312) 255-4411,W Chicago - Lakeshore,United States,"41.8939137,-87.615156",(312) 943-9200,Illinois,60611-3017,2010-06-08T19:15:22,644 North Lake Shore Drive,2005
3,Montreal,(514) 636-7438,Aloft Montreal Airport,Canada,"45.4485099,-73.7510947",(514) 633-0900,Quebec,H9P 0A2,2010-06-08T19:00:24,500 McMillan Blvd.,3044
3,Hyderabad,(91)(40) 6767 76 76,The Westin Hyderabad Mindspace,India,"17.385044,78.486671",(91)(40) 6767 67 67,Andhra Pradesh,,2010-06-08T19:17:53,Mindspace IT Park,3219
1,Suzhou,(86)(512) 5363 8103,Four Points by Sheraton Taicang,China,"31.4569373,121.1349918",(86)(512) 8201 1111,Jiangsu,215400,2010-06-08T19:06:22,No. 288 Shanghai East Road,3377
4,Port St. Lucie,(772) 460-5705,"Sheraton PGA Vacation Resort, Port St. Lucie",United States,"27.307093,-80.42142",(772) 460-5700,Florida,34986,2010-06-08T18:56:21,8702 Champions Way,5619
3,Houston,(713) 688-9224,Sheraton Houston Brookhollow Hotel,United States,"29.677895,-95.424865",(713) 688-0100,Texas,77092,2010-06-08T19:03:39,3000 North Loop West Frwy,341
3,Austin,(512) 478-3700,Sheraton Austin Hotel at the Capitol,United States,"30.270326,-97.734258",(512) 478-1111,Texas,78701,2010-06-08T19:28:46,701 East 11th Street,597
4,Portsmouth,(603) 431-7805,Sheraton Portsmouth Harborside Hotel,United States,"43.079444,-70.760601",(603) 431-2300,New Hampshire,03801,2010-06-08T19:14:57,250 Market Street,636
4,Vancouver,(604) 893-7200,Sheraton Vancouver Wall Centre,Canada,"49.2804938,-123.1270705",(604) 331-1000,British Columbia,V6Z 2R9,2010-06-08T19:06:06,1088 Burrard Street,709
2,Ann Arbor,(734) 996-8136,Four Points by Sheraton Ann Arbor,United States,"42.240608,-83.735883",(734) 996-0600,Michigan,48108,2010-06-08T18:54:41,3200 Boardwalk,761
3,Rosemont,(847) 698-3993,The Westin O'Hare,United States,"41.9898061,-87.8599831",(847) 698-6000,Illinois,60018,2010-06-08T19:30:51,6100 North River Road,1032
2,Jiuzhaigou,(86)(837) 773 9666,Sheraton Jiuzhaigou Resort,China,"33.2337,103.9216",(86)(837) 773 9988,Sichuan,623402,2010-06-08T18:50:02,Jiuzhaigou Scenic Spot,1482
4,Charlotte,(704) 248-4005,"The Ballantyne, Charlotte",United States,"35.056901,-80.848142",(704) 248-4000,North Carolina,28277,2010-06-08T19:02:53,10000 Ballantyne Commons Parkway,1558
4,Victoria,(250) 391-3792,"The Westin Bear Mountain Golf Resort & Spa, Victoria",Canada,"48.4769675,-123.53183",(250) 391-7160,British Columbia,V9B 6R3,2010-06-08T19:18:29,1999 Country Club Way,1747
3,Toronto,(416) 675-4426,The Westin Bristol Place Toronto Airport,Canada,"43.6867466,-79.5980881",(416) 675-9444,Ontario,M9W 5N4,2010-06-08T18:58:14,950 Dixon Road,1771
2,Cairo,(20)(2) 3377 1730,Le Méridien Pyramids,Egypt,"29.988846,31.130469",(20)(2) 3377 7070,,12561,2010-06-08T18:50:03,El Remaya Square - Pyramids,1807
4,Makkah,(966)(2) 5752001,Le Méridien Makkah,Saudi Arabia,"21.4216649,39.8327635",(966)(2) 5751111,,13700,2010-06-08T19:04:02,King Abdulaziz Road,1890
5,Shanghai,(86)(21) 6361 3388,Le Royal Méridien Shanghai,China,"31.2308358,121.461663",(86)(21) 3318 9999,Shanghai,200001,2010-06-08T19:20:50,789 Nanjing Road East,1945
4,Shenzhen,(86)(755) 8888 1233,"Sheraton Dameisha Resort, Shenzhen",China,"22.59345,114.30789",(86)(755) 8888 6688,Guangdong,518083,2010-06-08T18:50:03,9 Yankui Road,1968
5,Princeville Kauai,(808) 827-8701,The Westin Princeville Ocean Resort Villas,United States,"22.2215856,-159.4686356",(808) 827-8700,Hawaii,96722,2010-06-08T19:02:42,3838 Wyllie Road,5648
4,Abuja,(234) (9) 523 1571,Sheraton Abuja Hotel,Nigeria,"9.0642075,7.4811083",(234) (9) 461 2000,Abuja Federal Capital Territory,,2010-06-08T19:17:21,Ladi Kwali Way,343
3,Fort Walton Beach,(850) 244-3064,Four Points by Sheraton Destin-Fort Walton Beach,United States,"30.3960479,-86.5918076",(850) 243-8116,Florida,32548,2010-06-08T19:25:38,1325 Miracle Strip Parkway,817
4,Parsippany,(973) 515-9798,Sheraton Parsippany Hotel,United States,"40.861376,-74.412335",(973) 515-2000,New Jersey,07054,2010-06-08T19:14:48,199 Smith Road,865
2,Springfield,(413) 747-8065,Sheraton Springfield Monarch Place Hotel,United States,"42.1018356,-72.5893485",(413) 781-1010,Massachusetts,01144,2010-06-08T18:57:45,One Monarch Place,989
4,Hilton Head Island,(843) 681-1096,The Westin Hilton Head Island Resort & Spa,United States,"32.209533,-80.683465",(843) 681-4000,South Carolina,29928,2010-06-08T18:53:38,Two Grasslawn Avenue,1050
3,Aleppo,(963)(21) 212 1136,Sheraton Aleppo Hotel,Syria,"36.215549,37.159279",(963)(21) 212 1111,,,2010-06-08T19:23:32,Al Khandaq Street,1345
4,Krakow,48-12-662-1100,Sheraton Krakow Hotel,Poland,"50.0555815,19.9312833",48-12-662-1000,,31-101,2010-06-08T19:08:23,7 Powisle Street,1477
6,Elciego,(34)(945) 180881,"Marqués de Riscal, Elciego",Spain,"42.5111439,-2.6181457",(34)(945) 180880,,01340,2010-06-08T19:10:31,"Calle Torrea, 1",1539
5,Palm Springs,(760) 324-2188,Le Parker Méridien Palm Springs,United States,"33.795451,-116.500116",(760) 770-5000,California,92264,2010-06-08T19:07:45,4200 East Palm Canyon Drive,1911
2,Novi,(248) 349-4066,Sheraton Detroit Novi,United States,"42.4429235,-83.4341655",(248) 349-4000,Michigan,48375,2010-06-08T19:16:00,21111 Haggerty Road,2019
2,Green Bay,(920) 593-6000,Aloft Green Bay,United States,"44.477939,-88.053184",(920) 884-0800,Wisconsin,54304,2010-06-08T19:07:22,465 Pilgrim Way,3230
2,Biloxi,(228) 546-3101,Four Points by Sheraton Biloxi Beach Boulevard,United States,"30.394742,-88.894822",(228) 546-3100,Mississippi,39530,2010-06-08T19:11:59,940 Beach Boulevard,3402
3,Los Angeles,(310) 642-4048,Sheraton Gateway Los Angeles Hotel,United States,"33.946531,-118.39078",(310) 642-1111,California,90045,2010-06-08T19:08:02,6101 West Century Boulevard,344
4,Cambridge,(617) 868-8322,Sheraton Commander Hotel,United States,"42.377378,-71.123149",(617) 547-4800,Massachusetts,02138,2010-06-08T19:00:13,16 Garden Street,607
3,Puerto Vallarta,(52)(322) 222 0500,Sheraton Buganvilias Resort and Convention Center,Mexico,"20.6259348,-105.2298211",(52)(322) 226 0404,Jalisco,48330,2010-06-08T19:17:40,Boulevard Medina Ascencio 999,843
3,Lakewood,(303) 969-0263,Sheraton Denver West Hotel,United States,"39.721539,-105.131811",(303) 987-2000,Colorado,80228,2010-06-08T19:12:56,360 Union Boulevard,883
3,Columbus,(614) 228-7666,The Westin Columbus,United States,"39.955831,-82.998916",(614) 228-3800,Ohio,43215,2010-06-08T19:21:56,310 S. High Street,1045
5,Bhamdoun,(961)(5) 260310,Four Points by Sheraton Bhamdoun,Lebanon,"33.807184,35.661685",(961)(5) 260300,,,2010-06-08T18:50:05,Main Square-Bhamdoun Al Mhatta,1320
2,Montevideo,(598)(2) 9032247,Four Points by Sheraton Montevideo,Uruguay,"-34.9074811,-56.1866595",(598)(2) 9017000,,11100,2010-06-08T19:14:04,Ejido 1275,1576
3,Calgary,(403) 648-3179,Four Points by Sheraton Calgary Airport,Canada,"51.0714308,-113.9984462",(403) 648-3180,Alberta,T1Y 7K7,2010-06-08T19:03:58,2875 Sunridge Way NE,1740
4,Pune,(91)(20) 26050506,Le Méridien Pune,India,"18.5298783,73.8693419",(91)(20) 26050505,Maharashtra,411001,2010-06-08T19:13:25,Raja Bahadur Mill Road,1832
3,Cambridge,(519) 653-6901,"Four Points by Sheraton Cambridge Kitchener, Ontario",Canada,"43.3991453,-80.3775626",(519) 653-2690,Ontario,N3H 5N1,2010-06-08T19:07:33,210 Preston Parkway,3278
6,Scottsdale,(480) 423-2881,The Canyon Suites at The Phoenician,United States,"33.507461,-111.949686",(480) 941-8200,Arizona,85251,2010-06-08T18:55:48,6000 East Camelback Road,3544
4,Frankfurt,(49)(69) 69772209,"Sheraton Frankfurt Hotel & Towers, Conference Center",Germany,"50.0530654,8.5813198",(49)(69) 69770,,60549,2010-06-08T19:07:14,Hugo-Eckener-Ring 15,363
6,Lagos,(234)(1) 2802280,Sheraton Lagos Hotel,Nigeria,"6.5838145,3.3584335",(234)(1) 2800100-300,Lagos,,2010-06-08T19:17:19,30 Mobolaji Bank Anthony Way,445
3,Toronto,(905) 672-7100,Sheraton Gateway Hotel in Toronto International Airport,Canada,"43.6691521,-79.6628408",(905) 672-7000,Ontario,L5P 1C4,2010-06-08T18:59:02,"Terminal 3, Toronto AMF, P.O. Box 3000",692
4,Flushing,(718) 445-2655,Sheraton LaGuardia East Hotel,United States,"40.7598913,-73.8316071",(718) 460-6666,New York,11354,2010-06-08T19:18:24,135-20 39th Avenue,994
1,Romulus,(734) 728-5580,Four Points by Sheraton Detroit Metro Airport,United States,"42.240258,-83.347499",(734) 729-9000,Michigan,48174,2010-06-08T19:20:07,8800 Wickham Road,1126
2,South San Francisco,(650) 553-9466,Four Points by Sheraton Hotel & Suites San Francisco Airport,United States,"37.647363,-122.405908",(650) 624-3700,California,94080,2010-06-08T19:00:42,264 South Airport Boulevard,1156
2,Rome,(39)(06) 50834701,Four Points by Sheraton Roma West Hotel,Italy,"41.7805024,12.4395886",(39)(06) 50834111,,00128,2010-06-08T19:15:55,"Viale degli Eroi di Cefalonia, 301",1388
5,Fort Lauderdale,(954) 414-8250,W Fort Lauderdale,United States,"26.1288589,-80.1035105",(954) 414-8200,Florida,33304,2010-06-08T18:56:17,401 North Fort Lauderdale Beach Boulevard,1522
5,Singapore,(65) 6506 6708,The St. Regis Singapore,Singapore,"1.30613,103.82624",(65) 6506 6888,,247911,2010-06-08T18:56:40,29 Tanglin Road,1533
4,Vienna,(43)(1) 5889090,Le Méridien Vienna,Austria,"48.2026627,16.3665764",(43)(1) 588900,,1010,2010-06-08T19:08:57,Opernring 13,1852
4,Richmond,(804) 282-8445,The Westin Richmond,United States,"37.6035499,-77.5153901",(804) 282-8444,Virginia,23230,2010-06-08T18:59:21,6631 West Broad Street,1993
4,Colonia Del Sacramento,(598) 52 29001,Sheraton Colonia Golf & Spa Resort,Uruguay,"-34.4496,-57.84173",(598) 52 29000,,70000,2010-06-08T18:50:06,Continuación de la Rambla de Las Américas S/N,1534
2,Beijing,(86)(10) 8889 8899,"Four Points by Sheraton Beijing, Haidian",China,"39.9584,116.2808",(86)(10) 8889 8888,Beijing,100097,2010-06-08T18:50:06,"Tower 1, 25 Yuanda Road",3017
2,Hohhot,(86)(471) 698 8999,Sheraton Hohhot Hotel,China,"40.82596,111.6707",(86)(471) 698 8888,Inner Mongolia,010010,2010-06-08T18:50:06,"No.5, Ying Bin North Road",3078
2,Guangzhou,(86)(20) 3211 0999,"Four Points by Sheraton Guangzhou, Dongpu",China,"23.11084,113.41759",(86)(20) 3211 0888,Guangdong,510660,2010-06-08T18:50:07,"No. 1 Jing Ying Road, Hui Cai Road",3119
2,Oklahoma City,(405) 418-8449,Four Points by Sheraton Oklahoma City Quail Springs,United States,"35.6109122,-97.5750816",(405) 418-8448,Oklahoma,73134,2010-06-08T19:26:36,3117 NW 137th Street,3229
4,Cambridge,(617) 494-8366,Le Méridien Cambridge-MIT,United States,"42.362349,-71.100211",(617) 577-0200,Massachusetts,02139,2010-06-08T19:08:17,20 Sidney Street,3253
4,Makkah,(966)(2) 5395555,Le Méridien Towers Makkah,Saudi Arabia,"21.467762,39.2509047",(966)(2) 5399999,,21955,2010-06-08T19:16:21,P.O Box 9991 Kudai Road,3354
3,Pomona,(909) 622-3577,Sheraton Fairplex Hotel,United States,"34.079287,-117.76243",(909) 622-2220,California,91768,2010-06-08T19:01:49,601 West McKinley Avenue,662
2,Medellin,(57) (4) 321-6806,Four Points by Sheraton Medellin,Colombia,"6.2531498,-75.5595336",(57) (4) 321-8088,,,2010-06-08T19:04:37,Carrera 43 C #6 Sur 100,736
4,San Francisco,(415) 774-0124,The Westin St. Francis,United States,"37.787768,-122.408764",(415) 397-7000,California,94102,2010-06-08T19:07:47,335 Powell Street,1010
3,Dusseldorf,(49)(211) 38670333,Four Points by Sheraton Central Dusseldorf,Germany,"51.21738,6.78142",(49)(211) 386700,,40215,2010-06-08T19:04:16,Luisenstrasse 42,1413
2,Zagreb,(385)(1) 3092657,Four Points by Sheraton Panorama Zagreb,Croatia,"45.807745,15.9529207",(385)(1) 3658333,,10000,2010-06-08T19:22:18,Trg Kresimira Cosica 9,1465
2,Midwest City,(405) 455-1880,Sheraton Midwest City Hotel at the Reed Conference Center,United States,"35.4476184,-97.4225527",(405) 455-1800,Oklahoma,73110,2010-06-08T19:15:59,5750 Will Rogers Road,1494
5,Hollywood,(323) 798-1305,W Hollywood,United States,"34.101611,-118.325301",(323) 798-1300,California,90028,2010-06-08T19:04:13,6250 Hollywood Boulevard,1789
4,Dasman,(965) 2247 9000,Le Méridien Tower Kuwait,Kuwait,"29.38737,47.99476",(965) 1831 831,,15451,2010-06-08T18:50:07,Fahed Al-Salem Street,1884
2,Charlotte,(704) 522-1634,Four Points by Sheraton Charlotte,United States,"35.1776192,-80.8785992",(704) 522-0852,North Carolina,28217,2010-06-08T19:12:42,315 E Woodlawn Road,1989
4,Dallas,(972) 851-2869,The Westin Galleria Dallas,United States,"32.929999,-96.820424",(972) 934-9494,Texas,75240,2010-06-08T19:23:11,13340 Dallas Parkway,3155
3,Milpitas,(408) 943-0484,Sheraton San Jose Hotel,United States,"37.401835,-121.911829",(408) 943-0600,California,95035,2010-06-08T19:10:51,1801 Barber Lane,670
3,Southfield,(248) 827-1364,The Westin Southfield Detroit,United States,"42.475705,-83.244588",(248) 827-4000,Michigan,48075,2010-06-08T18:56:18,1500 Town Center,1038
3,Sacramento,(916) 447-1701,Sheraton Grand Sacramento Hotel,United States,"38.579299,-121.490027",(916) 447-1700,California,95814,2010-06-08T19:21:36,1230 J Street,1247
3,Xiamen,(86)(592) 553 9088,Sheraton Xiamen Hotel,China,"24.495612,118.127132",(86)(592) 552 5888,Fujian,361009,2010-06-08T19:01:17,386-1 Jiahe Road,1545
2,Metairie,(504) 837-6906,Sheraton Metairie - New Orleans Hotel,United States,"29.9947274,-90.1526647",(504) 837-6707,Louisiana,70001,2010-06-08T19:25:55,Four Galleria Boulevard,1798
4,Dasman,(965) 2252 8334,Le Méridien Kuwait,Kuwait,"29.3858069,48.0022112",(965) 2251 0999,,15451,2010-06-08T19:03:06,Arabian Gulf Road,1883
6,Abu Dhabi,(971)(2) 6950 434,Le Royal Méridien Abu Dhabi,United Arab Emirates,"24.4872392,54.3560777",(971)(2) 674 2020,,,2010-06-08T19:21:58,Sheikh Khalifa Street,1900
5,San Francisco,(415) 296-2901,Le Méridien San Francisco,United States,"37.7949009,-122.4004404",(415) 296-2900,California,94111,2010-06-08T19:17:01,333 Battery Street,1957
3,Austin,(512) 478-3700,Sheraton Austin Hotel at the Capitol,United States,"30.270326,-97.734258",(512) 478-1111,Texas,78701,2010-06-08T19:13:21,701 East 11th Street,3079
2,Winnipeg,(204) 269-0364,Four Points by Sheraton Winnipeg South,Canada,"49.786404,-97.1573638",(204) 275-7711,Manitoba,R3T 2H5,2010-06-08T18:56:01,2935 Pembina Highway,3086
2,Leominster,(978) 534-0891,Four Points by Sheraton Leominster,United States,"42.5467889,-71.7585433",(978) 534-9000,Massachusetts,01453,2010-06-08T19:00:30,99 Erdman Way,818
3,Atlanta,(770) 395-3935,The Westin Atlanta Perimeter North,United States,"33.916135,-84.3532145",(770) 395-3900,Georgia,30328,2010-06-08T19:11:12,7 Concourse Parkway,1023
4,Houston,(713) 960-6554,The Westin Oaks Houston,United States,"29.73988,-95.463467",(713) 960-8100,Texas,77056,2010-06-08T18:58:26,5011 Westheimer at Post Oak,1054
3,Orlando,(407) 240-1300,Sheraton Suites Orlando Airport,United States,"28.455578,-81.307927",(407) 240-5555,Florida,32822,2010-06-08T19:16:04,7550 Augusta National Drive,1317
2,Salt Lake City,(801) 531-0705,Sheraton Salt Lake City Hotel,United States,"40.7585187,-111.8955641",(801) 401-2000,Utah,84101,2010-06-08T18:58:11,150 West 500 South,1327
5,Las Vegas,(702) 836-9776,"The Westin Casuarina Las Vegas Hotel, Casino & Spa",United States,"36.115204,-115.16549",(702) 836-5900,Nevada,89109,2010-06-08T19:27:31,160 East Flamingo Road,1448
3,Dresden,(49)(351) 8051609,"The Westin Bellevue, Dresden",Germany,"51.05839,13.73923",(49)(351) 8050,,01097,2010-06-08T19:19:32,Grosse Meissner Strasse 15,1458
3,Minneapolis,(612) 821-7924,Sheraton Minneapolis Midtown Hotel,United States,"44.9501463,-93.262647",(612) 821-7600,Minnesota,55407,2010-06-08T19:13:35,2901 Chicago Avenue South,1546
5,Atlanta,(404) 563-7905,The St. Regis Atlanta,United States,"33.839089,-84.375837",(404) 563-7900,Georgia,30305,2010-06-08T19:04:00,Eighty-Eight West Paces Ferry Road,1714
4,Dubai,(971)(4) 3543111,Four Points by Sheraton Downtown Dubai,United Arab Emirates,"25.25,55.3",(971)(4) 3543333,,,2010-06-08T19:12:27,"Mankhool Road, 4C Street",3093
2,Rosemont,(847) 671-2955,Aloft Chicago O'Hare,United States,"41.9766999,-87.8688465",(847) 671-4444,Illinois,60018,2010-06-08T19:24:04,9700 Balmoral Avenue,3124
4,Pune,(91)(20) 6721 0021,The Westin Pune Koregaon Park,India,"18.5328723,73.9080581",(91)(20) 6721 0000,Maharashtra,411001,2010-06-08T18:56:33,36/3-B Koregaon Park Annexe,3218
2,Chapel Hill,(919) 932-7773,Aloft Chapel Hill,United States,"35.907507,-79.023318",(919) 932-7772,North Carolina,27517,2010-06-08T19:03:10,1001 South Hamilton Road,3411
4,Palm Desert,(760) 636-7001,"The Westin Desert Willow Villas, Palm Desert",United States,"33.7591998,-116.3671266",(760) 636-7000,California,92260,2010-06-08T19:00:39,75 Willow Ridge,5653
4,Seattle,(206) 728-2259,The Westin Seattle,United States,"47.6132904,-122.3378583",(206) 728-1000,Washington,98101,2010-06-08T19:02:40,1900 5th Avenue,1055
5,San Diego,(619) 232-3626,"THE US GRANT, San Diego",United States,"32.716068,-117.161533",(619) 232-3121,California,92101,2010-06-08T19:01:08,326 Broadway,1488
4,Phoenix,(602) 817-5325,Sheraton Phoenix Downtown Hotel,United States,"33.451898,-112.0699883",(602) 262-2500,Arizona,85004,2010-06-08T19:19:37,340 North 3rd Street,1703
4,Guangzhou,(86)(20) 2826 6886,The Westin Guangzhou,China,"23.1455177,113.3257001",(86)(20) 2886 6868,Guangdong,510610,2010-06-08T19:06:50,6 Lin He Zhong Road,1706
3,Pleasanton,(925) 463-3315,Sheraton Pleasanton Hotel,United States,"37.6984629,-121.930108",(925) 463-3330,California,94588,2010-06-08T19:11:29,5990 Stoneridge Mall Road,1751
4,Coral Gables,(305) 445-3929,"The Westin Colonnade, Coral Gables",United States,"25.7505062,-80.2582505",(305) 441-2600,Florida,33134,2010-06-08T19:00:27,180 Aragon Avenue,1794
1,Jakarta,(62)(21) 571 1640,Le Méridien Jakarta,Indonesia,"-6.2042634,106.82235",(62)(21) 251 3131,Jakarta,10220,2010-06-08T19:20:26,Jalan Jenderal Sudirman,1837
3,Amman,(962)(6) 567 4261,Le Méridien Amman,Jordan,"31.96886,35.90493",(962)(6) 569 6511,,11195,2010-06-08T18:50:03,"Queen Noor Street, Shmeisani",1878
3,Dubai,(971)(4) 295 6464,Dar Al Sondos Hotel Apartments by Le Méridien,United Arab Emirates,"25.2570277,55.290299",(971)(4) 393 8000,,,2010-06-08T19:22:20,Bur Dubai Rolla Street,1904
6,Albufeira,(351) 289 501950,"Pine Cliffs Residence, Albufeira",Portugal,"37.0873196,-8.1695184",(351) 289 500100,,8200-909,2010-06-08T19:14:21,Praia Da Falesia,3014
4,Tianjin,(86)(22) 2389-0099,The Westin Tianjin,China,"39.1175477,117.2031727",(86)(22) 2389 0088,Tianjin,300040,2010-06-08T19:10:04,101 Nanjing Road,3387
4,Orlando,(407) 239-3111,"Sheraton Vistana Resort Villas, Lake BuenaVista/Orlando",United States,"28.3680335,-81.5049588",(407) 239-3100,Florida,32821,2010-06-08T23:15:04,8800 Vistana Centre Drive,5608
3,Guiyang,(86)(851) 588 9999,Sheraton Guiyang Hotel,China,"26.574063,106.712839",(86)(851) 588 8888,Guizhou,550002,2010-06-08T18:50:04,49 Zhong Hua Nan Road,1577
2,Mississauga,(905) 821-1592,Four Points by Sheraton Mississauga Meadowvale,Canada,"43.6010585,-79.7560048",(905) 858-2424,Ontario,L5N 4G8,2010-06-08T19:03:53,2501 Argentia Road,1748
3,Niagara Falls,(905) 357-3422,Four Points by Sheraton Niagara Falls Fallsview,Canada,"43.08178,-79.082648",(905) 357-5200,Ontario,L2G 3V9,2010-06-08T19:12:18,6455 Fallsview Boulevard,3315
3,Columbus,(614) 475-8620,Four Points by Sheraton Columbus Ohio Airport,United States,"40.0026753,-82.92704",(614) 475-8383,Ohio,43219,2010-06-08T19:07:56,3030 Plaza Properties Boulevard,3329
5,Los Angeles,(310) 824-0355,W Los Angeles - Westwood,United States,"34.063201,-118.441029",(310) 208-8765,California,90024,2010-06-08T19:10:27,930 Hilgard Avenue,97518
6,London,(32) (2) 204 5555,W London - Leicester Square,United Kingdom,"51.5101066,-0.1304945",(44)(207) 290 7231,England,W1D 6QF,2010-07-20T11:38:58,Leicester Square,3464
3,Toronto,(416) 869 0573,"The Westin Harbour Castle, Toronto",Canada,"43.6412,-79.37592",(416) 869 1600,Ontario,M5J 1A6,2010-07-24T11:39:03,1 Harbour Square,1084
3,Mississauga,(905) 678-9130,Four Points by Sheraton Toronto Airport,Canada,"43.6897249,-79.6213646",(905) 678-1400,Ontario,L4V 1E4,2010-07-25T11:39:04,6257 Airport Road,1490
4,Ottawa,(613) 234-5396,The Westin Ottawa,Canada,"45.4251263,-75.6930209",(613) 560 7000,Ontario,K1N 9H4,2010-07-26T11:39:04,11 Colonel By Drive,1083
2,Gatineau,(819) 778-3647,Four Points by Sheraton & Conference Centre Gatineau-Ottawa,Canada,"45.4296158,-75.7101767",(819) 778-6111,Quebec,J8X 4E9,2010-07-21T11:38:59,35 Rue Laurier,1329
5,Roissy,(33)(1) 49197071,Sheraton Paris Airport Hotel & Conference Centre,France,,(33)(1) 49197070,,95716,2010-07-19T14:46:41,BP 35051 Tremblay en France,125
5,Roissy,(33)(1) 49197071,Sheraton Paris Airport Hotel & Conference Centre,France,,(33)(1) 49197070,,95716,2010-07-19T14:46:46,BP 35051 Tremblay en France,1729
4,Paris,(33)(1) 44 364900,Le Méridien Montparnasse,France,"48.8389104,2.32037",(33)(1) 44 364436,,75014,2010-07-28T11:39:06,19 Rue du Commandant Mouchotte,1920
2,Karachi,(92)(21) 35633209,Sheraton Karachi Hotel,Pakistan,,(92)(21) 35633333,,75530,2010-07-31T01:50:51,Club Road,448
